{"type":"FeatureCollection","generado_utc":"2026-10-11T00:29:57Z","fuente":"Medios mexicanos (titulares, verificar)","features":[{"type":"Feature","geometry":{"type":"Point","coordinates":[-99.88,16.86]},"properties":{"title":"Atiende Gobierno de Acapulco deslaves, derrumbes y daños por lluvias","url":"https://guerrero.quadratin.com.mx/atiende-gobierno-de-acapulco-deslaves-derrumbes-y-danos-por-lluvias/","source":"Quadratín Guerrero","date":"2026-10-10T21:14:50Z","lugar":"Acapulco, Guerrero","pais_iso3":"MEX","precision":"ciudad","origen":"mx","via":"RSS de Quadratín Guerrero","name":"Atiende Gobierno de Acapulco deslaves, derrumbes y daños por lluvias","state":"Acapulco, Guerrero","kind":"DESLAVE"}},{"type":"Feature","geometry":{"type":"Point","coordinates":[-99.88,16.86]},"properties":{"title":"Coordina SSP Acapulco atención a deslave en Sinfonía del Mar","url":"https://guerrero.quadratin.com.mx/coordina-ssp-acapulco-atencion-a-deslave-en-sinfonia-del-mar/","source":"Quadratín Guerrero","date":"2026-10-10T21:09:40Z","lugar":"Acapulco, Guerrero","pais_iso3":"MEX","precision":"ciudad","origen":"mx","via":"RSS de Quadratín Guerrero","name":"Coordina SSP Acapulco atención a deslave en Sinfonía del Mar","state":"Acapulco, Guerrero","kind":"DESLAVE"}},{"type":"Feature","geometry":{"type":"Point","coordinates":[-99.5,17.55]},"properties":{"title":"Lluvias provocan deslave de una casa en Chilpancingo","url":"https://guerrero.quadratin.com.mx/lluvias-provocan-deslave-de-una-casa-en-chilpancingo/","source":"Quadratín Guerrero","date":"2026-10-09T21:47:34Z","lugar":"Chilpancingo, Guerrero","pais_iso3":"MEX","precision":"ciudad","origen":"mx","via":"RSS de Quadratín Guerrero","name":"Lluvias provocan deslave de una casa en Chilpancingo","state":"Chilpancingo, Guerrero","kind":"DESLAVE"}},{"type":"Feature","geometry":{"type":"Point","coordinates":[-99.13,19.43]},"properties":{"title":"Gobierno de la CDMX culpa a la alcaldía Cuauhtémoc de provocar un socavón donde cayó un vehículo","url":"https://www.infobae.com/mexico/2026/10/09/gobierno-de-la-cdmx-culpa-a-la-alcaldia-cuauhtemoc-de-provocar-un-socavon-donde-cayo-un-vehiculo/","source":"Infobae México","date":"2026-10-09T18:50:28Z","lugar":"Ciudad de México","pais_iso3":"MEX","precision":"estado","origen":"mx","via":"RSS de Infobae México","name":"Gobierno de la CDMX culpa a la alcaldía Cuauhtémoc de provocar un socavón donde cayó un vehículo","state":"Ciudad de México","kind":"DESLAVE"}}]}