{"type":"FeatureCollection","generado_utc":"2026-10-10T21:29:58Z","fuente":"The Space Devs, Launch Library 2","features":[{"type":"Feature","geometry":{"type":"Point","coordinates":[-120.611,34.632]},"properties":{"id":"da43dc2c-00af-4cc1-8ef1-90a60b2eb9e5","nombre":"Falcon 9 Block 5 | SDA Tranche 1 Transport Layer A","fecha_utc":"2026-10-10T07:39:44Z","ventana_fin":"2026-10-10T07:39:44Z","precision":"Second","estado":"Exitoso","estado_corto":"Success","cohete":"Falcon 9 Block 5","empresa":"SpaceX","tipo_empresa":"Commercial","mision":"SDA Tranche 1 Transport Layer A","tipo_mision":"Government/Top Secret","orbita":"PO","plataforma":"Space Launch Complex 4E","lugar":"Vandenberg SFB, CA, USA","pais_iso3":"USA","url":"https://thespacedevs.com/launch/da43dc2c-00af-4cc1-8ef1-90a60b2eb9e5"}},{"type":"Feature","geometry":{"type":"Point","coordinates":[-120.611,34.632]},"properties":{"id":"97c6f5e1-299e-4652-b72d-9618ac047076","nombre":"Falcon 9 Block 5 | Starlink Group 15-25","fecha_utc":"2026-10-12T23:00:00Z","ventana_fin":"2026-10-13T03:00:00Z","precision":"Minute","estado":"Confirmado (Go)","estado_corto":"Go","cohete":"Falcon 9 Block 5","empresa":"SpaceX","tipo_empresa":"Commercial","mision":"Starlink Group 15-25","tipo_mision":"Communications","orbita":"LEO","plataforma":"Space Launch Complex 4E","lugar":"Vandenberg SFB, CA, USA","pais_iso3":"USA","url":"https://thespacedevs.com/launch/97c6f5e1-299e-4652-b72d-9618ac047076"}},{"type":"Feature","geometry":{"type":"Point","coordinates":[-80.5774,28.5619]},"properties":{"id":"bf2c3027-a314-403e-a416-2bfd5d165ad1","nombre":"Falcon 9 Block 5 | Dragon CRS-2 SpX-35","fecha_utc":"2026-10-13T10:33:44Z","ventana_fin":"2026-10-13T10:33:44Z","precision":"Second","estado":"Confirmado (Go)","estado_corto":"Go","cohete":"Falcon 9 Block 5","empresa":"SpaceX","tipo_empresa":"Commercial","mision":"Dragon CRS-2 SpX-35","tipo_mision":"Resupply","orbita":"LEO","plataforma":"Space Launch Complex 40","lugar":"Cape Canaveral SFS, FL, USA","pais_iso3":"USA","url":"https://thespacedevs.com/launch/bf2c3027-a314-403e-a416-2bfd5d165ad1"}},{"type":"Feature","geometry":{"type":"Point","coordinates":[-120.611,34.632]},"properties":{"id":"df88cfbf-f504-4e11-8370-e33dd6280b5b","nombre":"Falcon 9 Block 5 | USSF-481","fecha_utc":"2026-10-15T23:44:00Z","ventana_fin":"2026-10-16T03:44:00Z","precision":"Minute","estado":"Confirmado (Go)","estado_corto":"Go","cohete":"Falcon 9 Block 5","empresa":"SpaceX","tipo_empresa":"Commercial","mision":"USSF-481","tipo_mision":"Government/Top Secret","orbita":"PO","plataforma":"Space Launch Complex 4E","lugar":"Vandenberg SFB, CA, USA","pais_iso3":"USA","url":"https://thespacedevs.com/launch/df88cfbf-f504-4e11-8370-e33dd6280b5b"}},{"type":"Feature","geometry":{"type":"Point","coordinates":[130.9756,30.4009]},"properties":{"id":"69ebbcd2-b257-4070-9ef9-21e7d1f8a883","nombre":"H3-24 | Martian Moons eXploration (MMX)","fecha_utc":"2026-10-19T19:41:03Z","ventana_fin":"2026-10-19T19:41:03Z","precision":"Second","estado":"Confirmado (Go)","estado_corto":"Go","cohete":"H3-24","empresa":"Mitsubishi Heavy Industries","tipo_empresa":"Commercial","mision":"Martian Moons eXploration (MMX)","tipo_mision":"Planetary Science","orbita":"Mars","plataforma":"Yoshinobu Launch Complex LP-2","lugar":"Tanegashima Space Center, Japan","pais_iso3":"JPN","url":"https://thespacedevs.com/launch/69ebbcd2-b257-4070-9ef9-21e7d1f8a883"}},{"type":"Feature","geometry":{"type":"Point","coordinates":[-80.583,28.5834]},"properties":{"id":"ef9850ad-1096-425b-9d27-f7bbd186e61a","nombre":"Vulcan VC6L | Amazon Leo (LV-01)","fecha_utc":"2026-10-29T00:00:00Z","ventana_fin":"2026-10-29T00:00:00Z","precision":"Day","estado":"Fecha por definir","estado_corto":"TBD","cohete":"Vulcan VC6L","empresa":"United Launch Alliance","tipo_empresa":"Commercial","mision":"Amazon Leo (LV-01)","tipo_mision":"Communications","orbita":"LEO","plataforma":"Space Launch Complex 41","lugar":"Cape Canaveral SFS, FL, USA","pais_iso3":"USA","url":"https://thespacedevs.com/launch/ef9850ad-1096-425b-9d27-f7bbd186e61a"}},{"type":"Feature","geometry":{"type":"Point","coordinates":[-52.7868,5.2563]},"properties":{"id":"7bdc412b-c965-4517-a131-f57a01189803","nombre":"Ariane 64 Block 2 | Amazon Leo (LE-04)","fecha_utc":"2026-10-31T00:00:00Z","ventana_fin":"2026-10-31T00:00:00Z","precision":"Month","estado":"Fecha por definir","estado_corto":"TBD","cohete":"Ariane 64 Block 2","empresa":"Arianespace","tipo_empresa":"Commercial","mision":"Amazon Leo (LE-04)","tipo_mision":"Communications","orbita":"LEO","plataforma":"Ariane Launch Area 4","lugar":"Guiana Space Centre, French Guiana","pais_iso3":"GUF","url":"https://thespacedevs.com/launch/7bdc412b-c965-4517-a131-f57a01189803"}},{"type":"Feature","geometry":{"type":"Point","coordinates":[-80.5774,28.5619]},"properties":{"id":"3b430f81-0ff1-4d85-8a1a-cef0de326198","nombre":"Falcon 9 Block 5 | Bandwagon 5 (Dedicated Mid-Inclination Rideshare)","fecha_utc":"2026-10-31T00:00:00Z","ventana_fin":"2026-10-31T00:00:00Z","precision":"Month","estado":"Fecha por definir","estado_corto":"TBD","cohete":"Falcon 9 Block 5","empresa":"SpaceX","tipo_empresa":"Commercial","mision":"Bandwagon 5 (Dedicated Mid-Inclination Rideshare)","tipo_mision":"Dedicated Rideshare","orbita":"LEO","plataforma":"Space Launch Complex 40","lugar":"Cape Canaveral SFS, FL, USA","pais_iso3":"USA","url":"https://thespacedevs.com/launch/3b430f81-0ff1-4d85-8a1a-cef0de326198"}},{"type":"Feature","geometry":{"type":"Point","coordinates":[80.2304,13.7199]},"properties":{"id":"20d5676e-111b-40e3-8923-b218c3665ca2","nombre":"GSLV Mk II | IRNSS-1L (NVS-03)","fecha_utc":"2026-10-31T00:00:00Z","ventana_fin":"2026-10-31T00:00:00Z","precision":"Month","estado":"Fecha por definir","estado_corto":"TBD","cohete":"GSLV Mk. II","empresa":"Indian Space Research Organization","tipo_empresa":"Government","mision":"IRNSS-1L (NVS-03)","tipo_mision":"Navigation","orbita":"GTO","plataforma":"Satish Dhawan Space Centre Second Launch Pad","lugar":"Satish Dhawan Space Centre, India","pais_iso3":"IND","url":"https://thespacedevs.com/launch/20d5676e-111b-40e3-8923-b218c3665ca2"}},{"type":"Feature","geometry":{"type":"Point","coordinates":[100.2173,40.8916]},"properties":{"id":"dc570565-4dcf-4ab9-8174-bf88efef477f","nombre":"Long March 12A | Flight 2","fecha_utc":"2026-10-31T00:00:00Z","ventana_fin":"2026-10-31T00:00:00Z","precision":"Month","estado":"Fecha por definir","estado_corto":"TBD","cohete":"Long March 12A","empresa":"China Aerospace Science and Technology Corporation","tipo_empresa":"Government","mision":"Flight 2","tipo_mision":"Test Flight","orbita":"LEO","plataforma":"Long March 12 series Pad","lugar":"Jiuquan Satellite Launch Center, People's Republic of China","pais_iso3":"CHN","url":"https://thespacedevs.com/launch/dc570565-4dcf-4ab9-8174-bf88efef477f"}},{"type":"Feature","geometry":{"type":"Point","coordinates":[80.235,13.733]},"properties":{"id":"e59ff9a4-f72f-4841-8546-3c94346ecdba","nombre":"SSLV | AayulSAT-1A & others","fecha_utc":"2026-10-31T00:00:00Z","ventana_fin":"2026-10-31T00:00:00Z","precision":"Month","estado":"Fecha por definir","estado_corto":"TBD","cohete":"SSLV","empresa":"Indian Space Research Organization","tipo_empresa":"Government","mision":"AayulSAT-1A & others","tipo_mision":"Technology","orbita":"LEO","plataforma":"Satish Dhawan Space Centre First Launch Pad","lugar":"Satish Dhawan Space Centre, India","pais_iso3":"IND","url":"https://thespacedevs.com/launch/e59ff9a4-f72f-4841-8546-3c94346ecdba"}},{"type":"Feature","geometry":{"type":"Point","coordinates":[63.564,45.996]},"properties":{"id":"8dd5de11-831b-445f-86f0-bffefe0550d9","nombre":"Soyuz 2.1b | Progress MS-36 (97P)","fecha_utc":"2026-11-24T05:03:00Z","ventana_fin":"2026-11-24T05:03:00Z","precision":"Minute","estado":"Por confirmar","estado_corto":"TBC","cohete":"Soyuz 2.1b","empresa":"Russian Federal Space Agency (ROSCOSMOS)","tipo_empresa":"Government","mision":"Progress MS-36 (97P)","tipo_mision":"Resupply","orbita":"LEO","plataforma":"31/6","lugar":"Baikonur Cosmodrome, Republic of Kazakhstan","pais_iso3":"KAZ","url":"https://thespacedevs.com/launch/8dd5de11-831b-445f-86f0-bffefe0550d9"}},{"type":"Feature","geometry":{"type":"Point","coordinates":[-52.7868,5.2563]},"properties":{"id":"22e117bf-041c-49d5-9d09-7b180036e143","nombre":"Ariane 62 | Metop-SG B1","fecha_utc":"2026-11-30T00:00:00Z","ventana_fin":"2026-11-30T00:00:00Z","precision":"Month","estado":"Fecha por definir","estado_corto":"TBD","cohete":"Ariane 62","empresa":"Arianespace","tipo_empresa":"Commercial","mision":"Metop-SG B1","tipo_mision":"Earth Science","orbita":"SSO","plataforma":"Ariane Launch Area 4","lugar":"Guiana Space Centre, French Guiana","pais_iso3":"GUF","url":"https://thespacedevs.com/launch/22e117bf-041c-49d5-9d09-7b180036e143"}},{"type":"Feature","geometry":{"type":"Point","coordinates":[-80.5774,28.5619]},"properties":{"id":"d74afbc7-0de5-491c-be05-4e9c31f736ac","nombre":"Falcon 9 Block 5 | Cygnus CRS-2 NG-25","fecha_utc":"2026-11-30T00:00:00Z","ventana_fin":"2026-11-30T00:00:00Z","precision":"Month","estado":"Fecha por definir","estado_corto":"TBD","cohete":"Falcon 9 Block 5","empresa":"SpaceX","tipo_empresa":"Commercial","mision":"Cygnus CRS-2 NG-25","tipo_mision":"Resupply","orbita":"LEO","plataforma":"Space Launch Complex 40","lugar":"Cape Canaveral SFS, FL, USA","pais_iso3":"USA","url":"https://thespacedevs.com/launch/d74afbc7-0de5-491c-be05-4e9c31f736ac"}},{"type":"Feature","geometry":{"type":"Point","coordinates":[80.2304,13.7199]},"properties":{"id":"dfac5ab7-7017-454f-b6cf-eeed277a97b5","nombre":"LVM-3 | Gaganyaan-1","fecha_utc":"2026-11-30T00:00:00Z","ventana_fin":"2026-11-30T00:00:00Z","precision":"Month","estado":"Fecha por definir","estado_corto":"TBD","cohete":"Launch Vehicle Mark-3 (GSLV Mk III)","empresa":"Indian Space Research Organization","tipo_empresa":"Government","mision":"Gaganyaan-1","tipo_mision":"Test Flight","orbita":"LEO","plataforma":"Satish Dhawan Space Centre Second Launch Pad","lugar":"Satish Dhawan Space Centre, India","pais_iso3":"IND","url":"https://thespacedevs.com/launch/dfac5ab7-7017-454f-b6cf-eeed277a97b5"}},{"type":"Feature","geometry":{"type":"Point","coordinates":[80.235,13.733]},"properties":{"id":"b5a9bccb-30d7-4af6-8ad1-fabb563be53c","nombre":"PSLV-XL | TDS-01","fecha_utc":"2026-11-30T00:00:00Z","ventana_fin":"2026-11-30T00:00:00Z","precision":"Month","estado":"Fecha por definir","estado_corto":"TBD","cohete":"PSLV XL","empresa":"Indian Space Research Organization","tipo_empresa":"Government","mision":"TDS-01","tipo_mision":"Technology","orbita":"GTO","plataforma":"Satish Dhawan Space Centre First Launch Pad","lugar":"Satish Dhawan Space Centre, India","pais_iso3":"IND","url":"https://thespacedevs.com/launch/b5a9bccb-30d7-4af6-8ad1-fabb563be53c"}},{"type":"Feature","geometry":{"type":"Point","coordinates":[-80.528,28.458]},"properties":{"id":"71df1dd0-d658-4762-b0bc-0fca6886aea7","nombre":"Falcon 9 Block 5 | SDA Tranche 2 Transport Layer D","fecha_utc":"2026-12-31T00:00:00Z","ventana_fin":"2026-12-31T00:00:00Z","precision":"Month","estado":"Fecha por definir","estado_corto":"TBD","cohete":"Falcon 9 Block 5","empresa":"SpaceX","tipo_empresa":"Commercial","mision":"SDA Tranche 2 Transport Layer D","tipo_mision":"Government/Top Secret","orbita":"PO","plataforma":"Unknown Pad","lugar":"Cape Canaveral SFS, FL, USA","pais_iso3":"USA","url":"https://thespacedevs.com/launch/71df1dd0-d658-4762-b0bc-0fca6886aea7"}},{"type":"Feature","geometry":{"type":"Point","coordinates":[-120.611,34.632]},"properties":{"id":"71ed4649-8d71-42e8-8548-d42ffa2c5a6e","nombre":"Falcon 9 Block 5 | SDA Tranche 2 Transport Layer E","fecha_utc":"2026-12-31T00:00:00Z","ventana_fin":"2026-12-31T00:00:00Z","precision":"Month","estado":"Fecha por definir","estado_corto":"TBD","cohete":"Falcon 9 Block 5","empresa":"SpaceX","tipo_empresa":"Commercial","mision":"SDA Tranche 2 Transport Layer E","tipo_mision":"Government/Top Secret","orbita":"PO","plataforma":"Space Launch Complex 4E","lugar":"Vandenberg SFB, CA, USA","pais_iso3":"USA","url":"https://thespacedevs.com/launch/71ed4649-8d71-42e8-8548-d42ffa2c5a6e"}},{"type":"Feature","geometry":{"type":"Point","coordinates":[-80.528,28.458]},"properties":{"id":"ce1317de-ec94-4479-9b28-38ebf11f13ae","nombre":"Falcon 9 Block 5 | Telesat Lightspeed 1","fecha_utc":"2026-12-31T00:00:00Z","ventana_fin":"2026-12-31T00:00:00Z","precision":"Month","estado":"Fecha por definir","estado_corto":"TBD","cohete":"Falcon 9 Block 5","empresa":"SpaceX","tipo_empresa":"Commercial","mision":"Telesat Lightspeed 1","tipo_mision":"Communications","orbita":"LEO","plataforma":"Unknown Pad","lugar":"Cape Canaveral SFS, FL, USA","pais_iso3":"USA","url":"https://thespacedevs.com/launch/ce1317de-ec94-4479-9b28-38ebf11f13ae"}},{"type":"Feature","geometry":{"type":"Point","coordinates":[-80.6043,28.6082]},"properties":{"id":"d3bd7fb2-fac6-49fc-ae52-cee07d2fde67","nombre":"Falcon Heavy | Griffin Mission One","fecha_utc":"2026-12-31T00:00:00Z","ventana_fin":"2026-12-31T00:00:00Z","precision":"Month","estado":"Fecha por definir","estado_corto":"TBD","cohete":"Falcon Heavy","empresa":"SpaceX","tipo_empresa":"Commercial","mision":"Griffin Mission One","tipo_mision":"Lunar Exploration","orbita":"LO","plataforma":"Launch Complex 39A","lugar":"Kennedy Space Center, FL, USA","pais_iso3":"USA","url":"https://thespacedevs.com/launch/d3bd7fb2-fac6-49fc-ae52-cee07d2fde67"}},{"type":"Feature","geometry":{"type":"Point","coordinates":[80.2304,13.7199]},"properties":{"id":"0cf92611-82a8-4095-a0b4-dda2e74b1fff","nombre":"LVM-3 | GSAT-32 (GSAT-N3)","fecha_utc":"2026-12-31T00:00:00Z","ventana_fin":"2026-12-31T00:00:00Z","precision":"Month","estado":"Fecha por definir","estado_corto":"TBD","cohete":"Launch Vehicle Mark-3 (GSLV Mk III)","empresa":"Indian Space Research Organization","tipo_empresa":"Government","mision":"GSAT-32 (GSAT-N3)","tipo_mision":"Communications","orbita":"GTO","plataforma":"Satish Dhawan Space Centre Second Launch Pad","lugar":"Satish Dhawan Space Centre, India","pais_iso3":"IND","url":"https://thespacedevs.com/launch/0cf92611-82a8-4095-a0b4-dda2e74b1fff"}},{"type":"Feature","geometry":{"type":"Point","coordinates":[-80.5422,28.4706]},"properties":{"id":"a5e81552-ecdd-4d89-b6bd-b594e22ca891","nombre":"New Glenn | Blue Ring-1","fecha_utc":"2026-12-31T00:00:00Z","ventana_fin":"2026-12-31T00:00:00Z","precision":"Month","estado":"Fecha por definir","estado_corto":"TBD","cohete":"New Glenn","empresa":"Blue Origin","tipo_empresa":"Commercial","mision":"Blue Ring-1","tipo_mision":"Space Situational Awareness","orbita":"GTO","plataforma":"Launch Complex 36A","lugar":"Cape Canaveral SFS, FL, USA","pais_iso3":"USA","url":"https://thespacedevs.com/launch/a5e81552-ecdd-4d89-b6bd-b594e22ca891"}},{"type":"Feature","geometry":{"type":"Point","coordinates":[-52.7868,5.2563]},"properties":{"id":"0b85fcca-5252-48d7-9ccb-c10b1da9d183","nombre":"Ariane 62 | Galileo L15 (FOC FM28 & FM31)","fecha_utc":"2026-12-31T00:00:00Z","ventana_fin":"2026-12-31T00:00:00Z","precision":"Quarter 4","estado":"Fecha por definir","estado_corto":"TBD","cohete":"Ariane 62","empresa":"Arianespace","tipo_empresa":"Commercial","mision":"Galileo L15 (FOC FM28 & FM31)","tipo_mision":"Navigation","orbita":"MEO","plataforma":"Ariane Launch Area 4","lugar":"Guiana Space Centre, French Guiana","pais_iso3":"GUF","url":"https://thespacedevs.com/launch/0b85fcca-5252-48d7-9ccb-c10b1da9d183"}},{"type":"Feature","geometry":{"type":"Point","coordinates":[-80.528,28.458]},"properties":{"id":"8bf5f61e-a7e1-41e6-aede-7b87e4beebab","nombre":"Falcon 9 Block 5 | CHORUS","fecha_utc":"2026-12-31T00:00:00Z","ventana_fin":"2026-12-31T00:00:00Z","precision":"Quarter 4","estado":"Fecha por definir","estado_corto":"TBD","cohete":"Falcon 9 Block 5","empresa":"SpaceX","tipo_empresa":"Commercial","mision":"CHORUS","tipo_mision":"Earth Science","orbita":"LEO","plataforma":"Unknown Pad","lugar":"Cape Canaveral SFS, FL, USA","pais_iso3":"USA","url":"https://thespacedevs.com/launch/8bf5f61e-a7e1-41e6-aede-7b87e4beebab"}},{"type":"Feature","geometry":{"type":"Point","coordinates":[-80.528,28.458]},"properties":{"id":"01ca3653-126a-4c01-94fb-a9467b39cdac","nombre":"Falcon 9 Block 5 | Inmarsat-7 F1 (GX-7)","fecha_utc":"2026-12-31T00:00:00Z","ventana_fin":"2026-12-31T00:00:00Z","precision":"Quarter 4","estado":"Fecha por definir","estado_corto":"TBD","cohete":"Falcon 9 Block 5","empresa":"SpaceX","tipo_empresa":"Commercial","mision":"Inmarsat-7 F1 (GX-7)","tipo_mision":"Communications","orbita":"GTO","plataforma":"Unknown Pad","lugar":"Cape Canaveral SFS, FL, USA","pais_iso3":"USA","url":"https://thespacedevs.com/launch/01ca3653-126a-4c01-94fb-a9467b39cdac"}},{"type":"Feature","geometry":{"type":"Point","coordinates":[-120.611,34.632]},"properties":{"id":"2d0472b9-463d-49c8-afb1-7925e49a3368","nombre":"Falcon 9 Block 5 | SDA Tranche 1 Tracking Layer A","fecha_utc":"2026-12-31T00:00:00Z","ventana_fin":"2026-12-31T00:00:00Z","precision":"Quarter 4","estado":"Fecha por definir","estado_corto":"TBD","cohete":"Falcon 9 Block 5","empresa":"SpaceX","tipo_empresa":"Commercial","mision":"SDA Tranche 1 Tracking Layer A","tipo_mision":"Government/Top Secret","orbita":"PO","plataforma":"Space Launch Complex 4E","lugar":"Vandenberg SFB, CA, USA","pais_iso3":"USA","url":"https://thespacedevs.com/launch/2d0472b9-463d-49c8-afb1-7925e49a3368"}},{"type":"Feature","geometry":{"type":"Point","coordinates":[-120.611,34.632]},"properties":{"id":"dca8749f-1552-485a-8061-f1ad79055b8d","nombre":"Falcon 9 Block 5 | SDA Tranche 1 Tracking Layer C","fecha_utc":"2026-12-31T00:00:00Z","ventana_fin":"2026-12-31T00:00:00Z","precision":"Quarter 4","estado":"Fecha por definir","estado_corto":"TBD","cohete":"Falcon 9 Block 5","empresa":"SpaceX","tipo_empresa":"Commercial","mision":"SDA Tranche 1 Tracking Layer C","tipo_mision":"Government/Top Secret","orbita":"PO","plataforma":"Space Launch Complex 4E","lugar":"Vandenberg SFB, CA, USA","pais_iso3":"USA","url":"https://thespacedevs.com/launch/dca8749f-1552-485a-8061-f1ad79055b8d"}},{"type":"Feature","geometry":{"type":"Point","coordinates":[-120.611,34.632]},"properties":{"id":"fcbc4550-e69e-4458-a9e6-4a5b6b6b15a5","nombre":"Falcon 9 Block 5 | SDA Tranche 1 Tracking Layer E","fecha_utc":"2026-12-31T00:00:00Z","ventana_fin":"2026-12-31T00:00:00Z","precision":"Quarter 4","estado":"Fecha por definir","estado_corto":"TBD","cohete":"Falcon 9 Block 5","empresa":"SpaceX","tipo_empresa":"Commercial","mision":"SDA Tranche 1 Tracking Layer E","tipo_mision":"Government/Top Secret","orbita":"PO","plataforma":"Space Launch Complex 4E","lugar":"Vandenberg SFB, CA, USA","pais_iso3":"USA","url":"https://thespacedevs.com/launch/fcbc4550-e69e-4458-a9e6-4a5b6b6b15a5"}},{"type":"Feature","geometry":{"type":"Point","coordinates":[-120.611,34.632]},"properties":{"id":"4541ce85-0e38-42ac-a9a0-20474bb5f2cd","nombre":"Falcon 9 Block 5 | SDA Tranche 1 Transport Layer D","fecha_utc":"2026-12-31T00:00:00Z","ventana_fin":"2026-12-31T00:00:00Z","precision":"Quarter 4","estado":"Fecha por definir","estado_corto":"TBD","cohete":"Falcon 9 Block 5","empresa":"SpaceX","tipo_empresa":"Commercial","mision":"SDA Tranche 1 Transport Layer D","tipo_mision":"Government/Top Secret","orbita":"PO","plataforma":"Space Launch Complex 4E","lugar":"Vandenberg SFB, CA, USA","pais_iso3":"USA","url":"https://thespacedevs.com/launch/4541ce85-0e38-42ac-a9a0-20474bb5f2cd"}},{"type":"Feature","geometry":{"type":"Point","coordinates":[-120.611,34.632]},"properties":{"id":"c5783e2b-d458-4b99-9936-4043c236190b","nombre":"Falcon 9 Block 5 | SDA Tranche 1 Transport Layer F","fecha_utc":"2026-12-31T00:00:00Z","ventana_fin":"2026-12-31T00:00:00Z","precision":"Quarter 4","estado":"Fecha por definir","estado_corto":"TBD","cohete":"Falcon 9 Block 5","empresa":"SpaceX","tipo_empresa":"Commercial","mision":"SDA Tranche 1 Transport Layer F","tipo_mision":"Government/Top Secret","orbita":"PO","plataforma":"Space Launch Complex 4E","lugar":"Vandenberg SFB, CA, USA","pais_iso3":"USA","url":"https://thespacedevs.com/launch/c5783e2b-d458-4b99-9936-4043c236190b"}},{"type":"Feature","geometry":{"type":"Point","coordinates":[-120.6224,34.7556]},"properties":{"id":"875ba957-be5f-42bd-8a6e-ed98254f572a","nombre":"Firefly Alpha Block 2 | ConnectedCosmos Launch 1","fecha_utc":"2026-12-31T00:00:00Z","ventana_fin":"2026-12-31T00:00:00Z","precision":"Quarter 4","estado":"Fecha por definir","estado_corto":"TBD","cohete":"Firefly Alpha Block 2","empresa":"Firefly Aerospace","tipo_empresa":"Commercial","mision":"ConnectedCosmos Launch 1","tipo_mision":"Communications","orbita":"PO","plataforma":"Space Launch Complex 2W","lugar":"Vandenberg SFB, CA, USA","pais_iso3":"USA","url":"https://thespacedevs.com/launch/875ba957-be5f-42bd-8a6e-ed98254f572a"}},{"type":"Feature","geometry":{"type":"Point","coordinates":[-120.6224,34.7556]},"properties":{"id":"d47cbca4-48c1-455a-b357-f156833b189e","nombre":"Firefly Alpha Block 2 | ConnectedCosmos Launch 2","fecha_utc":"2026-12-31T00:00:00Z","ventana_fin":"2026-12-31T00:00:00Z","precision":"Quarter 4","estado":"Fecha por definir","estado_corto":"TBD","cohete":"Firefly Alpha Block 2","empresa":"Firefly Aerospace","tipo_empresa":"Commercial","mision":"ConnectedCosmos Launch 2","tipo_mision":"Communications","orbita":"PO","plataforma":"Space Launch Complex 2W","lugar":"Vandenberg SFB, CA, USA","pais_iso3":"USA","url":"https://thespacedevs.com/launch/d47cbca4-48c1-455a-b357-f156833b189e"}},{"type":"Feature","geometry":{"type":"Point","coordinates":[15.5895,69.1084]},"properties":{"id":"60f4ba6c-4201-4727-94aa-0015a5a0023f","nombre":"Spectrum | 1 x Pelican satellite","fecha_utc":"2026-12-31T00:00:00Z","ventana_fin":"2026-12-31T00:00:00Z","precision":"Quarter 4","estado":"Fecha por definir","estado_corto":"TBD","cohete":"Spectrum","empresa":"Isar Aerospace","tipo_empresa":"Private","mision":"1 x Pelican satellite","tipo_mision":"Earth Science","orbita":"SSO","plataforma":"Orbital Launch Pad","lugar":"Andøya Spaceport","pais_iso3":"NOR","url":"https://thespacedevs.com/launch/60f4ba6c-4201-4727-94aa-0015a5a0023f"}},{"type":"Feature","geometry":{"type":"Point","coordinates":[15.5895,69.1084]},"properties":{"id":"b48e32c5-3776-4684-a956-5ea4df032e90","nombre":"Spectrum | ΣYNDEO-3","fecha_utc":"2026-12-31T00:00:00Z","ventana_fin":"2026-12-31T00:00:00Z","precision":"Quarter 4","estado":"Fecha por definir","estado_corto":"TBD","cohete":"Spectrum","empresa":"Isar Aerospace","tipo_empresa":"Private","mision":"ΣYNDEO-3","tipo_mision":"Technology","orbita":"LEO","plataforma":"Orbital Launch Pad","lugar":"Andøya Spaceport","pais_iso3":"NOR","url":"https://thespacedevs.com/launch/b48e32c5-3776-4684-a956-5ea4df032e90"}},{"type":"Feature","geometry":{"type":"Point","coordinates":[-97.158,25.9968]},"properties":{"id":"0f867f0c-5422-4d44-93b8-d7faaae7019b","nombre":"Starship | Flight 15","fecha_utc":"2026-12-31T00:00:00Z","ventana_fin":"2026-12-31T00:00:00Z","precision":"Quarter 4","estado":"Fecha por definir","estado_corto":"TBD","cohete":"Starship V3","empresa":"SpaceX","tipo_empresa":"Commercial","mision":"Flight 15","tipo_mision":"Test Flight","orbita":"LEO","plataforma":"Orbital Launch Pad 2","lugar":"SpaceX Starbase, TX, USA","pais_iso3":"USA","url":"https://thespacedevs.com/launch/0f867f0c-5422-4d44-93b8-d7faaae7019b"}},{"type":"Feature","geometry":{"type":"Point","coordinates":[21.165,67.8774]},"properties":{"id":"3b94ad50-3505-496e-8a95-b0bc4c0dadc6","nombre":"Themis Demonstrator | T1H-1","fecha_utc":"2026-12-31T00:00:00Z","ventana_fin":"2026-12-31T00:00:00Z","precision":"Quarter 4","estado":"Fecha por definir","estado_corto":"TBD","cohete":"Themis Demonstrator","empresa":"European Space Agency","tipo_empresa":"Multinational","mision":"T1H-1","tipo_mision":"Test Flight","orbita":"Sub","plataforma":"Launch Complex 3B","lugar":"Esrange Space Center","pais_iso3":"SWE","url":"https://thespacedevs.com/launch/3b94ad50-3505-496e-8a95-b0bc4c0dadc6"}},{"type":"Feature","geometry":{"type":"Point","coordinates":[-80.583,28.5834]},"properties":{"id":"a67b40f9-cfcc-4614-a355-a156280b4bb3","nombre":"Vulcan VC4L | Dream Chaser CRS 2 Flight 1","fecha_utc":"2026-12-31T00:00:00Z","ventana_fin":"2026-12-31T00:00:00Z","precision":"Quarter 4","estado":"Fecha por definir","estado_corto":"TBD","cohete":"Vulcan VC4L","empresa":"United Launch Alliance","tipo_empresa":"Commercial","mision":"Dream Chaser CRS 2 Flight 1","tipo_mision":"Test Flight","orbita":"LEO","plataforma":"Space Launch Complex 41","lugar":"Cape Canaveral SFS, FL, USA","pais_iso3":"USA","url":"https://thespacedevs.com/launch/a67b40f9-cfcc-4614-a355-a156280b4bb3"}},{"type":"Feature","geometry":{"type":"Point","coordinates":[-80.5774,28.5619]},"properties":{"id":"e61d353c-db55-4a57-8184-0fab187231e6","nombre":"Falcon 9 Block 5 | Globalstar 2-R Mission 2 (x 9)","fecha_utc":"2026-12-31T00:00:00Z","ventana_fin":"2026-12-31T00:00:00Z","precision":"Year Half 2","estado":"Fecha por definir","estado_corto":"TBD","cohete":"Falcon 9 Block 5","empresa":"SpaceX","tipo_empresa":"Commercial","mision":"Globalstar 2-R Mission 2 (x 9)","tipo_mision":"Communications","orbita":"LEO","plataforma":"Space Launch Complex 40","lugar":"Cape Canaveral SFS, FL, USA","pais_iso3":"USA","url":"https://thespacedevs.com/launch/e61d353c-db55-4a57-8184-0fab187231e6"}},{"type":"Feature","geometry":{"type":"Point","coordinates":[100.2909,40.9579]},"properties":{"id":"c9605b67-8a53-4239-a8ae-577fe3b79799","nombre":"Long March 2F/G | Shenzhou 24","fecha_utc":"2026-12-31T00:00:00Z","ventana_fin":"2026-12-31T00:00:00Z","precision":"Year Half 2","estado":"Fecha por definir","estado_corto":"TBD","cohete":"Long March 2F/G","empresa":"China Aerospace Science and Technology Corporation","tipo_empresa":"Government","mision":"Shenzhou 24","tipo_mision":"Human Exploration","orbita":"LEO","plataforma":"Launch Area 91 (SLS-1 / 921)","lugar":"Jiuquan Satellite Launch Center, People's Republic of China","pais_iso3":"CHN","url":"https://thespacedevs.com/launch/c9605b67-8a53-4239-a8ae-577fe3b79799"}},{"type":"Feature","geometry":{"type":"Point","coordinates":[15.5895,69.1084]},"properties":{"id":"dff42a2e-f047-48d7-b260-3888d3a4fe33","nombre":"Spectrum | AT-Astra and Others (Spectrum Flight 3)","fecha_utc":"2026-12-31T00:00:00Z","ventana_fin":"2026-12-31T00:00:00Z","precision":"Year Half 2","estado":"Fecha por definir","estado_corto":"TBD","cohete":"Spectrum","empresa":"Isar Aerospace","tipo_empresa":"Private","mision":"AT-Astra and Others (Spectrum Flight 3)","tipo_mision":"Technology","orbita":"SSO","plataforma":"Orbital Launch Pad","lugar":"Andøya Spaceport","pais_iso3":"NOR","url":"https://thespacedevs.com/launch/dff42a2e-f047-48d7-b260-3888d3a4fe33"}}]}