{"type":"FeatureCollection","generado_utc":"2026-10-11T00:31:07Z","fuentes":{"Isaias":"ok (0 cono, 0 avisos)","Rachel":"ok (1 cono, 5 avisos)","Simon":"ok (1 cono, 3 avisos)"},"features":[{"type":"Feature","geometry":{"type":"Polygon","coordinates":[[[-116.76133000037913,27.138850000027617],[-116.7406200004126,27.135979999877236],[-116.71840999962171,27.13507000018052],[-116.70707999964219,27.135520000247936],[-116.67113000014928,27.138390000398317],[-116.64755000003237,27.142520000197976],[-116.62454000012082,27.147909999646913],[-116.60245000036713,27.154440000405828],[-116.58162000026272,27.162240000375846],[-116.56194000013079,27.17117999985726],[-116.5433800003866,27.181270000210475],[-116.51775000016227,27.19859000032841],[-116.50995999975407,27.205120000188003],[-116.49474000025072,27.2185400003209],[-116.47333999994095,27.24009999991523],[-116.45353000010931,27.26326000044878],[-116.44140000010981,27.27977000008559],[-116.43029999994496,27.297309999557],[-116.42502999973459,27.30637000007556],[-116.412219999853,27.336520000098062],[-116.40556000029369,27.358540000220955],[-116.40018000040658,27.381819999993127],[-116.39583999991595,27.40612000003813],[-116.39206999963068,27.431010000311403],[-116.3881699996457,27.455769999985648],[-116.3839300001693,27.480190000168534],[-116.37958999967867,27.50451000023645],[-116.37523000006433,27.528810000281453],[-116.37100000014982,27.553229999564962],[-116.36710999972661,27.577999999700353],[-116.3634500000174,27.60299999965042],[-116.35955999959424,27.627769999785812],[-116.35532000011784,27.65218999996864],[-116.35097000006533,27.676490000013644],[-116.34672999968961,27.700919999758298],[-116.3428499997276,27.725689999893746],[-116.33951999994792,27.75101999977329],[-116.33666000025869,27.77681999974334],[-116.33379999967013,27.802619999713386],[-116.33048000035166,27.827960000054077],[-116.32658000036662,27.852730000189524],[-116.32236000001387,27.877150000372353],[-116.31811999963816,27.90156999965592],[-116.31433000022923,27.926459999929193],[-116.31137000042509,27.9521399997613],[-116.30906999958074,27.978509999936705],[-116.30700999991149,28.005109999926674],[-116.30472000042761,28.03148000010208],[-116.30175999972414,28.05717000039533],[-116.29797000031516,28.08205000020746],[-116.29374000040059,28.106470000390345],[-116.2895099995867,28.130900000135057],[-116.28572000017778,28.155779999947185],[-116.28285999958922,28.181579999917233],[-116.28092000005785,28.20828999958394],[-116.2794200001328,28.23547000024047],[-116.27794000023073,28.262640000435795],[-116.27599000023821,28.289359999664384],[-116.27312000008783,28.31515999963443],[-116.2693600002637,28.34004000034588],[-116.26511999988799,28.364459999629446],[-116.26088999997341,28.388879999812275],[-116.25711000012632,28.413759999624403],[-116.25413999986102,28.439449999917713],[-116.25185000037715,28.46582000009306],[-116.24978000024674,28.492420000083087],[-116.24748999986349,28.51879999982026],[-116.24451000003637,28.544479999652424],[-116.2407399997511,28.569360000363872],[-116.2365000002747,28.59377999964738],[-116.23227000036013,28.618210000291413],[-116.22848999961371,28.64309000010354],[-116.22550999978654,28.668769999935705],[-116.22322000030266,28.695140000111053],[-116.22115999973408,28.72174000010108],[-116.2188700002502,28.748119999838252],[-116.21589999998491,28.773799999670416],[-116.21212999969964,28.798680000381864],[-116.2078799997621,28.823099999665374],[-116.20354000017079,28.84741000017152],[-116.19931000025622,28.87183000035435],[-116.19541000027118,28.896599999590478],[-116.19174999966265,28.92160000043981],[-116.18784999967767,28.94636999967588],[-116.1836199997631,28.970789999858766],[-116.1791499995727,28.994980000226974],[-116.17444999956774,29.01893999988124],[-116.16965000034713,29.04278999985877],[-116.164959999904,29.06675999997418],[-116.16025999989898,29.090719999628448],[-116.15545999977905,29.11456999960592],[-116.15065000009736,29.138419999583448],[-116.1458400004156,29.162269999560976],[-116.14104000029567,29.186120000437825],[-116.13634000029066,29.210089999653917],[-116.13164999984753,29.234050000207503],[-116.1268499997276,29.257900000185032],[-116.12204000004584,29.281750000162504],[-116.117219999903,29.305600000140032],[-116.11241000022125,29.32945000011756],[-116.1077300002392,29.353409999771827],[-116.10291999965818,29.377259999749356],[-116.09765000034713,29.400650000097585],[-116.09193000006934,29.42359000037834],[-116.0857500001623,29.446059999669387],[-116.07910000016477,29.468070000230455],[-116.0723599996142,29.489970000215465],[-116.06582999975461,29.512100000015153],[-116.05954000017078,29.534459999629405],[-116.05346999994043,29.557049999957655],[-116.0476399999859,29.579870000100584],[-116.04191999970811,29.602799999920194],[-116.0361899998685,29.62572999973986],[-116.03046000002888,29.648670000020616],[-116.02473000018927,29.671599999840282],[-116.01888999977359,29.694419999983154],[-116.01283000000439,29.71699999985026],[-116.00652999995941,29.739360000363888],[-116.00002000012279,29.76149000016352],[-115.99326000044857,29.78339000014853],[-115.98651000033612,29.80529000013354],[-115.97997000001538,29.82741999993317],[-115.97368000043156,29.8497800004468],[-115.96761999976309,29.87236999987573],[-115.96166999967068,29.895069999880718],[-115.95560000033964,29.91766000020897],[-115.9493099998565,29.940019999823278],[-115.9427799999969,29.96214999962291],[-115.9359299997696,29.983930000369355],[-115.92882000014282,30.005489999963686],[-115.9217299996397,30.02704999955796],[-115.91462999957474,30.048599999590465],[-115.90741999983305,30.070039999946175],[-115.90376000012384,30.080710000066574],[-115.89664999959768,30.10226000009908],[-115.88600999996146,30.134600000389867],[-115.87880000021971,30.156039999846257],[-115.87158000001688,30.177480000201967],[-115.86449000041307,30.199039999796298],[-115.85737999988697,30.220589999828746],[-115.85017000014528,30.24203999974634],[-115.84651000043607,30.252700000304912],[-115.83586999990047,30.285030000134554],[-115.82876999983552,30.30658999972883],[-115.82156000009383,30.328030000084595],[-115.81788999992347,30.338700000204994],[-115.80725999984901,30.371030000034636],[-115.80370999981653,30.381809999831773],[-115.7963900003981,30.4031300000496],[-115.78470000000488,30.434439999606468],[-115.77681000038109,30.455189999618938],[-115.77279999982005,30.465509999786832],[-115.76433000042908,30.485689999593944],[-115.7518600000389,30.51618999956895],[-115.74395999995392,30.536939999581477],[-115.74007000043008,30.547379999887255],[-115.72862000031267,30.57890999969686],[-115.72140999967166,30.60035000005263],[-115.71419999992997,30.62179000040834],[-115.70662999977458,30.64289000037337],[-115.70274000025074,30.653320000218002],[-115.69496999986552,30.674190000368355],[-115.68694999964265,30.694829999804767],[-115.674259999899,30.725099999965153],[-115.6660099998615,30.745509999586943],[-115.65810999977657,30.766270000060615],[-115.65032999982952,30.787129999749823],[-115.64277000013533,30.808229999714854],[-115.63909999996491,30.818890000273427],[-115.62846000032863,30.851229999664895],[-115.62124999968762,30.872670000020605],[-115.6175899999784,30.88334000014106],[-115.60693999988098,30.915669999970646],[-115.6033899998485,30.92644999976784],[-115.59607000043007,30.947769999985667],[-115.5843800000369,30.979080000441797],[-115.57649000041312,30.999829999555004],[-115.56824999993745,31.020240000076114],[-115.55977999964716,31.040419999883227],[-115.55154000007087,31.060830000404337],[-115.5475300004091,31.07114999967291],[-115.5354000004096,31.101990000038597],[-115.52728000007187,31.12251999979827],[-115.519259999849,31.143149999672914],[-115.51102000027271,31.16356999975585],[-115.50679000035814,31.173660000109066],[-115.49431000040607,31.204160000084073],[-115.48629999974509,31.22478999995866],[-115.47816999984553,31.245319999718333],[-115.47005000040707,31.26583999991618],[-115.46191000004637,31.286369999675912],[-115.45333000007935,31.30643000024446],[-115.44887000035015,31.316289999883736],[-115.4397000001548,31.335780000246984],[-115.43077999979704,31.35550999998668],[-115.42162999962471,31.37500000034987],[-115.40856999990547,31.404930000119577],[-115.40044000000591,31.425450000317426],[-115.39231999966813,31.445969999615954],[-115.38420000022973,31.466500000274948],[-115.38018999966863,31.476820000442785],[-115.37217999990696,31.497459999879254],[-115.35947000014028,31.52773000003964],[-115.35122999966467,31.548139999661373],[-115.34721000044107,31.558459999829267],[-115.33509000000339,31.58930000019501],[-115.33096999976556,31.59950999978679],[-115.32296000000389,31.620150000122578],[-115.31493000021925,31.64078999955899],[-115.3064700003901,31.660959999804277],[-115.2939900004381,31.691459999779283],[-115.28999000033815,31.701790000408323],[-115.2778499998775,31.732629999874746],[-115.2697300004391,31.753150000072594],[-115.26171000021623,31.773790000408326],[-115.25771000011633,31.7841099996769],[-115.24500000034965,31.814379999837286],[-115.24077000043508,31.8244700001905],[-115.23252000039759,31.844879999812292],[-115.22403999964615,31.865059999619405],[-115.21512999974959,31.884779999797274],[-115.20151000028619,31.914140000260943],[-115.196819999843,31.923770000085597],[-115.1871900000184,31.942799999920226],[-115.17335999986403,31.971929999669896],[-115.16888999967364,31.981779999747346],[-115.15572999983954,32.01159999984026],[-115.14724999998742,32.031779999647426],[-115.1430099996117,32.04187000000064],[-115.13409000015326,32.06159000017851],[-115.12493000041911,32.081090000103586],[-115.1159999996002,32.100799999820254],[-115.1023800001368,32.13016000028392],[-115.09380000016978,32.15021999995315],[-115.08967999993195,32.16043000044431],[-115.08165999970913,32.18106999988072],[-115.06940999957175,32.211799999670404],[-115.0613900002482,32.232440000006136],[-115.0573900001483,32.24276000017403],[-115.04893000031916,32.26293999998114],[-115.04044999956773,32.28311999978831],[-115.02843000014428,32.31408000029194],[-115.02443000004439,32.32438999999863],[-115.01217999990695,32.35513000024946],[-115.00815999978408,32.36543999995615],[-114.99992999976956,32.38584999957794],[-114.99101000031118,32.40556999975581],[-114.98184999967765,32.42506000011906],[-114.97291999975806,32.444789999858756],[-114.96376999958574,32.464280000222004],[-114.95070999986649,32.494209999991654],[-114.94259000042808,32.5147300001895],[-114.93445999962921,32.535259999949176],[-114.9263299997296,32.555780000147024],[-114.9182100002912,32.57630000034487],[-114.91407999959222,32.58650999993671],[-114.90056999980555,32.61598000007706],[-114.89153000020923,32.635580000117045],[-114.88706999958072,32.645450000217465],[-114.87345000011732,32.67480000021999],[-114.86485999968914,32.69485999988922],[-114.86074000035063,32.705070000380374],[-114.84859999988998,32.735920000307885],[-114.8444900001133,32.746120000337896],[-114.83646999989048,32.76675000021248],[-114.82423000021424,32.79748999956399],[-114.81998999983853,32.80757999991721],[-114.80740000020973,32.83795999975433],[-114.80327999997195,32.84817000024543],[-114.7948200001428,32.8683500000526],[-114.7814299995947,32.897929999869746],[-114.77696000030369,32.90779000040834],[-114.76758000031668,32.927059999619416],[-114.75796000005386,32.946090000353365],[-114.7485699996057,32.965350000002616],[-114.73517999995693,32.99492999981976],[-114.73070999976659,33.00479999992018],[-114.72224000037562,33.024970000165524],[-114.71377000008533,33.04514999997269],[-114.7048299997046,33.064870000150506],[-114.6956800004316,33.08437000007558],[-114.68216999974561,33.11382999975484],[-114.67760000033962,33.12357999971738],[-114.66453999972111,33.15351000038635],[-114.65642000028271,33.174029999684876],[-114.64827999992195,33.19456000034387],[-114.64417999970715,33.20476000037388],[-114.63202999968462,33.23559999984025],[-114.62791000034616,33.2458100003314],[-114.61441999968315,33.27527999957249],[-114.60983999981602,33.28503000043429],[-114.59633000002935,33.31449000011355],[-114.59175000016228,33.32424000007609],[-114.57469999990496,33.36449000001363],[-114.5705700001053,33.374690000043586],[-114.56244999976758,33.39521000024149],[-114.55431999986803,33.415740000001165],[-114.54620000042956,33.43626000019901],[-114.54206999973059,33.44646999979079],[-114.53313999981106,33.46618999996866],[-114.52398999963867,33.48568000033191],[-114.51505999971914,33.50539999961046],[-114.50591000044608,33.52488999997365],[-114.4969599996042,33.54461999971335],[-114.48426999986049,33.57488999987373],[-114.48003000038409,33.58498000022695],[-114.47109999956524,33.60470000040482],[-114.46216999964565,33.62441999968337],[-114.45278999965865,33.643680000231996],[-114.44317999985702,33.66271999962845],[-114.43379000030819,33.68198000017702],[-114.41616999984552,33.72165999990921],[-114.4159400000309,33.72141999963344],[-114.40746999974061,33.74160000033987],[-114.3989899998885,33.76178000014704],[-114.39005999996891,33.78150999988674],[-114.38090999979659,33.80100000024993],[-114.371979999877,33.8207200004278],[-114.3583600004136,33.85007000043032],[-114.35389999978509,33.85993999963142],[-114.34164000008582,33.890659999859224],[-114.33351999974809,33.911189999618955],[-114.32538999984854,33.9317099998168],[-114.31725999994893,33.95223999957648],[-114.3131399997111,33.96243999960643],[-114.30420999979157,33.9821599997843],[-114.29505000005736,34.001659999709375],[-114.28156000029367,34.031120000287956],[-114.27251000023625,34.05072999988971],[-114.26391999980802,34.07080000002014],[-114.25979999957025,34.081000000050096],[-114.24766999957075,34.111849999977665],[-114.23955000013228,34.13237000017551],[-114.23140999977159,34.15289000037336],[-114.22729000043307,34.163090000403315],[-114.21837000007537,34.18282000014301],[-114.20921000034116,34.20230999960694],[-114.20028000042157,34.22202999978481],[-114.19111999978804,34.24152000014806],[-114.17808000009182,34.27144999991771],[-114.16993999973113,34.29197999967738],[-114.16593999963118,34.302299999845275],[-114.15369000039311,34.3330299996349],[-114.14567999973212,34.35366000040881],[-114.1416599996092,34.36397999967738],[-114.13319999978006,34.3841699999457],[-114.12061000015132,34.41454999978282],[-114.11225000043709,34.43484000016605],[-114.1080199996232,34.444929999619944],[-114.09908000014178,34.46466000025896],[-114.08500999971164,34.49354999973286],[-114.08009000035315,34.50294999974284],[-114.06979000020823,34.52129999969537],[-114.05949000006336,34.53964000008608],[-114.04941999973312,34.558219999853236],[-114.03980999993144,34.577249999687865],[-114.03110999982653,34.59721000014156],[-114.01873999955126,34.6278199997933],[-114.01462000021274,34.63801999982326],[-114.00660999955176,34.658660000159045],[-113.99836000041358,34.679069999780836],[-113.98942999959473,34.69878999995865],[-113.98028000032167,34.7182800003219],[-113.97133999994094,34.73801000006159],[-113.96218999976855,34.75750000042484],[-113.94913999961119,34.78743000019449],[-113.94100999971164,34.80795000039234],[-113.93287999981203,34.82848000015201],[-113.92476000037362,34.84900000034986],[-113.92074999981253,34.859319999618435],[-113.91272999958971,34.87995999995417],[-113.90426999976057,34.900139999761336],[-113.89168000013183,34.930530000059605],[-113.887559999894,34.94073000008956],[-113.87908000004188,34.96090999989673],[-113.87015999968412,34.9806300000746],[-113.86122999976459,35.00035000025247],[-113.84704999965766,35.02913000004963],[-113.84223000041408,35.03865000019749],[-113.83283999996593,35.05790999984674],[-113.81945999987897,35.08748999966389],[-113.81498999968863,35.09735999976431],[-113.80652999985949,35.11753999957148],[-113.79804000044555,35.137709999816764],[-113.78912000008785,35.15743999955646],[-113.77996000035364,35.17692999991971],[-113.7664600001288,35.206400000060114],[-113.76188000026173,35.21613999956145],[-113.752939999881,35.23587000020052],[-113.74068999974361,35.26659000042832],[-113.7325700003052,35.287120000188],[-113.7244400004056,35.307640000385845],[-113.71632000006787,35.32817000014552],[-113.71219999983003,35.338379999737356],[-113.70326000034862,35.3580900003534],[-113.6941100001763,35.37759000027842],[-113.68518000025671,35.39730999955697],[-113.67603000008432,35.416799999920215],[-113.6671000001648,35.436520000098085],[-113.65485000002741,35.46724999988771],[-113.65084999992746,35.47757000005561],[-113.63859999979007,35.508299999845235],[-113.63048000035167,35.52882000004314],[-113.62634999965269,35.53902999963492],[-113.61285000032717,35.56849999977533],[-113.60826999956072,35.578249999737864],[-113.59933000007936,35.59796999991573],[-113.59017999990698,35.617460000278925],[-113.57712999974962,35.64737999958743],[-113.56899999985,35.66791000024648],[-113.56086999995046,35.68843000044433],[-113.55274999961267,35.708960000204],[-113.54461999971312,35.72948000040185],[-113.5405000003746,35.73968999999363],[-113.52698999968862,35.769160000134036],[-113.5224200002827,35.77889999963543],[-113.51325999964916,35.79838999999862],[-113.50364000028571,35.81741999983325],[-113.49402000002289,35.83646000012902],[-113.48486000028868,35.85594999959295],[-113.4757100001163,35.8754399999562],[-113.46678000019676,35.895169999695895],[-113.4545399996212,35.92590000038484],[-113.4464099997216,35.94641999968337],[-113.43829000028319,35.966950000342365],[-113.43016000038364,35.98746999964089],[-113.42156999995547,36.007539999771325],[-113.41711000022622,36.01740000030992],[-113.4034899998635,36.046750000312386],[-113.39901999967316,36.05660999995166],[-113.38540000020976,36.085959999954184],[-113.38093999958124,36.095830000054605],[-113.36880000001992,36.1266599999592],[-113.3649099995967,36.13710000026492],[-113.35402999968466,36.16920000027994],[-113.34784999977757,36.191680000032136],[-113.3425900000284,36.215070000380365],[-113.33846999979056,36.239379999987136],[-113.33594999959269,36.26460000019],[-113.33548999996344,36.277100000165035],[-113.33594999959269,36.31620000013004],[-113.33836000011382,36.34155000003261],[-113.34213999996092,36.36620000003012],[-113.34683000040411,36.390159999684386],[-113.35209999971511,36.413550000032615],[-113.3578199999929,36.43649000031343],[-113.36399999989999,36.45895000004259],[-113.37075000001238,36.48085999958943],[-113.37830999970663,36.50194999999263],[-113.3828899995737,36.51169999995517],[-113.3965000003746,36.54104999995769],[-113.40691000019626,36.55929000023349],[-113.4235100003861,36.585660000408836],[-113.42922999976457,36.59424999993769],[-113.4466400004356,36.61982000009306],[-113.4585399997211,36.636570000005634],[-113.46471999962819,36.64471000036639],[-113.48396000015379,36.668440000205976],[-113.49094000008085,36.67577999964743],[-113.51257999976707,36.697110000326404],[-113.52813999966116,36.71017999960742],[-113.53626999956072,36.716369999975655],[-113.56109999976508,36.73449000011357],[-113.57804999990748,36.746190000068566],[-113.59520999984153,36.757649999747855],[-113.61261000005135,36.768879999612466],[-113.6302299996147,36.779890000123544],[-113.64809000035314,36.79066999992068],[-113.6664200002827,36.800990000088575],[-113.68518999981853,36.81084999972785],[-113.70396000025369,36.820710000266445],[-113.72295000004237,36.8303400000911],[-113.7424200003826,36.83951000028645],[-113.76211000007635,36.848460000228954],[-113.78224999983752,36.85694000008107],[-113.81418000010683,36.86794999969288],[-113.82506000001888,36.87139000004862],[-113.84726999991045,36.8778199997933],[-113.8699299998695,36.883769999885715],[-113.90485000042707,36.89179999967041],[-113.9287700000354,36.89649999967537],[-113.95350000012479,36.90039999966041],[-113.96608999975359,36.90211999983825],[-114.00604000024572,36.905099999665424],[-114.03361999956326,36.906130000399344],[-114.04758000031666,36.906480000351905],[-114.0902900003831,36.90671000016653],[-114.11890000043456,36.90671000016653],[-114.14739000034814,36.90659000002864],[-114.17555000033218,36.90613999996117],[-114.18918000025673,36.90544999961793],[-114.22992999986951,36.90326000024896],[-114.25568000023173,36.90039999966041],[-114.28041000032118,36.89649999967537],[-114.3043400003906,36.89179999967041],[-114.32768000023174,36.88653000035936],[-114.3505700000054,36.880790000058596],[-114.3841099998765,36.87139000004862],[-114.39498999978855,36.86794999969288],[-114.42692000005786,36.85694999964289],[-114.4369900003881,36.85269999970535],[-114.4667500004121,36.83951999984828],[-114.4764899999135,36.83493000041932],[-114.4957300004391,36.825530000409344],[-114.51460000008984,36.81578000044681],[-114.54276000007383,36.800990000088575],[-114.55179999967015,36.79571999987826],[-114.57824999993744,36.77921000024145],[-114.5951899996187,36.76751000028645],[-114.61166999967065,36.75536000026392],[-114.62746000027869,36.74251999989821],[-114.64326000044855,36.72966999997067],[-114.65882999990447,36.716599999790276],[-114.6663800000369,36.70984000011606],[-114.68836000011385,36.68884999982777],[-114.709299999895,36.66684000016602],[-114.71605000000739,36.65927000001062],[-114.72910999972663,36.64367999963241],[-114.74193000006937,36.62784999987775],[-114.76081999974309,36.6037700000856],[-114.77271999992797,36.58702999973485],[-114.7785499998825,36.57854000032091],[-114.78977000018529,36.56112000008807],[-114.80510999982653,36.53349000026344],[-114.8099200004076,36.52397000011558],[-114.81908000014181,36.50447000019051],[-114.83131999981805,36.47374999996265],[-114.83854999958271,36.45230000004511],[-114.84529000013333,36.430400000060104],[-114.85192999966966,36.408390000398356],[-114.85524000032564,36.39737999988722],[-114.865779999847,36.36494000038084],[-114.87334000044058,36.343829999954664],[-114.88112999994945,36.32297000026546],[-114.88868000008182,36.301870000300426],[-114.89233999979109,36.29120999974185],[-114.89921999960319,36.2694200003329],[-114.9058499995777,36.24740999977183],[-114.915919999908,36.21450000017501],[-114.92301999997295,36.192939999681414],[-114.92667999968216,36.182280000022104],[-114.93835000005237,36.15098000002712],[-114.94590999974662,36.12988000006209],[-114.95300000024974,36.108319999568494],[-114.95975999992396,36.086419999583484],[-114.96640000035961,36.06440999992168],[-114.96971000011632,36.05340000030992],[-114.97658000036665,36.031619999563475],[-114.98779000020824,35.99985999993919],[-114.99557000015528,35.978980000226954],[-115.00314000031068,35.957889999823806],[-115.01024000037563,35.936330000229475],[-115.01365999980902,35.92543999985628],[-115.02317000039511,35.8919600000541],[-115.029339999841,35.869480000301905],[-115.03565000034712,35.84711999978833],[-115.04216999974562,35.824989999988645],[-115.04903000043407,35.80321000014152],[-115.05614000006085,35.781649999647925],[-115.0632400001258,35.760090000053594],[-115.07034000019075,35.738540000021146],[-115.07387999976208,35.72776000022395],[-115.08475000011231,35.69566000020899],[-115.09185999973909,35.67409999971534],[-115.09895000024221,35.652540000121064],[-115.1061599999839,35.6310999997653],[-115.11336999972559,35.60966000030891],[-115.11691999975807,35.59887999961245],[-115.12768999999344,35.56666999992069],[-115.13134000014082,35.55599999980029],[-115.1430099996117,35.52469999980531],[-115.15092000015778,35.503940000230955],[-115.15903999959619,35.48342000003311],[-115.16715999993397,35.46289999983526],[-115.1748399997661,35.441910000446285],[-115.17850000037464,35.43124999988771],[-115.18868999994345,35.39846000042883],[-115.1953300003791,35.376440000305934],[-115.20209000005337,35.354540000320924],[-115.20551000038614,35.34364999994767],[-115.21284000026571,35.32232000016802],[-115.22452000019774,35.291020000173035],[-115.23207000033017,35.269920000208],[-115.23917999995695,35.2483700001755],[-115.24593000006934,35.22645999972934],[-115.24923999982605,35.215450000117585],[-115.25931000015629,35.182550000082585],[-115.26641000022124,35.160989999588935],[-115.27396000035361,35.139889999623904],[-115.27786000033865,35.12945999977933],[-115.28930999955674,35.097929999969665],[-115.29640000005986,35.076370000375334],[-115.30315999973408,35.054470000390324],[-115.30647999995193,35.043459999879246],[-115.316559999844,35.01055999984425],[-115.32365000034713,34.98900000024997],[-115.33121000004138,34.96790000028494],[-115.33898999998843,34.94703999969636],[-115.34652999965965,34.9259300001695],[-115.35364000018575,34.90438000013705],[-115.36037999983705,34.88248000015204],[-115.3670200002727,34.860469999590975],[-115.37033999959124,34.84945999997916],[-115.38086999955073,34.817010000011635],[-115.38853999982103,34.79603000018449],[-115.39668000018179,34.77550999998664],[-115.40078999995842,34.76530000039486],[-115.40881000018129,34.74466000005913],[-115.41657999966714,34.72378999990872],[-115.42802999978454,34.692260000099054],[-115.43524999998743,34.670819999743344],[-115.44233999959124,34.64926000014901],[-115.44590000008486,34.638480000351876],[-115.45677000043509,34.60638000033691],[-115.46386000003889,34.58481999984326],[-115.47096000010384,34.56326000024893],[-115.47451000013632,34.552479999552475],[-115.48182999955475,34.53116000023397],[-115.49247999965218,34.498830000404325],[-115.49969000029319,34.477390000048615],[-115.50724999998744,34.456290000083584],[-115.51502999993443,34.435419999933174],[-115.51892000035764,34.4249900000886],[-115.53105000035714,34.39414000016103],[-115.53918000025669,34.37361999996318],[-115.54318000035664,34.36329999979529],[-115.55394000013081,34.33107999964244],[-115.5573700000254,34.32017999970736],[-115.5640299995847,34.298170000045616],[-115.57409999991495,34.26526000044879],[-115.58119000041808,34.24371000041634],[-115.58875000011233,34.222599999990166],[-115.59653000005937,34.2017400003009],[-115.60408999975357,34.180629999874725],[-115.61118999981852,34.15907999984228],[-115.61793999993097,34.13717999985727],[-115.62124999968762,34.12617000024545],[-115.63132999957975,34.09327000021051],[-115.6347600003736,34.08237000027543],[-115.64609000035313,34.05072999988971],[-115.6501000000149,34.040409999721874],[-115.66235000015229,34.00967999993219],[-115.66635999981406,33.999359999764295],[-115.67803000018426,33.96805999976931],[-115.68558999987852,33.94695999980428],[-115.69279000005838,33.92552000034789],[-115.69987999966219,33.90395999985424],[-115.70342999969466,33.8931800000571],[-115.71430999960671,33.861080000042136],[-115.72140999967166,33.839520000447806],[-115.72862000031267,33.818080000092095],[-115.73228000002189,33.80742000043284],[-115.74395999995392,33.7761200004378],[-115.7518600000389,33.755359999964185],[-115.75998999993845,33.734839999766336],[-115.76411000017629,33.724639999736326],[-115.77577999964717,33.693330000179515],[-115.77944999981753,33.68266999962094],[-115.78630999960671,33.66088000021199],[-115.79625999979908,33.62786000003911],[-115.80302000037261,33.6059600000541],[-115.80645999982903,33.5950699996809],[-115.81766999967067,33.56331000005662],[-115.82546999964069,33.54243999990621],[-115.83301999977306,33.521339999941176],[-115.84011999983801,33.49978999990873],[-115.84686999995046,33.47788000036189],[-115.85349999992496,33.45586999980077],[-115.86025999959918,33.43396999981576],[-115.86735999966413,33.412410000221485],[-115.87102000027272,33.40174999966291],[-115.8826899997436,33.37044999966787],[-115.89025000033718,33.349349999702895],[-115.89733999994093,33.327790000108564],[-115.9040999996152,33.305890000123554],[-115.91074000005085,33.28387999956249],[-115.91404999980756,33.27286999995067],[-115.9245799997671,33.24043000044429],[-115.93225000003736,33.219440000156055],[-115.93625999969913,33.20911999998816],[-115.9445000001748,33.18871000036637],[-115.95640999992145,33.15764000018601],[-115.9641899998685,33.13675999957445],[-115.9680800002917,33.126329999729876],[-115.97896000020376,33.094229999714855],[-115.98251000023623,33.08344999991772],[-115.98959999984004,33.06189000032339],[-116.00047000019026,33.029790000308424],[-116.00757999981704,33.00822999981477],[-116.01467000032017,32.9866700002205],[-116.02188000006186,32.96522999986473],[-116.02910000026469,32.94379000040834],[-116.0361899998685,32.92222999991469],[-116.04328999993345,32.90067999988224],[-116.04683999996593,32.889900000085106],[-116.05416000028367,32.86857999986722],[-116.06126000034862,32.84702000027295],[-116.06836000041358,32.8254599997793],[-116.07912000018774,32.79323999962645],[-116.0863200003676,32.77180000017],[-116.09342000043256,32.750250000137555],[-116.10051000003637,32.728689999643905],[-116.1077300002392,32.70723999972637],[-116.11493999998095,32.68580999983175],[-116.11847999955222,32.67503000003461],[-116.1291400001108,32.64268999974382],[-116.13267999968213,32.631909999946686],[-116.14355999959423,32.59980999993172],[-116.14710000006488,32.589039999696354],[-116.15775000016231,32.55668999984374],[-116.16130000019479,32.54591999960843],[-116.17218000010683,32.513819999593466],[-116.17928000017179,32.492259999999135],[-116.18636000021377,32.47070000040486],[-116.1935800004166,32.449260000049094],[-116.20079000015829,32.427819999693384],[-116.20789000022324,32.40626000009905],[-116.2149900002882,32.38469999960546],[-116.222079999892,32.363149999572954],[-116.22895000014228,32.34136999972583],[-116.23548000000193,32.3192399999262],[-116.24178000004684,32.29688000031189],[-116.24486999955076,32.28563999998613],[-116.25425000043708,32.25204000004612],[-116.25744999961768,32.24091999985825],[-116.26433000032915,32.21914000001112],[-116.27164000018576,32.19781000023147],[-116.28332999967967,32.16649999977534],[-116.29087999981203,32.145410000271454],[-116.29797000031516,32.1238499997778],[-116.30140999977158,32.11296000030393],[-116.30805000020723,32.090940000181035],[-116.31811999963816,32.058040000146036],[-116.32155000043207,32.04714000021096],[-116.33276000027371,32.015379999687354],[-116.34054999978258,31.99451000043632],[-116.3481100003761,31.973420000033116],[-116.35521000044105,31.951860000438842],[-116.3586299998745,31.94097000006559],[-116.36813999956121,31.907490000263465],[-116.37430999990647,31.885009999611952],[-116.38062000041259,31.862649999997643],[-116.38713999981104,31.840520000198012],[-116.39399999960023,31.818740000350886],[-116.40111000012632,31.797179999857235],[-116.40821000019127,31.775629999824787],[-116.41176000022375,31.76485000002765],[-116.42239999986003,31.732509999736862],[-116.42927000011031,31.710729999889736],[-116.4357999999699,31.688600000090048],[-116.43900000004987,31.677470000340406],[-116.44815000022226,31.643650000147545],[-116.45410000031467,31.620950000142557],[-116.4601699996457,31.598359999814306],[-116.46646999969062,31.576000000199997],[-116.46968000023173,31.564880000012124],[-116.47986999980054,31.53208999965392],[-116.48694999984252,31.51053000005959],[-116.49406000036862,31.488969999565995],[-116.5011400004106,31.46742000043281],[-116.50835999971412,31.4459800000771],[-116.51557000035513,31.424530000159507],[-116.52267000042008,31.40298000012706],[-116.52976999958571,31.38141999963341],[-116.53686999965066,31.35986999960096],[-116.54041999968314,31.349089999803766],[-116.55024999973762,31.31595000039232],[-116.55346000027868,31.30481999974336],[-116.56262000001288,31.270999999550497],[-116.56844999996741,31.24818000030689],[-116.5741700002452,31.22524999958796],[-116.57990000008482,31.202319999768292],[-116.58562999992444,31.179389999948683],[-116.59135000020223,31.156460000129073],[-116.59422000035266,31.14498999998864],[-116.60325999994893,31.111049999657894],[-116.6095599999939,31.088690000043584],[-116.61606999983053,31.066560000243953],[-116.62294000008086,31.044780000396827],[-116.63004000014581,31.023219999903233],[-116.63712999974962,31.001660000308902],[-116.64422999981457,30.980110000276454],[-116.65132000031764,30.958549999782804],[-116.6582000001298,30.936769999935677],[-116.66472000042756,30.914640000136046],[-116.66791999960822,30.903510000386348],[-116.67708000024174,30.869690000193486],[-116.68004999960772,30.858340000190992],[-116.688519999898,30.82382999965489],[-116.69389999978506,30.80054999988272],[-116.6990499998575,30.777040000295926],[-116.70397999967713,30.75330999955696],[-116.70867000012032,30.72934000034087],[-116.71335999966414,30.705379999787283],[-116.71577000018527,30.693450000017606],[-116.72342999999444,30.658140000360845],[-116.72880999988149,30.634859999689354],[-116.73155999989399,30.62327999987224],[-116.7402599999989,30.589000000050078],[-116.74633999979108,30.566409999721827],[-116.74943000019425,30.555179999857273],[-116.75583999991596,30.532929999919702],[-116.76591000024621,30.500020000322877],[-116.7725499997826,30.47800999976181],[-116.77872999968963,30.455539999571442],[-116.78444999996742,30.432600000190007],[-116.7897200001778,30.409209999841778],[-116.79452999985949,30.38535999986425],[-116.79922000030268,30.361400000209983],[-116.80413999966117,30.337659999909192],[-116.80930000019475,30.314159999884225],[-116.81466999962072,30.290880000112054],[-116.82028000022171,30.267830000154504],[-116.82599000003836,30.244900000334894],[-116.83159999974009,30.221850000377344],[-116.83434999975259,30.21026999966091],[-116.83961000040108,30.186880000212],[-116.8470600004186,30.15133999984124],[-116.85174999996241,30.12736999972583],[-116.85644999996742,30.103410000071563],[-116.86125000008735,30.07956000009409],[-116.8660599997691,30.055710000116562],[-116.87085999988898,30.031860000139034],[-116.87568000003188,30.008010000161505],[-116.88036999957575,29.98404999960792],[-116.88506000001888,29.960080000391827],[-116.88988000016178,29.936230000414355],[-116.89456000014377,29.91226999986077],[-116.89901999987302,29.888080000391824],[-116.90326000024874,29.863660000208995],[-116.90714999977257,29.838890000073604],[-116.9108100003811,29.813890000123536],[-116.91471999992797,29.789119999988145],[-116.91894999984254,29.764699999805316],[-116.92329000033317,29.740390000198488],[-116.92752000024774,29.71597000001566],[-116.93130000009484,29.691090000203474],[-116.93427999992196,29.665410000371367],[-116.93657000030515,29.639029999734817],[-116.93864000043556,29.612429999744847],[-116.94092999991949,29.586059999569443],[-116.94390000018478,29.560379999737336],[-116.94768000003188,29.535499999925207],[-116.95190999994645,29.511070000180496],[-116.95615000032217,29.486649999997667],[-116.95991999970812,29.46177000018548],[-116.96278000029668,29.43597000021549],[-116.96473999985102,29.40925000008758],[-116.9662199997531,29.3820799998922],[-116.96771999967814,29.354900000135046],[-116.96966000010883,29.328189999568963],[-116.97251999979807,29.302389999598972],[-116.97629000008334,29.277509999786787],[-116.98054000002088,29.253089999603958],[-116.98476999993545,29.228659999859246],[-116.98854000022072,29.203780000047118],[-116.9914100003711,29.17798000007707],[-116.9932299997646,29.151150000272423],[-116.9942599995992,29.123520000447797],[-116.99472000012781,29.09530999995667],[-116.99482999980455,29.06675999997418],[-116.99482999980455,29.0381000003149],[-116.99482999980455,29.00943000019447],[-116.99482999980455,28.9807600000741],[-116.99482999980455,28.952100000414816],[-116.99482999980455,28.923430000294445],[-116.99482999980455,28.894769999735843],[-116.99482999980455,28.866099999615415],[-116.99482999980455,28.83743999995619],[-116.99482999980455,28.80876999983576],[-116.99482999980455,28.780110000176535],[-116.99482999980455,28.751440000056107],[-116.99482999980455,28.722780000396824],[-116.99482999980455,28.694110000276453],[-116.99482999980455,28.66544999971785],[-116.99482999980455,28.636779999597422],[-116.99482999980455,28.60811000037637],[-116.99482999980455,28.57944999981777],[-116.99482999980455,28.550779999697397],[-116.99482999980455,28.522120000038115],[-116.99482999980455,28.493449999917686],[-116.99482999980455,28.46479000025846],[-116.99482999980455,28.436120000138033],[-116.99482999980455,28.407459999579487],[-116.99482999980455,28.37879000035838],[-116.99482999980455,28.350129999799776],[-116.99482999980455,28.321459999679405],[-116.99482999980455,28.292800000020122],[-116.99482999980455,28.264129999899694],[-116.99482999980455,28.23547000024047],[-116.99482999980455,28.20680000012004],[-116.99482999980455,28.178139999561495],[-116.99482999980455,28.149470000340386],[-116.99482999980455,28.120809999781784],[-116.99482999980455,28.092139999661413],[-116.99482999980455,28.06348000000213],[-116.99482999980455,28.03480999988176],[-116.99482999980455,28.006150000222476],[-116.99482999980455,27.977480000102048],[-116.99482999980455,27.948820000442822],[-116.99482999980455,27.920150000322394],[-116.99482999980455,27.89148999976385],[-116.99482999980455,27.86281999964342],[-116.99482999980455,27.834159999984138],[-116.99482999980455,27.805489999863767],[-116.99482999980455,27.77681999974334],[-116.99482999980455,27.748160000084056],[-116.99482999980455,27.719489999963685],[-116.99482999980455,27.690830000304402],[-116.99482999980455,27.66216000018403],[-116.99482999980455,27.63349999962543],[-116.99482999980455,27.60483000040432],[-116.99482999980455,27.576169999845774],[-116.99482999980455,27.547499999725346],[-116.99482999980455,27.51884000006612],[-116.99482999980455,27.490169999945692],[-116.99472000012781,27.461619999963148],[-116.9942599995992,27.43341000037134],[-116.9932299997646,27.405779999647393],[-116.99129000023322,27.379060000418804],[-116.98795999955422,27.353720000078056],[-116.98304999975761,27.329990000238467],[-116.97651999989796,27.307860000438836],[-116.96828000032167,27.287449999917726],[-116.95831999966816,27.268759999574456],[-116.9468800000119,27.251559999594463],[-116.93405999966916,27.235740000300893],[-116.90406999983054,27.208449999967684],[-116.86995000019226,27.185520000148017],[-116.86125000008735,27.180240000375875],[-116.84327999967218,27.1706099996519],[-116.82564999964768,27.161440000355867],[-116.79898000002686,27.149740000400868],[-116.78067999968215,27.143550000032633],[-116.76133000037913,27.138850000027617]]]},"properties":{"storm_id":"ep182026","name":"Rachel","clase":"Tormenta tropical","intensity_kt":55,"url":"https://www.nhc.noaa.gov/graphics_ep3.shtml","fuente":"NOAA NHC (cono oficial)","last_update":"2026-10-11T00:00:00.000Z","aviso_num":"055a","kind":"cono"}},{"type":"Feature","geometry":{"type":"LineString","coordinates":[[-117.58999999980006,33.39000000010009],[-117.12000000019975,32.530000000200005]]},"properties":{"storm_id":"ep182026","name":"Rachel","clase":"Tormenta tropical","intensity_kt":55,"url":"https://www.nhc.noaa.gov/graphics_ep3.shtml","fuente":"NOAA NHC (cono oficial)","last_update":"2026-10-11T00:00:00.000Z","aviso_num":"055a","kind":"aviso_costa","aviso":"Vigilancia de tormenta tropical","aviso_nivel":2}},{"type":"Feature","geometry":{"type":"LineString","coordinates":[[-113.53999999980005,28.899999999900217],[-114.44999999960021,29.899999999700356]]},"properties":{"storm_id":"ep182026","name":"Rachel","clase":"Tormenta tropical","intensity_kt":55,"url":"https://www.nhc.noaa.gov/graphics_ep3.shtml","fuente":"NOAA NHC (cono oficial)","last_update":"2026-10-11T00:00:00.000Z","aviso_num":"055a","kind":"aviso_costa","aviso":"Vigilancia de tormenta tropical","aviso_nivel":2}},{"type":"Feature","geometry":{"type":"LineString","coordinates":[[-113.52999999999992,31.280000000000143],[-112.68999999970015,29.899999999700356]]},"properties":{"storm_id":"ep182026","name":"Rachel","clase":"Tormenta tropical","intensity_kt":55,"url":"https://www.nhc.noaa.gov/graphics_ep3.shtml","fuente":"NOAA NHC (cono oficial)","last_update":"2026-10-11T00:00:00.000Z","aviso_num":"055a","kind":"aviso_costa","aviso":"Vigilancia de tormenta tropical","aviso_nivel":2}},{"type":"Feature","geometry":{"type":"LineString","coordinates":[[-117.12000000019975,32.530000000200005],[-116.62000000029968,31.839999999600423],[-116.01999999970013,30.429999999900247],[-114.50000000039961,28.920000000399853],[-114.1000000002997,28.26999999990022],[-114.33000000019973,27.84000000039987],[-115.05000000019976,27.850000000199998]]},"properties":{"storm_id":"ep182026","name":"Rachel","clase":"Tormenta tropical","intensity_kt":55,"url":"https://www.nhc.noaa.gov/graphics_ep3.shtml","fuente":"NOAA NHC (cono oficial)","last_update":"2026-10-11T00:00:00.000Z","aviso_num":"055a","kind":"aviso_costa","aviso":"Aviso de tormenta tropical","aviso_nivel":3}},{"type":"Feature","geometry":{"type":"LineString","coordinates":[[-114.44999999960021,29.899999999700356],[-114.83000000009986,30.96000000010008],[-114.96000000019973,32.080000000200016],[-113.52999999999992,31.280000000000143]]},"properties":{"storm_id":"ep182026","name":"Rachel","clase":"Tormenta tropical","intensity_kt":55,"url":"https://www.nhc.noaa.gov/graphics_ep3.shtml","fuente":"NOAA NHC (cono oficial)","last_update":"2026-10-11T00:00:00.000Z","aviso_num":"055a","kind":"aviso_costa","aviso":"Aviso de tormenta tropical","aviso_nivel":3}},{"type":"Feature","geometry":{"type":"Polygon","coordinates":[[[-104.88519000031818,17.648919999558473],[-104.85915000007236,17.64441999978328],[-104.83977000028517,17.642799999720353],[-104.8294700001403,17.642320000068082],[-104.79681000038113,17.64203000018449],[-104.77448000035162,17.642799999720353],[-104.75240999972164,17.64441999978328],[-104.72112000018774,17.648919999558473],[-104.71155999999388,17.651310000056583],[-104.68426999966067,17.65982000039287],[-104.67615999978409,17.66364000028591],[-104.65294999964266,17.676269999960653],[-104.63882000004287,17.68601999992319],[-104.63215000002236,17.69127999967236],[-104.612859999889,17.707819999793287],[-104.60064000023573,17.71949000016349],[-104.59481999984303,17.725610000001666],[-104.57773000043909,17.744349999952703],[-104.56723000006434,17.757739999601426],[-104.55750000012483,17.771890000123562],[-104.5487100003661,17.786999999950183],[-104.53753999967114,17.81166999997066],[-104.53420999989146,17.820269999960658],[-104.52829000028316,17.83824999993766],[-104.5229399999809,17.856800000120074],[-104.51797000011533,17.875729999839734],[-104.5131999995802,17.894859999789276],[-104.50842999994444,17.91398000017699],[-104.50364999984754,17.933110000126533],[-104.49888999977355,17.95222999961493],[-104.49410999967665,17.97135999956447],[-104.48743000009432,18.000519999798314],[-104.48533000037912,18.010369999875707],[-104.4817000002547,18.030640000235962],[-104.47786999990046,18.062680000182013],[-104.4769200001578,18.0736699997708],[-104.47577999974709,18.09642999984476],[-104.47501999977305,18.119570000355395],[-104.47425999979907,18.142709999966655],[-104.47310999982653,18.165470000040614],[-104.46976999958571,18.19798000007711],[-104.46834000019078,18.20849999957545],[-104.46309000000338,18.23909999966537],[-104.4595500004321,18.259459999679393],[-104.4578300002542,18.269699999755346],[-104.45401000036111,18.301730000139514],[-104.45305999971913,18.312730000189504],[-104.45190999974659,18.335479999802317],[-104.45124999988747,18.370670000220457],[-104.4511600002337,18.394480000152043],[-104.4511600002337,18.418390000198485],[-104.4511600002337,18.44228999978378],[-104.4511600002337,18.46619999983028],[-104.4511600002337,18.490100000314897],[-104.4511600002337,18.514010000361395],[-104.4511600002337,18.53790999994669],[-104.4511600002337,18.561819999993133],[-104.4511600002337,18.585730000039632],[-104.4511600002337,18.60962999962493],[-104.4511600002337,18.63353999967137],[-104.4511600002337,18.657440000156043],[-104.4511600002337,18.669400000409837],[-104.4511600002337,18.70524999978778],[-104.4511600002337,18.72915999983428],[-104.4511600002337,18.753060000318897],[-104.4511600002337,18.77697000036534],[-104.4511600002337,18.80086999995069],[-104.4511600002337,18.824779999997133],[-104.4511600002337,18.84867999958243],[-104.4511600002337,18.87258999962893],[-104.4511600002337,18.89649999967537],[-104.4511600002337,18.920400000160043],[-104.4511600002337,18.944310000206485],[-104.4511600002337,18.96820999979178],[-104.4511600002337,18.99211999983828],[-104.4511600002337,19.016020000322897],[-104.4511600002337,19.03993000036934],[-104.4511600002337,19.06382999995469],[-104.4511600002337,19.087740000001133],[-104.4511600002337,19.09968999979378],[-104.4511600002337,19.13554999963293],[-104.4511600002337,19.15945999967937],[-104.4511600002337,19.183360000164043],[-104.4511600002337,19.207270000210485],[-104.4511600002337,19.23116999979578],[-104.4511600002337,19.25507999984228],[-104.4511600002337,19.278980000326897],[-104.4511600002337,19.30289000037334],[-104.4511600002337,19.32678999995869],[-104.4511600002337,19.350700000005133],[-104.4511600002337,19.374610000051575],[-104.4511600002337,19.39850999963693],[-104.4511600002337,19.410460000328897],[-104.45106999968067,19.446229999614957],[-104.45067999968217,19.469749999662895],[-104.45038999979857,19.48140999957195],[-104.44925000028718,19.50416999964591],[-104.44734000034066,19.526169999745832],[-104.44447000019028,19.547200000080068],[-104.43921000044105,19.577800000169987],[-104.4356800004316,19.598169999745835],[-104.43396999981553,19.608400000259962],[-104.43014999992243,19.64042999974481],[-104.42918999971863,19.6514299997948],[-104.42805000020724,19.67418999986876],[-104.42737999988697,19.7093800002869],[-104.4272900002332,19.733190000218485],[-104.4272900002332,19.75708999980378],[-104.4272900002332,19.78099999985028],[-104.4272900002332,19.804900000334897],[-104.4272900002332,19.82881000038134],[-104.42719999968017,19.852620000312925],[-104.42682000014281,19.876140000360863],[-104.42653000025922,19.887809999831745],[-104.42538000028668,19.910560000343878],[-104.42347999990199,19.9325600004438],[-104.4206099997516,19.953589999878716],[-104.4153599995642,19.98418999996869],[-104.41354000017077,19.994329999929676],[-104.4086700004201,20.025309999556953],[-104.40722999966465,20.03582999995467],[-104.40533000017928,20.05781999959345],[-104.40389999988497,20.09225000003761],[-104.40352000034761,20.115770000085604],[-104.40342999979458,20.139580000017133],[-104.40342999979458,20.16347999960243],[-104.40334000014082,20.187290000433336],[-104.4032400000259,20.199149999672898],[-104.40266000025872,20.222479999952157],[-104.40057000010535,20.256240000076104],[-104.39960999990149,20.26722999966489],[-104.39501999957321,20.29850000007508],[-104.39148000000188,20.31886999965093],[-104.38794999999243,20.33924000012604],[-104.3848000004196,20.35999000013851],[-104.3833700001253,20.37050999963691],[-104.38146000017878,20.392500000175005],[-104.3799400002307,20.426829999604934],[-104.37955999979408,20.438399999860223],[-104.37822999961469,20.47291999995815],[-104.37766000030865,20.484289999983673],[-104.37430999960668,20.516809999581938],[-104.37288000021175,20.52732000041783],[-104.36943999985601,20.547790000108535],[-104.3658099997316,20.56805999956947],[-104.36093999998093,20.599040000096068],[-104.35855000038214,20.6205599996444],[-104.35703000043407,20.642929999719854],[-104.35607999979203,20.66587999956249],[-104.35531999981805,20.68902000007307],[-104.35435999961419,20.71196999991571],[-104.35283999966617,20.734339999991164],[-104.35188000036163,20.745340000041097],[-104.34901000021125,20.766379999937215],[-104.34556999985551,20.786840000066093],[-104.3402300000144,20.8173400000411],[-104.3385099998365,20.827580000117052],[-104.33563999968612,20.848609999551968],[-104.3337299997396,20.87060999965189],[-104.33259000022821,20.893360000164023],[-104.33144999981755,20.928079999592455],[-104.33107000028019,20.939649999847745],[-104.32992999986948,20.962400000359878],[-104.32658000006683,20.9949199999582],[-104.32342999959468,21.015660000408843],[-104.32171000031616,21.025899999585477],[-104.3163600000139,21.056399999560483],[-104.314639999836,21.06663000007461],[-104.3107300002892,21.098569999905692],[-104.30968000043157,21.10946999984077],[-104.30796999981555,21.131650000147545],[-104.30519999978009,21.164739999951166],[-104.30414999992246,21.175639999886243],[-104.30127999977208,21.196679999782305],[-104.2960200000229,21.227279999872223],[-104.29249999957523,21.247639999886246],[-104.29078000029665,21.257870000400317],[-104.28772999993947,21.278719999628436],[-104.28524999978754,21.300139999961175],[-104.28171000021626,21.33246000022899],[-104.27894999974262,21.35358999977882],[-104.27742000023272,21.36401000006157],[-104.27217000004538,21.394610000151545],[-104.27034999975257,21.40475000011253],[-104.26673000008935,21.425019999573465],[-104.26176000022372,21.455910000446295],[-104.25870999986648,21.47675000011253],[-104.25718999991847,21.487170000395338],[-104.25193999973112,21.517769999585937],[-104.25010999987649,21.527910000446298],[-104.24466999992046,21.558319999868218],[-104.24286999965068,21.568450000267433],[-104.23789999978504,21.599340000240943],[-104.2363700002752,21.60975999962443],[-104.23331999991797,21.63060999975181],[-104.22989000002337,21.651069999880747],[-104.22395000039211,21.680999999650396],[-104.22186000023873,21.690849999727845],[-104.21488999987349,21.719729999639924],[-104.21002000012282,21.738760000373873],[-104.20753000040906,21.7482199995535],[-104.20238000033663,21.766960000403856],[-104.1970399995962,21.785509999686894],[-104.18863999983603,21.812960000203987],[-104.18301000011132,21.831219999603434],[-104.18024000007586,21.840400000259933],[-104.17231999996795,21.86831999996815],[-104.16975000016225,21.877699999955155],[-104.16478000029667,21.89662999967487],[-104.1572300001643,21.924929999819767],[-104.1546600003586,21.934300000244946],[-104.14931000005635,21.952850000427304],[-104.14042999974458,21.979820000392863],[-104.13728000017176,21.988619999713364],[-104.1307900003581,22.006019999923183],[-104.12059000032815,22.031639999686377],[-104.11706000031865,22.04006000036884],[-104.10998999983855,22.056890000373357],[-104.10329999979507,22.074099999915177],[-104.09682000044256,22.091500000125052],[-104.09032000016776,22.108909999896696],[-104.08420999989147,22.12668999964393],[-104.07532999957971,22.15365999960943],[-104.06932000031765,22.17154000037084],[-104.06626999996041,22.180430000244485],[-104.06035000035212,22.198410000221486],[-104.05147000004035,22.225369999725842],[-104.04545999987897,22.243260000049077],[-104.04239999995991,22.25214999992272],[-104.03648000035162,22.270129999899723],[-104.030559999844,22.2881000003149],[-104.02446000002885,22.3058899996239],[-104.01471000006637,22.331989999938685],[-104.01146999994046,22.340690000043594],[-104.00126999991045,22.366320000267933],[-103.99773000033912,22.37472999958993],[-103.9873199996182,22.40017000004559],[-103.98398000027669,22.40877999959747],[-103.97434999955271,22.434969999565965],[-103.97119999997994,22.443769999785786],[-103.96545999967913,22.461940000430843],[-103.96011000027619,22.480489999713882],[-103.95248000005188,22.50870000020501],[-103.9499999999,22.51816999984578],[-103.94293000031917,22.54694999964289],[-103.94063999993597,22.55660999995166],[-103.9364399996062,22.57631000010656],[-103.9309099999964,22.606620000312887],[-103.92918000025674,22.616849999927695],[-103.92460999995143,22.648120000337883],[-103.92308000044159,22.65853999972137],[-103.91964999964767,22.678999999850248],[-103.91600999996143,22.699270000210504],[-103.91065999965917,22.729779999747336],[-103.9089400003806,22.740010000261464],[-103.90617000034513,22.760950000042612],[-103.90455999984403,22.782660000258943],[-103.90408000019175,22.816120000038097],[-103.9052300001643,22.83812000013802],[-103.90751999964817,22.85953999957144],[-103.91065999965917,22.880289999583965],[-103.91420000012982,22.90064999959793],[-103.91781999979304,22.920930000419332],[-103.91953999997094,22.93116000003414],[-103.9246000003896,22.961949999892738],[-103.92766000030866,22.98280000002012],[-103.9309099999964,23.003449999917677],[-103.93454000012082,23.023720000277933],[-103.93854000022071,23.04361000020151],[-103.94291999985802,23.063110000126528],[-103.94771000041607,23.08224000007607],[-103.95287000005038,23.100980000027107],[-103.95839999966017,23.119340000440786],[-103.96440000025973,23.137220000302932],[-103.971079999842,23.154440000305897],[-103.98205999986902,23.179300000095054],[-103.98215999998393,23.179199999980142],[-103.99773000033912,23.21142999969487],[-104.00574000010084,23.227300000394848],[-104.0096600001088,23.235330000179488],[-104.01366999977057,23.243270000310417],[-104.02158999987847,23.259240000225986],[-104.03351999964815,23.283139999811283],[-104.04545999987897,23.307049999857725],[-104.05366999987052,23.322729999889702],[-104.06618000030664,23.346060000169018],[-104.07944000025572,23.368629999574978],[-104.08860999955175,23.383350000302414],[-104.09795000039213,23.397889999923677],[-104.10750000012479,23.412230000214493],[-104.11723000006435,23.426379999837252],[-104.12716999979557,23.44033999969139],[-104.132319999868,23.44712999984978],[-104.14816999964569,23.46711999988821],[-104.15942999999442,23.47974000000113],[-104.16515999983403,23.48595999995416],[-104.17679999972012,23.4981999996304],[-104.19456000034364,23.516270000160546],[-104.20659000022823,23.528130000299427],[-104.21843000034414,23.540169999745842],[-104.23044999976759,23.552029999884724],[-104.2422899998835,23.564079999792284],[-104.25431999976809,23.57593000036934],[-104.26634999965268,23.587789999608958],[-104.27254999958274,23.59352999990972],[-104.29134999960269,23.61054999968286],[-104.30451999989799,23.621259999849258],[-104.31808000019174,23.631589999578978],[-104.33202000002291,23.641530000209457],[-104.35330000019474,23.656069999830777],[-104.36046999989048,23.660849999927677],[-104.38193999983105,23.675190000218493],[-104.38911000042606,23.679970000315393],[-104.40342999979458,23.68952999960993],[-104.41775000006237,23.699100000264934],[-104.43205999986901,23.708659999559472],[-104.44658000036662,23.71802999998465],[-104.46126999971062,23.72720999974183],[-104.4761699997456,23.736190000168506],[-104.49145000021724,23.74479999972033],[-104.5070999997651,23.75302999973485],[-104.52275000021223,23.761250000187488],[-104.53859999998991,23.769279999972184],[-104.55481999974307,23.776930000219465],[-104.57106000041858,23.784579999567484],[-104.58746999994042,23.792040000046086],[-104.60446000012882,23.798919999858242],[-104.61314999977259,23.8021700004453],[-104.63921000004137,23.811929999969664],[-104.65696999976558,23.818049999807783],[-104.67490999969664,23.823979999877224],[-104.69286000008884,23.829909999946665],[-104.71080999958173,23.83582999955496],[-104.72912999994946,23.8413800000871],[-104.75700000004986,23.849320000217972],[-104.77582000009284,23.854390000198464],[-104.78526000014881,23.856870000350398],[-104.80435000005235,23.8616500004473],[-104.82362999972463,23.866239999876257],[-104.84330000029468,23.8704499997678],[-104.86335000040208,23.874269999660896],[-104.89418000030668,23.879249999987678],[-104.91499000038812,23.882309999906738],[-104.92540000020972,23.8838400003159],[-104.94582000029266,23.887279999772318],[-104.97616999964566,23.892730000189488],[-104.9862800000219,23.894549999582978],[-105.00672000012781,23.897989999938716],[-105.0277100004161,23.900860000089097],[-105.04966999957071,23.902770000035616],[-105.08393999983105,23.904109999776836],[-105.10704000029568,23.904109999776836],[-105.12995999965415,23.903340000240973],[-105.14093999968117,23.902389999598938],[-105.17377000008531,23.899420000232965],[-105.19448999961367,23.89626999976082],[-105.21480999958169,23.892730000189488],[-105.23514999957274,23.889189999718837],[-105.2557699998855,23.8859400000311],[-105.2768600002887,23.88316999999563],[-105.28764000008584,23.882020000023147],[-105.31982000019275,23.87838999989873],[-105.34092000015778,23.875610000301435],[-105.36144999991745,23.872259999599464],[-105.38139000034812,23.8683500000526],[-105.40085999978908,23.86395000039232],[-105.42004999980753,23.859259999949188],[-105.43903999959622,23.854390000198464],[-105.4578599996392,23.849320000217972],[-105.47646999989047,23.84405999956948],[-105.48553000040909,23.84119000031842],[-105.52143000029417,23.829330000179482],[-105.53011999993794,23.826079999592423],[-105.55579000020822,23.81593999963144],[-105.56400000019977,23.812219999853255],[-105.58032000006784,23.804660000159004],[-105.60466999972061,23.793190000018626],[-105.61258999982851,23.789169999895705],[-105.62843000004437,23.781140000111066],[-105.65240000015979,23.769279999972184],[-105.66032000026769,23.76527000031041],[-105.67615999958423,23.757230000064567],[-105.69211000037609,23.74930000039484],[-105.70804999980754,23.741360000263967],[-105.72380000036964,23.733230000364358],[-105.73946000037864,23.72500999991172],[-105.76255999994396,23.71228999968389],[-105.77000000039959,23.707800000369843],[-105.7921399997611,23.69411999993821],[-105.80666000025872,23.68475000041235],[-105.82097999962718,23.675190000218493],[-105.83511000012629,23.665440000255956],[-105.84207999959222,23.66047000039032],[-105.86259000022824,23.645160000333874],[-105.8757799996472,23.63445999972936],[-105.89457999966714,23.61743999995616],[-105.90079000005835,23.6116999996554],[-105.90680000021973,23.60576999958596],[-105.91881999964318,23.593910000346398],[-105.93668000038161,23.575939999931165],[-105.94869999980506,23.564079999792284],[-105.96053999992097,23.552029999884724],[-105.97256000024373,23.540169999745842],[-105.98440999992147,23.528130000299427],[-105.99042000008285,23.522200000229986],[-106.00234999985253,23.510239999976136],[-106.02028999978359,23.492360000114047],[-106.03214000036064,23.480310000206487],[-106.04397999957723,23.468269999860752],[-106.05542999969464,23.455840000415833],[-106.06669999960519,23.44320999984177],[-106.07738000018674,23.430020000422815],[-106.08768999989348,23.416440000106036],[-106.09760999960173,23.402480000251956],[-106.10735000000238,23.38832999972982],[-106.1168999997351,23.373979999877236],[-106.1262500001373,23.359449999817798],[-106.13542000033266,23.3447200004278],[-106.14439000029819,23.329809999931683],[-106.15297999982704,23.314510000336384],[-106.16118999981853,23.29881999984326],[-106.16939999981003,23.283139999811283],[-106.1774200000329,23.267270000010626],[-106.18524999958771,23.25121000044129],[-106.19326999981052,23.235330000179488],[-106.2012900000334,23.21946000037883],[-106.2089200002577,23.203199999680407],[-106.21637000027522,23.186759999674393],[-106.22343000029417,23.169929999669876],[-106.22973000033915,23.152330000129552],[-106.23813000009932,23.124890000073606],[-106.24328999973358,23.106150000122568],[-106.24814999992248,23.08712000028794],[-106.25054000042059,23.077549999632936],[-106.25531999961817,23.05843000014454],[-106.2600900001533,23.039309999756824],[-106.26725000028716,23.010619999613425],[-106.26963999988601,23.001060000318887],[-106.27630999990646,22.971889999623897],[-106.28022999991447,22.95191000004661],[-106.28203999974608,22.94177000008557],[-106.28585999963917,22.909739999701344],[-106.28739000004839,22.88736000006412],[-106.28796000025369,22.875979999577453],[-106.28864000013579,22.8407999996204],[-106.28872999978955,22.81698999968887],[-106.28872999978955,22.79307999964243],[-106.28872999978955,22.78112999984978],[-106.28862999967464,22.757319999918195],[-106.28825000013728,22.721839999616407],[-106.28739999961022,22.69880000012006],[-106.28587000010032,22.67641999958346],[-106.28443999980607,22.66590000008506],[-106.28176999988551,22.644679999982145],[-106.27678999955873,22.613790000008635],[-106.27509000030318,22.603560000393827],[-106.2701099999764,22.572670000420317],[-106.26916999979557,22.56167999993221],[-106.26715000017225,22.5397799999472],[-106.26534999990247,22.505740000400863],[-106.26495000034214,22.482220000352868],[-106.26475999967414,22.458500000075105],[-106.26438999969861,22.434969999565965],[-106.26352999960972,22.41193000006956],[-106.26200999966164,22.389559999994162],[-106.26056999980557,22.379039999596444],[-106.2564699995907,22.347290000433304],[-106.25465000019727,22.337149999572944],[-106.24940000000987,22.30655999994417],[-106.24796999971562,22.296040000445828],[-106.24385999993893,22.26429000038337],[-106.24233999999092,22.241920000307914],[-106.24119000001838,22.207210000441307],[-106.2410000002497,22.19545000041734],[-106.24051999969811,22.17202000002311],[-106.23967000007036,22.148970000065617],[-106.23872000032765,22.137979999577453],[-106.23575999962418,22.10508000044183],[-106.2325999995902,22.084330000429304],[-106.22906000001888,22.06397000041534],[-106.2255399995712,22.04359999994017],[-106.2223800004366,22.0228499999277],[-106.22144000025571,22.01184999987771],[-106.21838000033665,21.97904999995768],[-106.2171300002492,21.956389999998635],[-106.21590000018477,21.93373000003959],[-106.21493999998091,21.922729999989656],[-106.21188999962368,21.88993000006957],[-106.20701999987301,21.85895000044229],[-106.2051999995802,21.848820000043133],[-106.2034899998635,21.838590000428326],[-106.19851999999793,21.807699999555496],[-106.19603000028417,21.786280000122076],[-106.1951799997571,21.77519000041832],[-106.19240999972163,21.74209999971538],[-106.18946000037863,21.709210000141525],[-106.18803000008432,21.698689999743806],[-106.18487999961218,21.677939999731336],[-106.18306000021875,21.667799999770295],[-106.1778100000314,21.637210000141522],[-106.17635999971412,21.62668999974386],[-106.17370999981654,21.605460000079063],[-106.17064999989748,21.572660000159033],[-106.16939999981003,21.550000000199987],[-106.1681699997456,21.52734000024094],[-106.16654999968262,21.505059999819252],[-106.16512000028769,21.49454000032091],[-106.16245000036713,21.47330999975685],[-106.15747000004035,21.442419999783283],[-106.15576000032365,21.432190000168532],[-106.15069999990499,21.40140999987176],[-106.14946000027868,21.390690000143536],[-106.14677000033515,21.369459999579476],[-106.1431600002337,21.33724000032589],[-106.14162999982454,21.326820000043085],[-106.13715000007232,21.29545999997913],[-106.13532999977957,21.285320000018146],[-106.13007999959223,21.25471999992817],[-106.12682999990449,21.234059999569467],[-106.12559999984,21.22335000030239],[-106.12167000027017,21.191420000033133],[-106.1192900002332,21.169899999585425],[-106.11652000019774,21.148770000035597],[-106.11328000007182,21.12812000013804],[-106.11147000024022,21.117980000177],[-106.10622000005287,21.08738000008708],[-106.10468000008183,21.076959999804274],[-106.10018999986852,21.045590000178493],[-106.09780999983155,21.024080000191987],[-106.09542999979453,21.00257000020548],[-106.09390000028469,20.99214000036085],[-106.09093999958122,20.97119999968038],[-106.08588000006188,20.94040999982178],[-106.08405999976907,20.93026999986074],[-106.07871999992796,20.899769999885734],[-106.07547000024022,20.879119999988177],[-106.07393999983105,20.868690000143545],[-106.07069000014332,20.84804000024593],[-106.06564000018574,20.817250000387332],[-106.06383000035413,20.80711000042629],[-106.0565700001053,20.766569999705837],[-106.0548600003886,20.756340000091086],[-106.05332999997944,20.74591999980828],[-106.0500800002917,20.725260000348896],[-106.04530000019474,20.694179999707387],[-106.04177999974712,20.673819999693364],[-106.03805999996894,20.653639999886252],[-106.0341300003991,20.633660000308907],[-106.03013000029915,20.61377000038533],[-106.0262100002912,20.593780000346896],[-106.02229999984502,20.573799999870232],[-106.01829999974507,20.553909999946654],[-106.0142799996222,20.534020000023133],[-106.01026999996043,20.514130000099556],[-106.00626000029865,20.494240000176035],[-106.00234999985253,20.474250000137545],[-105.99844000030566,20.45426999966088],[-105.99442999974457,20.43437999973736],[-105.99042000008285,20.41448999981378],[-105.98639999995993,20.394599999890204],[-105.98239999986004,20.374709999966683],[-105.97849000031317,20.35473000038934],[-105.97457000030516,20.33474000035085],[-105.96856000014378,20.30490999979679],[-105.96655000008235,20.29495999960443],[-105.96254000042057,20.27506999968091],[-105.95852999985954,20.25517999975733],[-105.95462000031267,20.235200000179987],[-105.95070999986649,20.215210000141553],[-105.94670000020477,20.195320000217976],[-105.94268999964368,20.175439999856223],[-105.93867000042007,20.155549999932703],[-105.93467000032018,20.135660000009125],[-105.930759999874,20.115669999970635],[-105.92683999986599,20.095690000393347],[-105.9228399997661,20.07579999957045],[-105.91881999964318,20.05590999964693],[-105.9148099999814,20.03601999972335],[-105.91080000031968,20.016129999799773],[-105.9068899998735,19.996150000222485],[-105.90298000032664,19.976160000183995],[-105.8989699997656,19.956270000260417],[-105.89496000010382,19.936380000336897],[-105.89095000044205,19.91649000041332],[-105.88693999988101,19.89659999959042],[-105.88303000033414,19.876620000013133],[-105.87911000032614,19.856629999974643],[-105.87501000011133,19.836840000166035],[-105.87070999966664,19.81724000012605],[-105.86622999991448,19.79782999985474],[-105.86154999993244,19.778610000251433],[-105.85676999983554,19.759480000301892],[-105.85210000031469,19.740259999799264],[-105.84761000010133,19.720850000427333],[-105.84332000011779,19.701250000387347],[-105.83921000034115,19.681450000117536],[-105.83529999989497,19.66146999964093],[-105.83137999988696,19.64147999960244],[-105.82727999967216,19.621689999793773],[-105.82298000012679,19.602089999753844],[-105.81850000037463,19.582680000381856],[-105.81382000039258,19.56345999987923],[-105.80904000029568,19.544329999929687],[-105.80428000022175,19.52521000044129],[-105.7995000001248,19.50607999959243],[-105.7947200000279,19.486960000104034],[-105.78995999995396,19.46783000015455],[-105.78517999985701,19.448709999766834],[-105.78041000022125,19.429590000278438],[-105.7756300001243,19.410460000328897],[-105.77085999958922,19.39133999994118],[-105.76608999995346,19.372219999553465],[-105.76122000020274,19.35318000015701],[-105.75615999978407,19.334349999652886],[-105.75092000005787,19.315700000254935],[-105.74546999964065,19.29725000018749],[-105.73983999991594,19.278980000326897],[-105.73421000019124,19.26072000002813],[-105.73152999980954,19.251440000156038],[-105.72350999958672,19.223619999663413],[-105.7184599996292,19.204779999597463],[-105.71348999976357,19.185849999877746],[-105.70843999980605,19.167009999811796],[-105.70051000013632,19.13909000010358],[-105.69774000010085,19.1299100003464],[-105.68906000001891,19.10274999971284],[-105.68610000021476,19.093770000185486],[-105.677219999903,19.066800000219985],[-105.67426000009885,19.057810000231484],[-105.66824000037565,19.03993000036934],[-105.66223000021427,19.02204999960793],[-105.65630999970665,19.00406999963093],[-105.65039000009835,18.986089999653927],[-105.64437999993697,18.96820999979178],[-105.63540999997144,18.941339999941192],[-105.6324500001673,18.93234999995269],[-105.62643000044409,18.914470000090546],[-105.62013000039912,18.89688000011205],[-105.61365000014729,18.879470000340405],[-105.60706000021872,18.86217000024544],[-105.60018000040657,18.845149999572982],[-105.59312000038761,18.828319999568464],[-105.58623999967614,18.811299999795267],[-105.57640999962166,18.785290000033626],[-105.57317000039512,18.776589999928717],[-105.56687000035015,18.758990000388337],[-105.56084999972762,18.74110999962693],[-105.55483999956624,18.72322999976484],[-105.54854000042059,18.705639999786285],[-105.54204999970761,18.68823000001464],[-105.53545999977905,18.670920000357853],[-105.5285900004281,18.653899999685393],[-105.52151999994794,18.637069999680875],[-105.51131000035616,18.61144999991768],[-105.50797000011534,18.60284000036586],[-105.50119000041809,18.585730000039632],[-105.49442000028267,18.568610000151523],[-105.4877300002392,18.551399999710384],[-105.48085999998892,18.534379999937187],[-105.47379000040809,18.51754999993267],[-105.46692000015776,18.50053000015953],[-105.46023999967616,18.483310000156507],[-105.45345999997892,18.46619999983028],[-105.4466899998435,18.44907999994217],[-105.43991000014631,18.43196000005412],[-105.43275000001239,18.415230000164513],[-105.42139000044807,18.390749999912714],[-105.41374999976256,18.37449999967538],[-105.40974000010084,18.366560000443826],[-105.39771000021625,18.34274999961292],[-105.39389999988498,18.334630000174513],[-105.38244000020575,18.31023999957648],[-105.37499999975012,18.29379000000864],[-105.37156999985552,18.28527999967241],[-105.36477999969713,18.268170000245448],[-105.35799999999989,18.251050000357395],[-105.35122999986453,18.233929999569966],[-105.34445000016728,18.21682000014306],[-105.33729000003336,18.200079999792308],[-105.32592999956972,18.175610000001654],[-105.32210999967663,18.167480000102046],[-105.31026999956072,18.14346999994069],[-105.30225000023722,18.127600000140035],[-105.29833999979104,18.119570000355395],[-105.29041999968314,18.103600000439826],[-105.2823899998985,18.08772999973985],[-105.27056000024373,18.063730000039584],[-105.26254000002086,18.04784999977778],[-105.25433000002937,18.032169999745804],[-105.24612000003788,18.016489999713883],[-105.2375299996097,18.001190000118527],[-105.22855999964418,17.986270000060586],[-105.21939000034814,17.97155000023247],[-105.21471999992798,17.96428000042181],[-105.20525999984903,17.949840000016138],[-105.19076000027371,17.92851999979831],[-105.18083000010432,17.914559999944174],[-105.17052000039763,17.900979999627396],[-105.16517999965714,17.894380000137062],[-105.14856999990548,17.875159999634434],[-105.14284000006586,17.868950000142547],[-105.12527000011033,17.850680000281955],[-105.11342999999442,17.838630000374337],[-105.10741999983304,17.832709999866722],[-105.08956999955575,17.81472999988972],[-105.0775500001323,17.80286999975084],[-105.06569999955525,17.79081999984328],[-105.0536800001318,17.77895999970434],[-105.0418400000159,17.766920000257926],[-105.02981999969313,17.755060000119045],[-105.02390000008484,17.74902999993469],[-105.00594999969263,17.73115999963443],[-104.99994000043057,17.725229999564988],[-104.9815100003861,17.707819999793287],[-104.96901000041112,17.69654000032091],[-104.95602000032267,17.68601999992319],[-104.9427600003736,17.676269999960653],[-104.92920999964167,17.66746999974083],[-104.91536999992547,17.65982000039287],[-104.89293000021922,17.651310000056583],[-104.88519000031818,17.648919999558473]]]},"properties":{"storm_id":"ep202026","name":"Simon","clase":"Huracán","intensity_kt":130,"url":"https://www.nhc.noaa.gov/graphics_ep5.shtml","fuente":"NOAA NHC (cono oficial)","last_update":"2026-10-11T00:00:00.000Z","aviso_num":"014a","kind":"cono"}},{"type":"Feature","geometry":{"type":"LineString","coordinates":[[-103.44999999999987,18.310000000199977],[-102.15999999970012,17.9199999999002]]},"properties":{"storm_id":"ep202026","name":"Simon","clase":"Huracán","intensity_kt":130,"url":"https://www.nhc.noaa.gov/graphics_ep5.shtml","fuente":"NOAA NHC (cono oficial)","last_update":"2026-10-11T00:00:00.000Z","aviso_num":"014a","kind":"aviso_costa","aviso":"Vigilancia de tormenta tropical","aviso_nivel":2}},{"type":"Feature","geometry":{"type":"LineString","coordinates":[[-105.69000000019975,22.389999999600434],[-105.2699999996002,21.51999999990022],[-105.51000000019974,20.76999999960043],[-105.68000000039962,20.420000000299922],[-105.1400000003996,19.57000000019997],[-104.3300000003996,19.049999999800264],[-103.44999999999987,18.310000000199977]]},"properties":{"storm_id":"ep202026","name":"Simon","clase":"Huracán","intensity_kt":130,"url":"https://www.nhc.noaa.gov/graphics_ep5.shtml","fuente":"NOAA NHC (cono oficial)","last_update":"2026-10-11T00:00:00.000Z","aviso_num":"014a","kind":"aviso_costa","aviso":"Aviso de huracán","aviso_nivel":4}},{"type":"Feature","geometry":{"type":"LineString","coordinates":[[-106.20999999970013,21.280000000200005],[-106.47999999970011,21.510000000100092],[-106.59000000019978,21.630000000399832],[-106.7099999996002,21.79999999970039]]},"properties":{"storm_id":"ep202026","name":"Simon","clase":"Huracán","intensity_kt":130,"url":"https://www.nhc.noaa.gov/graphics_ep5.shtml","fuente":"NOAA NHC (cono oficial)","last_update":"2026-10-11T00:00:00.000Z","aviso_num":"014a","kind":"aviso_costa","aviso":"Aviso de huracán","aviso_nivel":4}}]}