{"type":"FeatureCollection","generado_utc":"2026-10-10T23:49:34Z","ventana_h":48,"total_ip":2467,"sin_pais":0,"geoip":"DB-IP IP to Country Lite 2026-10 (CC BY 4.0)","fuentes":{"threatfox":"ok (2466 IP)","feodo":"ok (1 IP)"},"features":[{"type":"Feature","geometry":{"type":"Point","coordinates":[-99.14,39.53]},"properties":{"id":"c2:USA","pais_iso3":"USA","pais":"Estados Unidos","n":536,"familias":[["PureRAT",101],["Cobalt Strike",65],["AdaptixC2",62],["Unknown malware",62],["AsyncRAT",45],["Havoc",25],["Evilginx",25],["DanaBot",24],["DCRat",24],["Remcos",15]],"n_familias":32}},{"type":"Feature","geometry":{"type":"Point","coordinates":[103.81,36.62]},"properties":{"id":"c2:CHN","pais_iso3":"CHN","pais":"China","n":377,"familias":[["Cobalt Strike",302],["AdaptixC2",24],["Unknown malware",18],["VShell",8],["DeimosC2",7],["VBREVSHELL",3],["Chaos",3],["DanaBot",3],["Deimos",2],["Ghost RAT",1]],"n_familias":16}},{"type":"Feature","geometry":{"type":"Point","coordinates":[10.37,51.09]},"properties":{"id":"c2:DEU","pais_iso3":"DEU","pais":"Alemania","n":232,"familias":[["PureRAT",41],["Tsundere",26],["AsyncRAT",21],["AdaptixC2",20],["Unknown malware",16],["Remcos",14],["DanaBot",13],["Cobalt Strike",11],["Vidar",10],["Havoc",10]],"n_familias":29}},{"type":"Feature","geometry":{"type":"Point","coordinates":[114.13,22.43]},"properties":{"id":"c2:HKG","pais_iso3":"HKG","pais":"Hong Kong","n":223,"familias":[["Cobalt Strike",75],["PureRAT",49],["AdaptixC2",31],["DCRat",16],["DanaBot",13],["Unknown malware",12],["Sliver",6],["VShell",4],["pupy",4],["Havoc",3]],"n_familias":18}},{"type":"Feature","geometry":{"type":"Point","coordinates":[5.64,52.29]},"properties":{"id":"c2:NLD","pais_iso3":"NLD","pais":"Países Bajos","n":207,"familias":[["PureRAT",38],["Evilginx",27],["AsyncRAT",26],["Unknown malware",24],["AdaptixC2",17],["Kimwolf",10],["Remcos",9],["Cobalt Strike",8],["Mirai",7],["Aisuru",5]],"n_familias":27}},{"type":"Feature","geometry":{"type":"Point","coordinates":[103.97,1.33]},"properties":{"id":"c2:SGP","pais_iso3":"SGP","pais":"Singapur","n":100,"familias":[["Cobalt Strike",21],["AdaptixC2",19],["Unknown malware",14],["PureRAT",11],["Aisuru",7],["Jackskid",5],["Havoc",5],["DCRat",3],["Remus",2],["VShell",2]],"n_familias":19}},{"type":"Feature","geometry":{"type":"Point","coordinates":[2.46,46.61]},"properties":{"id":"c2:FRA","pais_iso3":"FRA","pais":"Francia","n":86,"familias":[["Unknown malware",29],["PureRAT",26],["AsyncRAT",9],["Havoc",4],["pupy",3],["AdaptixC2",3],["Cobalt Strike",2],["DanaBot",2],["Jackskid",2],["Vidar",1]],"n_familias":15}},{"type":"Feature","geometry":{"type":"Point","coordinates":[-2.52,53.95]},"properties":{"id":"c2:GBR","pais_iso3":"GBR","pais":"Reino Unido","n":52,"familias":[["Unknown malware",7],["DanaBot",5],["Remcos",5],["AdaptixC2",5],["Havoc",4],["Evilginx",4],["PureRAT",4],["AsyncRAT",3],["Aisuru",2],["Drifter",2]],"n_familias":19}},{"type":"Feature","geometry":{"type":"Point","coordinates":[96,62]},"properties":{"id":"c2:RUS","pais_iso3":"RUS","pais":"Rusia","n":49,"familias":[["AdaptixC2",13],["Cobalt Strike",6],["Unknown malware",5],["PureRAT",3],["BianLian",3],["Havoc",2],["Amadey",2],["DCRat",2],["AsyncRAT",2],["Evilginx",2]],"n_familias":17}},{"type":"Feature","geometry":{"type":"Point","coordinates":[138.01,36.65]},"properties":{"id":"c2:JPN","pais_iso3":"JPN","pais":"Japón","n":49,"familias":[["Cobalt Strike",14],["AdaptixC2",12],["Brute Ratel C4",5],["PureRAT",5],["AsyncRAT",3],["Unknown malware",3],["Sliver",2],["Remcos",2],["Havoc",2],["Jackskid",1]],"n_familias":10}},{"type":"Feature","geometry":{"type":"Point","coordinates":[16.73,62.82]},"properties":{"id":"c2:SWE","pais_iso3":"SWE","pais":"Suecia","n":36,"familias":[["AsyncRAT",10],["Remcos",7],["DCRat",6],["Havoc",3],["DanaBot",2],["AdaptixC2",2],["DeimosC2",2],["Vidar",1],["Chaos",1],["Unknown malware",1]],"n_familias":11}},{"type":"Feature","geometry":{"type":"Point","coordinates":[-102.36,57.93]},"properties":{"id":"c2:CAN","pais_iso3":"CAN","pais":"Canadá","n":30,"familias":[["PureRAT",5],["Evilginx",5],["Cobalt Strike",5],["AsyncRAT",3],["PoshC2",2],["Remcos",2],["Havoc",2],["Unknown malware",2],["Aisuru",1],["DCRat",1]],"n_familias":12}},{"type":"Feature","geometry":{"type":"Point","coordinates":[57.59,-20.28]},"properties":{"id":"c2:MUS","pais_iso3":"MUS","pais":"Mauricio","n":29,"familias":[["Unknown malware",29]],"n_familias":1}},{"type":"Feature","geometry":{"type":"Point","coordinates":[106.31,16.65]},"properties":{"id":"c2:VNM","pais_iso3":"VNM","pais":"Vietnam","n":29,"familias":[["Cobalt Strike",7],["Remcos",5],["PureRAT",4],["AsyncRAT",4],["Mirai",2],["AdaptixC2",2],["Unknown malware",2],["Sliver",1],["DCRat",1],["Chaos",1]],"n_familias":10}},{"type":"Feature","geometry":{"type":"Point","coordinates":[79.6,22.91]},"properties":{"id":"c2:IND","pais_iso3":"IND","pais":"India","n":23,"familias":[["Unknown malware",9],["pupy",3],["PureRAT",3],["AdaptixC2",2],["AsyncRAT",1],["Drifter",1],["Havoc",1],["Jackskid",1],["Remus",1],["Evilginx",1]],"n_familias":10}},{"type":"Feature","geometry":{"type":"Point","coordinates":[35.43,38.99]},"properties":{"id":"c2:TUR","pais_iso3":"TUR","pais":"Turquía","n":21,"familias":[["Remcos",12],["PureRAT",4],["Jackskid",2],["Unknown malware",1],["DCRat",1],["AdaptixC2",1]],"n_familias":6}},{"type":"Feature","geometry":{"type":"Point","coordinates":[25.22,42.78]},"properties":{"id":"c2:BGR","pais_iso3":"BGR","pais":"Bulgaria","n":20,"familias":[["Unknown malware",9],["PureRAT",4],["AsyncRAT",3],["Remcos",2],["LxBase RAT",1],["Cobalt Strike",1]],"n_familias":6}},{"type":"Feature","geometry":{"type":"Point","coordinates":[26.29,64.51]},"properties":{"id":"c2:FIN","pais_iso3":"FIN","pais":"Finlandia","n":20,"familias":[["Vidar",5],["PureRAT",5],["Unknown malware",2],["AsyncRAT",1],["AdaptixC2",1],["Cobalt Strike",1],["Havoc",1],["Mirai",1],["Stealc",1],["Chaos",1]],"n_familias":11}},{"type":"Feature","geometry":{"type":"Point","coordinates":[31.25,49.16]},"properties":{"id":"c2:UKR","pais_iso3":"UKR","pais":"Ucrania","n":20,"familias":[["Jackskid",6],["Remcos",3],["Cobalt Strike",3],["PureRAT",2],["pupy",1],["Unknown malware",1],["CECbot",1],["Evilginx",1],["BianLian",1],["NetSupportManager RAT",1]],"n_familias":10}},{"type":"Feature","geometry":{"type":"Point","coordinates":[-53.12,-10.84]},"properties":{"id":"c2:BRA","pais_iso3":"BRA","pais":"Brasil","n":19,"familias":[["DanaBot",7],["Jackskid",2],["PureRAT",2],["Havoc",2],["DCRat",1],["Remus",1],["AdaptixC2",1],["Mirai",1],["NetSupportManager RAT",1],["DeimosC2",1]],"n_familias":10}},{"type":"Feature","geometry":{"type":"Point","coordinates":[24.97,45.86]},"properties":{"id":"c2:ROU","pais_iso3":"ROU","pais":"Rumanía","n":19,"familias":[["Potassium",11],["Havoc",2],["Cobalt Strike",2],["Remcos",1],["PureRAT",1],["Unknown malware",1],["Chaos",1]],"n_familias":7}},{"type":"Feature","geometry":{"type":"Point","coordinates":[28.46,47.21]},"properties":{"id":"c2:MDA","pais_iso3":"MDA","pais":"Moldavia","n":16,"familias":[["Jackskid",5],["PureRAT",5],["Hook",2],["AdaptixC2",2],["Cobalt Strike",1],["Unknown RAT",1]],"n_familias":6}},{"type":"Feature","geometry":{"type":"Point","coordinates":[19.38,52.12]},"properties":{"id":"c2:POL","pais_iso3":"POL","pais":"Polonia","n":15,"familias":[["PureRAT",4],["AdaptixC2",4],["pupy",3],["Sliver",1],["Havoc",1],["Tsundere",1],["Unknown malware",1]],"n_familias":7}},{"type":"Feature","geometry":{"type":"Point","coordinates":[8.22,46.8]},"properties":{"id":"c2:CHE","pais_iso3":"CHE","pais":"Suiza","n":15,"familias":[["Cobalt Strike",8],["Tsundere",2],["AsyncRAT",1],["Remcos",1],["Havoc",1],["Unknown malware",1],["BianLian",1]],"n_familias":7}},{"type":"Feature","geometry":{"type":"Point","coordinates":[127.86,36.45]},"properties":{"id":"c2:KOR","pais_iso3":"KOR","pais":"República de Corea","n":14,"familias":[["Cobalt Strike",5],["DanaBot",3],["AsyncRAT",2],["AdaptixC2",1],["Havoc",1],["pupy",1],["NetSupportManager RAT",1]],"n_familias":7}},{"type":"Feature","geometry":{"type":"Point","coordinates":[14.8,46.11]},"properties":{"id":"c2:SVN","pais_iso3":"SVN","pais":"Eslovenia","n":14,"familias":[["AsyncRAT",4],["CECbot",3],["PureRAT",3],["DCRat",3],["Remcos",1]],"n_familias":5}},{"type":"Feature","geometry":{"type":"Point","coordinates":[55.54,-4.69]},"properties":{"id":"c2:SYC","pais_iso3":"SYC","pais":"Seychelles","n":13,"familias":[["Potassium",6],["Cobalt Strike",4],["DCRat",1],["Stealc",1],["PureRAT",1]],"n_familias":5}},{"type":"Feature","geometry":{"type":"Point","coordinates":[-73.09,3.92]},"properties":{"id":"c2:COL","pais_iso3":"COL","pais":"Colombia","n":12,"familias":[["DCRat",6],["AsyncRAT",3],["Remcos",2],["Havoc",1]],"n_familias":4}},{"type":"Feature","geometry":{"type":"Point","coordinates":[-80.13,8.52]},"properties":{"id":"c2:PAN","pais_iso3":"PAN","pais":"Panamá","n":12,"familias":[["DCRat",7],["AsyncRAT",5]],"n_familias":2}},{"type":"Feature","geometry":{"type":"Point","coordinates":[-102.5,23.94]},"properties":{"id":"c2:MEX","pais_iso3":"MEX","pais":"México","n":11,"familias":[["Unknown malware",7],["DanaBot",3],["AsyncRAT",1]],"n_familias":3}},{"type":"Feature","geometry":{"type":"Point","coordinates":[114.74,3.62]},"properties":{"id":"c2:MYS","pais_iso3":"MYS","pais":"Malasia","n":10,"familias":[["PureRAT",3],["AdaptixC2",2],["VShell",1],["ValleyRAT",1],["Havoc",1],["AsyncRAT",1],["Cobalt Strike",1]],"n_familias":7}},{"type":"Feature","geometry":{"type":"Point","coordinates":[114.01,-0.19]},"properties":{"id":"c2:IDN","pais_iso3":"IDN","pais":"Indonesia","n":10,"familias":[["Jackskid",2],["VShell",2],["Unknown malware",2],["Remus",1],["Chaos",1],["AdaptixC2",1],["Deimos",1]],"n_familias":7}},{"type":"Feature","geometry":{"type":"Point","coordinates":[-3.57,40.4]},"properties":{"id":"c2:ESP","pais_iso3":"ESP","pais":"España","n":9,"familias":[["Havoc",2],["DanaBot",2],["Unknown malware",2],["PureRAT",1],["AdaptixC2",1],["BianLian",1]],"n_familias":6}},{"type":"Feature","geometry":{"type":"Point","coordinates":[121.42,15.97]},"properties":{"id":"c2:PHL","pais_iso3":"PHL","pais":"Filipinas","n":8,"familias":[["DanaBot",6],["VShell",1],["Unknown malware",1]],"n_familias":3}},{"type":"Feature","geometry":{"type":"Point","coordinates":[24.91,56.85]},"properties":{"id":"c2:LVA","pais_iso3":"LVA","pais":"Letonia","n":8,"familias":[["Jackskid",4],["AsyncRAT",1],["Evilginx",1],["HypeAgent",1],["Unknown malware",1]],"n_familias":5}},{"type":"Feature","geometry":{"type":"Point","coordinates":[23.88,55.33]},"properties":{"id":"c2:LTU","pais_iso3":"LTU","pais":"Lituania","n":8,"familias":[["Remcos",4],["Unknown malware",1],["Kimwolf",1],["PureRAT",1],["Cobalt Strike",1]],"n_familias":5}},{"type":"Feature","geometry":{"type":"Point","coordinates":[54.3,23.9]},"properties":{"id":"c2:ARE","pais_iso3":"ARE","pais":"Emiratos Árabes Unidos","n":7,"familias":[["AsyncRAT",2],["Cobalt Strike",2],["Unknown malware",1],["DCRat",1],["AdaptixC2",1]],"n_familias":5}},{"type":"Feature","geometry":{"type":"Point","coordinates":[134.35,-25.57]},"properties":{"id":"c2:AUS","pais_iso3":"AUS","pais":"Australia","n":7,"familias":[["Cobalt Strike",3],["AsyncRAT",1],["AdaptixC2",1],["Unknown malware",1],["PoshC2",1]],"n_familias":5}},{"type":"Feature","geometry":{"type":"Point","coordinates":[12.17,43.53]},"properties":{"id":"c2:ITA","pais_iso3":"ITA","pais":"Italia","n":7,"familias":[["Brute Ratel C4",2],["Jackskid",1],["Chaos",1],["PureRAT",1],["AsyncRAT",1],["AdaptixC2",1]],"n_familias":6}},{"type":"Feature","geometry":{"type":"Point","coordinates":[101.01,15.14]},"properties":{"id":"c2:THA","pais_iso3":"THA","pais":"Tailandia","n":6,"familias":[["AsyncRAT",2],["Unknown malware",2],["Jackskid",1],["AdaptixC2",1]],"n_familias":4}},{"type":"Feature","geometry":{"type":"Point","coordinates":[-8.46,29.84]},"properties":{"id":"c2:MAR","pais_iso3":"MAR","pais":"Marruecos","n":6,"familias":[["AsyncRAT",6]],"n_familias":1}},{"type":"Feature","geometry":{"type":"Point","coordinates":[6.08,49.77]},"properties":{"id":"c2:LUX","pais_iso3":"LUX","pais":"Luxemburgo","n":6,"familias":[["DCRat",2],["AsyncRAT",1],["Remcos",1],["PureRAT",1],["HypeAgent",1]],"n_familias":5}},{"type":"Feature","geometry":{"type":"Point","coordinates":[44.54,24.12]},"properties":{"id":"c2:SAU","pais_iso3":"SAU","pais":"Arabia Saudita","n":5,"familias":[["Havoc",4],["Unknown malware",1]],"n_familias":2}},{"type":"Feature","geometry":{"type":"Point","coordinates":[-65.16,-35.19]},"properties":{"id":"c2:ARG","pais_iso3":"ARG","pais":"Argentina","n":5,"familias":[["Remcos",2],["Jackskid",1],["DCRat",1],["AdaptixC2",1]],"n_familias":4}},{"type":"Feature","geometry":{"type":"Point","coordinates":[15.3,49.73]},"properties":{"id":"c2:CZE","pais_iso3":"CZE","pais":"República Checa","n":5,"familias":[["Remcos",2],["Unknown malware",1],["AdaptixC2",1],["Sliver",1]],"n_familias":4}},{"type":"Feature","geometry":{"type":"Point","coordinates":[29.86,26.49]},"properties":{"id":"c2:EGY","pais_iso3":"EGY","pais":"Egipto","n":4,"familias":[["AsyncRAT",2],["DCRat",2]],"n_familias":2}},{"type":"Feature","geometry":{"type":"Point","coordinates":[67.29,48.16]},"properties":{"id":"c2:KAZ","pais_iso3":"KAZ","pais":"Kazajistán","n":4,"familias":[["Unknown malware",2],["AdaptixC2",1],["Evilginx",1]],"n_familias":3}},{"type":"Feature","geometry":{"type":"Point","coordinates":[35.01,31.47]},"properties":{"id":"c2:ISR","pais_iso3":"ISR","pais":"Israel","n":4,"familias":[["AsyncRAT",3],["Unknown malware",1]],"n_familias":2}},{"type":"Feature","geometry":{"type":"Point","coordinates":[-18.57,64.99]},"properties":{"id":"c2:ISL","pais_iso3":"ISL","pais":"Islandia","n":4,"familias":[["Unknown malware",4]],"n_familias":1}},{"type":"Feature","geometry":{"type":"Point","coordinates":[16.43,45.16]},"properties":{"id":"c2:HRV","pais_iso3":"HRV","pais":"Croacia","n":4,"familias":[["DanaBot",4]],"n_familias":1}},{"type":"Feature","geometry":{"type":"Point","coordinates":[22.56,39.49]},"properties":{"id":"c2:GRC","pais_iso3":"GRC","pais":"Grecia","n":3,"familias":[["AsyncRAT",2],["Sliver",1]],"n_familias":2}},{"type":"Feature","geometry":{"type":"Point","coordinates":[90.22,23.89]},"properties":{"id":"c2:BGD","pais_iso3":"BGD","pais":"Bangladesh","n":3,"familias":[["PureRAT",2],["AsyncRAT",1]],"n_familias":2}},{"type":"Feature","geometry":{"type":"Point","coordinates":[4.64,50.64]},"properties":{"id":"c2:BEL","pais_iso3":"BEL","pais":"Bélgica","n":3,"familias":[["Unknown malware",2],["PureRAT",1]],"n_familias":2}},{"type":"Feature","geometry":{"type":"Point","coordinates":[25.16,-29.01]},"properties":{"id":"c2:ZAF","pais_iso3":"ZAF","pais":"Sudáfrica","n":3,"familias":[["Mirai",1],["Cobalt Strike",1],["AdaptixC2",1]],"n_familias":3}},{"type":"Feature","geometry":{"type":"Point","coordinates":[14.12,47.59]},"properties":{"id":"c2:AUT","pais_iso3":"AUT","pais":"Austria","n":3,"familias":[["Eye Pyramid",3]],"n_familias":1}},{"type":"Feature","geometry":{"type":"Point","coordinates":[29.85,-19]},"properties":{"id":"c2:ZWE","pais_iso3":"ZWE","pais":"Zimbabue","n":2,"familias":[["XWorm",1],["PureRAT",1]],"n_familias":2}},{"type":"Feature","geometry":{"type":"Point","coordinates":[25.81,58.68]},"properties":{"id":"c2:EST","pais_iso3":"EST","pais":"Estonia","n":2,"familias":[["AdaptixC2",1],["Unknown malware",1]],"n_familias":2}},{"type":"Feature","geometry":{"type":"Point","coordinates":[-74.38,-9.15]},"properties":{"id":"c2:PER","pais_iso3":"PER","pais":"Perú","n":2,"familias":[["DanaBot",2]],"n_familias":1}},{"type":"Feature","geometry":{"type":"Point","coordinates":[56.08,20.58]},"properties":{"id":"c2:OMN","pais_iso3":"OMN","pais":"Omán","n":2,"familias":[["AsyncRAT",2]],"n_familias":1}},{"type":"Feature","geometry":{"type":"Point","coordinates":[-7.99,39.66]},"properties":{"id":"c2:PRT","pais_iso3":"PRT","pais":"Portugal","n":2,"familias":[["AsyncRAT",1],["AdaptixC2",1]],"n_familias":2}},{"type":"Feature","geometry":{"type":"Point","coordinates":[63.14,41.75]},"properties":{"id":"c2:UZB","pais_iso3":"UZB","pais":"Uzbekistán","n":2,"familias":[["AdaptixC2",2]],"n_familias":1}},{"type":"Feature","geometry":{"type":"Point","coordinates":[-64.68,-16.71]},"properties":{"id":"c2:BOL","pais_iso3":"BOL","pais":"Bolivia","n":1,"familias":[["Cobalt Strike",1]],"n_familias":1}},{"type":"Feature","geometry":{"type":"Point","coordinates":[9.55,34.13]},"properties":{"id":"c2:TUN","pais_iso3":"TUN","pais":"Túnez","n":1,"familias":[["Unknown malware",1]],"n_familias":1}},{"type":"Feature","geometry":{"type":"Point","coordinates":[19.48,48.71]},"properties":{"id":"c2:SVK","pais_iso3":"SVK","pais":"Eslovaquia","n":1,"familias":[["AdaptixC2",1]],"n_familias":1}},{"type":"Feature","geometry":{"type":"Point","coordinates":[19.4,47.16]},"properties":{"id":"c2:HUN","pais_iso3":"HUN","pais":"Hungría","n":1,"familias":[["PureRAT",1]],"n_familias":1}},{"type":"Feature","geometry":{"type":"Point","coordinates":[2.62,28.16]},"properties":{"id":"c2:DZA","pais_iso3":"DZA","pais":"Argelia","n":1,"familias":[["AsyncRAT",1]],"n_familias":1}},{"type":"Feature","geometry":{"type":"Point","coordinates":[47.67,40.34]},"properties":{"id":"c2:AZE","pais_iso3":"AZE","pais":"Azerbaiyán","n":1,"familias":[["Evilginx",1]],"n_familias":1}},{"type":"Feature","geometry":{"type":"Point","coordinates":[39.61,8.62]},"properties":{"id":"c2:ETH","pais_iso3":"ETH","pais":"Etiopía","n":1,"familias":[["AdaptixC2",1]],"n_familias":1}},{"type":"Feature","geometry":{"type":"Point","coordinates":[28.03,53.53]},"properties":{"id":"c2:BLR","pais_iso3":"BLR","pais":"Bielorrusia","n":1,"familias":[["Evilginx",1]],"n_familias":1}},{"type":"Feature","geometry":{"type":"Point","coordinates":[35.28,31.97]},"properties":{"id":"c2:PSE","pais_iso3":"PSE","pais":"Palestina","n":1,"familias":[["Cobalt Strike",1]],"n_familias":1}},{"type":"Feature","geometry":{"type":"Point","coordinates":[-88.73,17.19]},"properties":{"id":"c2:BLZ","pais_iso3":"BLZ","pais":"Belice","n":1,"familias":[["AdaptixC2",1]],"n_familias":1}},{"type":"Feature","geometry":{"type":"Point","coordinates":[-66.19,7.12]},"properties":{"id":"c2:VEN","pais_iso3":"VEN","pais":"Venezuela","n":1,"familias":[["Cobalt Strike",1]],"n_familias":1}},{"type":"Feature","geometry":{"type":"Point","coordinates":[54.27,32.57]},"properties":{"id":"c2:IRN","pais_iso3":"IRN","pais":"Irán","n":1,"familias":[["Cobalt Strike",1]],"n_familias":1}},{"type":"Feature","geometry":{"type":"Point","coordinates":[69.33,29.95]},"properties":{"id":"c2:PAK","pais_iso3":"PAK","pais":"Pakistán","n":1,"familias":[["Havoc",1]],"n_familias":1}},{"type":"Feature","geometry":{"type":"Point","coordinates":[1.7,42.5]},"properties":{"id":"c2:AND","pais_iso3":"AND","pais":"Andorra","n":1,"familias":[["Cobalt Strike",1]],"n_familias":1}}]}