{"type":"FeatureCollection","generado_utc":"2026-10-11T00:31:09Z","ventana_h":48,"fuente":"IODA (Georgia Tech), datos derivados","features":[{"type":"Feature","geometry":{"type":"Point","coordinates":[9.55,34.13]},"properties":{"id":"ioda:TN","pais_iso3":"TUN","pais":"Túnez","en_curso":true,"senales":["Sondeo activo (ping a redes /24)"],"n_senales":1,"inicio_utc":"2026-09-29T23:20:00Z","fin_utc":null,"horas":265.2,"eventos":[{"senal":"Sondeo activo (ping a redes /24)","inicio_utc":"2026-09-29T23:20:00Z","horas":265.2}],"fecha_utc":"2026-09-29T23:20:00Z","url":"https://ioda.inetintel.cc.gatech.edu/country/TN?from=1791505869&until=1791678669"}},{"type":"Feature","geometry":{"type":"Point","coordinates":[-175.16,-21.17]},"properties":{"id":"ioda:TO","pais_iso3":"TON","pais":"Tonga","en_curso":true,"senales":["Rutas BGP anunciadas"],"n_senales":1,"inicio_utc":"2026-10-07T11:00:00Z","fin_utc":null,"horas":85.5,"eventos":[{"senal":"Rutas BGP anunciadas","inicio_utc":"2026-10-07T11:00:00Z","horas":85.5}],"fecha_utc":"2026-10-07T11:00:00Z","url":"https://ioda.inetintel.cc.gatech.edu/country/TO?from=1791505869&until=1791678669"}},{"type":"Feature","geometry":{"type":"Point","coordinates":[144.24,-6.61]},"properties":{"id":"ioda:PG","pais_iso3":"PNG","pais":"Papua Nueva Guinea","en_curso":true,"senales":["Rutas BGP anunciadas"],"n_senales":1,"inicio_utc":"2026-10-07T22:55:00Z","fin_utc":null,"horas":73.6,"eventos":[{"senal":"Rutas BGP anunciadas","inicio_utc":"2026-10-07T22:55:00Z","horas":73.6}],"fecha_utc":"2026-10-07T22:55:00Z","url":"https://ioda.inetintel.cc.gatech.edu/country/PG?from=1791505869&until=1791678669"}},{"type":"Feature","geometry":{"type":"Point","coordinates":[44.92,40.3]},"properties":{"id":"ioda:AM","pais_iso3":"ARM","pais":"Armenia","en_curso":true,"senales":["Rutas BGP anunciadas"],"n_senales":1,"inicio_utc":"2026-10-08T16:20:00Z","fin_utc":null,"horas":56.2,"eventos":[{"senal":"Rutas BGP anunciadas","inicio_utc":"2026-10-08T16:20:00Z","horas":56.2}],"fecha_utc":"2026-10-08T16:20:00Z","url":"https://ioda.inetintel.cc.gatech.edu/country/AM?from=1791505869&until=1791678669"}},{"type":"Feature","geometry":{"type":"Point","coordinates":[6.6,0.25]},"properties":{"id":"ioda:ST","pais_iso3":"STP","pais":"Santo Tomé y Príncipe","en_curso":false,"senales":["Tráfico hacia Google"],"n_senales":1,"inicio_utc":"2026-10-08T20:00:00Z","fin_utc":"2026-10-10T03:30:00Z","horas":31.5,"eventos":[{"senal":"Tráfico hacia Google","inicio_utc":"2026-10-08T20:00:00Z","horas":7.5},{"senal":"Tráfico hacia Google","inicio_utc":"2026-10-09T22:30:00Z","horas":5.0}],"fecha_utc":"2026-10-08T20:00:00Z","url":"https://ioda.inetintel.cc.gatech.edu/country/ST?from=1791505869&until=1791678669"}},{"type":"Feature","geometry":{"type":"Point","coordinates":[30.25,7.31]},"properties":{"id":"ioda:SS","pais_iso3":"SSD","pais":"Sudán del Sur","en_curso":true,"senales":["Rutas BGP anunciadas"],"n_senales":1,"inicio_utc":"2026-10-08T22:55:00Z","fin_utc":null,"horas":49.6,"eventos":[{"senal":"Rutas BGP anunciadas","inicio_utc":"2026-10-08T22:55:00Z","horas":2.8},{"senal":"Rutas BGP anunciadas","inicio_utc":"2026-10-09T02:00:00Z","horas":1.8},{"senal":"Rutas BGP anunciadas","inicio_utc":"2026-10-09T23:00:00Z","horas":5.8},{"senal":"Rutas BGP anunciadas","inicio_utc":"2026-10-10T06:30:00Z","horas":0.4},{"senal":"Rutas BGP anunciadas","inicio_utc":"2026-10-10T22:15:00Z","horas":1.0},{"senal":"Rutas BGP anunciadas","inicio_utc":"2026-10-10T23:25:00Z","horas":1.1}],"fecha_utc":"2026-10-08T22:55:00Z","url":"https://ioda.inetintel.cc.gatech.edu/country/SS?from=1791505869&until=1791678669"}},{"type":"Feature","geometry":{"type":"Point","coordinates":[167.94,-29.02]},"properties":{"id":"ioda:NF","pais_iso3":"NFK","pais":"Isla Norfolk","en_curso":true,"senales":["Tráfico hacia Google"],"n_senales":1,"inicio_utc":"2026-10-08T23:00:00Z","fin_utc":null,"horas":49.5,"eventos":[{"senal":"Tráfico hacia Google","inicio_utc":"2026-10-08T23:00:00Z","horas":4.5},{"senal":"Tráfico hacia Google","inicio_utc":"2026-10-09T13:30:00Z","horas":11.5},{"senal":"Tráfico hacia Google","inicio_utc":"2026-10-10T11:30:00Z","horas":13.0}],"fecha_utc":"2026-10-08T23:00:00Z","url":"https://ioda.inetintel.cc.gatech.edu/country/NF?from=1791505869&until=1791678669"}},{"type":"Feature","geometry":{"type":"Point","coordinates":[9.39,17.42]},"properties":{"id":"ioda:NE","pais_iso3":"NER","pais":"Níger","en_curso":false,"senales":["Rutas BGP anunciadas"],"n_senales":1,"inicio_utc":"2026-10-09T00:05:00Z","fin_utc":"2026-10-09T06:30:00Z","horas":6.4,"eventos":[{"senal":"Rutas BGP anunciadas","inicio_utc":"2026-10-09T00:05:00Z","horas":3.0},{"senal":"Rutas BGP anunciadas","inicio_utc":"2026-10-09T05:50:00Z","horas":0.7}],"fecha_utc":"2026-10-09T00:05:00Z","url":"https://ioda.inetintel.cc.gatech.edu/country/NE?from=1791505869&until=1791678669"}},{"type":"Feature","geometry":{"type":"Point","coordinates":[-72.66,18.92]},"properties":{"id":"ioda:HT","pais_iso3":"HTI","pais":"Haití","en_curso":false,"senales":["Rutas BGP anunciadas","Sondeo activo (ping a redes /24)","Tráfico hacia Google"],"n_senales":3,"inicio_utc":"2026-10-09T00:30:00Z","fin_utc":"2026-10-10T00:20:00Z","horas":23.8,"eventos":[{"senal":"Tráfico hacia Google","inicio_utc":"2026-10-09T00:30:00Z","horas":5.0},{"senal":"Sondeo activo (ping a redes /24)","inicio_utc":"2026-10-09T23:50:00Z","horas":0.5},{"senal":"Rutas BGP anunciadas","inicio_utc":"2026-10-09T23:55:00Z","horas":0.2}],"fecha_utc":"2026-10-09T00:30:00Z","url":"https://ioda.inetintel.cc.gatech.edu/country/HT?from=1791505869&until=1791678669"}},{"type":"Feature","geometry":{"type":"Point","coordinates":[29.85,-19]},"properties":{"id":"ioda:ZW","pais_iso3":"ZWE","pais":"Zimbabue","en_curso":false,"senales":["Rutas BGP anunciadas"],"n_senales":1,"inicio_utc":"2026-10-09T00:50:00Z","fin_utc":"2026-10-09T05:00:00Z","horas":4.2,"eventos":[{"senal":"Rutas BGP anunciadas","inicio_utc":"2026-10-09T00:50:00Z","horas":1.8},{"senal":"Rutas BGP anunciadas","inicio_utc":"2026-10-09T03:00:00Z","horas":0.3},{"senal":"Rutas BGP anunciadas","inicio_utc":"2026-10-09T04:45:00Z","horas":0.2}],"fecha_utc":"2026-10-09T00:50:00Z","url":"https://ioda.inetintel.cc.gatech.edu/country/ZW?from=1791505869&until=1791678669"}},{"type":"Feature","geometry":{"type":"Point","coordinates":[18.64,15.33]},"properties":{"id":"ioda:TD","pais_iso3":"TCD","pais":"Chad","en_curso":false,"senales":["Rutas BGP anunciadas"],"n_senales":1,"inicio_utc":"2026-10-09T01:20:00Z","fin_utc":"2026-10-09T01:55:00Z","horas":0.6,"eventos":[{"senal":"Rutas BGP anunciadas","inicio_utc":"2026-10-09T01:20:00Z","horas":0.6}],"fecha_utc":"2026-10-09T01:20:00Z","url":"https://ioda.inetintel.cc.gatech.edu/country/TD?from=1791505869&until=1791678669"}},{"type":"Feature","geometry":{"type":"Point","coordinates":[29.88,-3.36]},"properties":{"id":"ioda:BI","pais_iso3":"BDI","pais":"Burundi","en_curso":false,"senales":["Rutas BGP anunciadas","Sondeo activo (ping a redes /24)"],"n_senales":2,"inicio_utc":"2026-10-09T01:45:00Z","fin_utc":"2026-10-10T19:30:00Z","horas":41.8,"eventos":[{"senal":"Rutas BGP anunciadas","inicio_utc":"2026-10-09T01:45:00Z","horas":1.8},{"senal":"Sondeo activo (ping a redes /24)","inicio_utc":"2026-10-10T18:10:00Z","horas":1.3}],"fecha_utc":"2026-10-09T01:45:00Z","url":"https://ioda.inetintel.cc.gatech.edu/country/BI?from=1791505869&until=1791678669"}},{"type":"Feature","geometry":{"type":"Point","coordinates":[23.64,-2.88]},"properties":{"id":"ioda:CD","pais_iso3":"COD","pais":"Congo (República Democrática del)","en_curso":false,"senales":["Rutas BGP anunciadas"],"n_senales":1,"inicio_utc":"2026-10-09T01:50:00Z","fin_utc":"2026-10-10T03:05:00Z","horas":25.2,"eventos":[{"senal":"Rutas BGP anunciadas","inicio_utc":"2026-10-09T01:50:00Z","horas":2.2},{"senal":"Rutas BGP anunciadas","inicio_utc":"2026-10-10T02:35:00Z","horas":0.5}],"fecha_utc":"2026-10-09T01:50:00Z","url":"https://ioda.inetintel.cc.gatech.edu/country/CD?from=1791505869&until=1791678669"}},{"type":"Feature","geometry":{"type":"Point","coordinates":[15.23,-0.84]},"properties":{"id":"ioda:CG","pais_iso3":"COG","pais":"Congo","en_curso":false,"senales":["Rutas BGP anunciadas"],"n_senales":1,"inicio_utc":"2026-10-09T01:55:00Z","fin_utc":"2026-10-10T09:50:00Z","horas":31.9,"eventos":[{"senal":"Rutas BGP anunciadas","inicio_utc":"2026-10-09T01:55:00Z","horas":8.3},{"senal":"Rutas BGP anunciadas","inicio_utc":"2026-10-10T06:15:00Z","horas":3.6}],"fecha_utc":"2026-10-09T01:55:00Z","url":"https://ioda.inetintel.cc.gatech.edu/country/CG?from=1791505869&until=1791678669"}},{"type":"Feature","geometry":{"type":"Point","coordinates":[-86.62,14.82]},"properties":{"id":"ioda:HN","pais_iso3":"HND","pais":"Honduras","en_curso":false,"senales":["Tráfico hacia Google"],"n_senales":1,"inicio_utc":"2026-10-09T02:00:00Z","fin_utc":"2026-10-09T05:00:00Z","horas":3.0,"eventos":[{"senal":"Tráfico hacia Google","inicio_utc":"2026-10-09T02:00:00Z","horas":3.0}],"fecha_utc":"2026-10-09T02:00:00Z","url":"https://ioda.inetintel.cc.gatech.edu/country/HN?from=1791505869&until=1791678669"}},{"type":"Feature","geometry":{"type":"Point","coordinates":[-90.36,15.69]},"properties":{"id":"ioda:GT","pais_iso3":"GTM","pais":"Guatemala","en_curso":false,"senales":["Rutas BGP anunciadas"],"n_senales":1,"inicio_utc":"2026-10-09T09:35:00Z","fin_utc":"2026-10-09T09:55:00Z","horas":0.3,"eventos":[{"senal":"Rutas BGP anunciadas","inicio_utc":"2026-10-09T09:35:00Z","horas":0.3}],"fecha_utc":"2026-10-09T09:35:00Z","url":"https://ioda.inetintel.cc.gatech.edu/country/GT?from=1791505869&until=1791678669"}},{"type":"Feature","geometry":{"type":"Point","coordinates":[37.79,0.6]},"properties":{"id":"ioda:KE","pais_iso3":"KEN","pais":"Kenia","en_curso":false,"senales":["Rutas BGP anunciadas"],"n_senales":1,"inicio_utc":"2026-10-09T09:50:00Z","fin_utc":"2026-10-09T10:05:00Z","horas":0.2,"eventos":[{"senal":"Rutas BGP anunciadas","inicio_utc":"2026-10-09T09:50:00Z","horas":0.2}],"fecha_utc":"2026-10-09T09:50:00Z","url":"https://ioda.inetintel.cc.gatech.edu/country/KE?from=1791505869&until=1791678669"}},{"type":"Feature","geometry":{"type":"Point","coordinates":[-58.4,-23.23]},"properties":{"id":"ioda:PY","pais_iso3":"PRY","pais":"Paraguay","en_curso":false,"senales":["Rutas BGP anunciadas"],"n_senales":1,"inicio_utc":"2026-10-09T10:15:00Z","fin_utc":"2026-10-09T12:25:00Z","horas":2.2,"eventos":[{"senal":"Rutas BGP anunciadas","inicio_utc":"2026-10-09T10:15:00Z","horas":2.2}],"fecha_utc":"2026-10-09T10:15:00Z","url":"https://ioda.inetintel.cc.gatech.edu/country/PY?from=1791505869&until=1791678669"}},{"type":"Feature","geometry":{"type":"Point","coordinates":[39.61,8.62]},"properties":{"id":"ioda:ET","pais_iso3":"ETH","pais":"Etiopía","en_curso":false,"senales":["Rutas BGP anunciadas"],"n_senales":1,"inicio_utc":"2026-10-09T15:25:00Z","fin_utc":"2026-10-09T15:40:00Z","horas":0.2,"eventos":[{"senal":"Rutas BGP anunciadas","inicio_utc":"2026-10-09T15:25:00Z","horas":0.2}],"fecha_utc":"2026-10-09T15:25:00Z","url":"https://ioda.inetintel.cc.gatech.edu/country/ET?from=1791505869&until=1791678669"}},{"type":"Feature","geometry":{"type":"Point","coordinates":[-66.19,7.12]},"properties":{"id":"ioda:VE","pais_iso3":"VEN","pais":"Venezuela","en_curso":false,"senales":["Rutas BGP anunciadas"],"n_senales":1,"inicio_utc":"2026-10-09T23:50:00Z","fin_utc":"2026-10-10T00:10:00Z","horas":0.3,"eventos":[{"senal":"Rutas BGP anunciadas","inicio_utc":"2026-10-09T23:50:00Z","horas":0.3}],"fecha_utc":"2026-10-09T23:50:00Z","url":"https://ioda.inetintel.cc.gatech.edu/country/VE?from=1791505869&until=1791678669"}},{"type":"Feature","geometry":{"type":"Point","coordinates":[23.88,55.33]},"properties":{"id":"ioda:LT","pais_iso3":"LTU","pais":"Lituania","en_curso":true,"senales":["Tráfico hacia Google"],"n_senales":1,"inicio_utc":"2026-10-10T02:00:00Z","fin_utc":null,"horas":22.5,"eventos":[{"senal":"Tráfico hacia Google","inicio_utc":"2026-10-10T02:00:00Z","horas":22.5}],"fecha_utc":"2026-10-10T02:00:00Z","url":"https://ioda.inetintel.cc.gatech.edu/country/LT?from=1791505869&until=1791678669"}},{"type":"Feature","geometry":{"type":"Point","coordinates":[-64.68,-16.71]},"properties":{"id":"ioda:BO","pais_iso3":"BOL","pais":"Bolivia","en_curso":false,"senales":["Rutas BGP anunciadas"],"n_senales":1,"inicio_utc":"2026-10-10T02:35:00Z","fin_utc":"2026-10-10T02:50:00Z","horas":0.2,"eventos":[{"senal":"Rutas BGP anunciadas","inicio_utc":"2026-10-10T02:35:00Z","horas":0.2}],"fecha_utc":"2026-10-10T02:35:00Z","url":"https://ioda.inetintel.cc.gatech.edu/country/BO?from=1791505869&until=1791678669"}},{"type":"Feature","geometry":{"type":"Point","coordinates":[43.75,33.03]},"properties":{"id":"ioda:IQ","pais_iso3":"IRQ","pais":"Iraq","en_curso":false,"senales":["Rutas BGP anunciadas","Sondeo activo (ping a redes /24)"],"n_senales":2,"inicio_utc":"2026-10-10T03:30:00Z","fin_utc":"2026-10-10T04:10:00Z","horas":0.7,"eventos":[{"senal":"Sondeo activo (ping a redes /24)","inicio_utc":"2026-10-10T03:30:00Z","horas":0.7},{"senal":"Rutas BGP anunciadas","inicio_utc":"2026-10-10T03:30:00Z","horas":0.6}],"fecha_utc":"2026-10-10T03:30:00Z","url":"https://ioda.inetintel.cc.gatech.edu/country/IQ?from=1791505869&until=1791678669"}},{"type":"Feature","geometry":{"type":"Point","coordinates":[125.93,-8.81]},"properties":{"id":"ioda:TL","pais_iso3":"TLS","pais":"Timor-Leste","en_curso":false,"senales":["Rutas BGP anunciadas"],"n_senales":1,"inicio_utc":"2026-10-10T04:35:00Z","fin_utc":"2026-10-10T05:55:00Z","horas":1.3,"eventos":[{"senal":"Rutas BGP anunciadas","inicio_utc":"2026-10-10T04:35:00Z","horas":1.3}],"fecha_utc":"2026-10-10T04:35:00Z","url":"https://ioda.inetintel.cc.gatech.edu/country/TL?from=1791505869&until=1791678669"}},{"type":"Feature","geometry":{"type":"Point","coordinates":[145.71,18.76]},"properties":{"id":"ioda:MP","pais_iso3":"MNP","pais":"Islas Marianas del Norte","en_curso":true,"senales":["Tráfico hacia Google"],"n_senales":1,"inicio_utc":"2026-10-10T07:00:00Z","fin_utc":null,"horas":17.5,"eventos":[{"senal":"Tráfico hacia Google","inicio_utc":"2026-10-10T07:00:00Z","horas":17.5}],"fecha_utc":"2026-10-10T07:00:00Z","url":"https://ioda.inetintel.cc.gatech.edu/country/MP?from=1791505869&until=1791678669"}}]}