{"type":"FeatureCollection","generado_utc":"2026-10-10T20:31:14Z","ventana_dias":90,"total":154,"sin_pais":[{"id":"ICSA-26-219-01","sede":"Global"}],"features":[{"type":"Feature","geometry":{"type":"Point","coordinates":[-99.14,39.53]},"properties":{"id":"ics:USA","pais_iso3":"USA","pais":"Estados Unidos","n":53,"cvss_max":10.0,"criticos":9,"explotados":0,"medicos":3,"fabricantes":[["Rockwell Automation",22],["CISA",3],["Toptech Systems",2],["Tycon Systems",2],["NASA",2],["Grid Protection Alliance",1],["Armatura",1],["Lantronix",1]],"sectores":[["Critical Manufacturing",33],["Energy",16],["Transportation Systems",13],["Information Technology",9],["Water and Wastewater",9],["Chemical",6]],"fecha_utc":"2026-10-08T00:00:00Z","avisos":[{"id":"ICSA-26-281-02","titulo":"Grid Protection Alliance openPDC and openHistorian","fecha":"2026-10-08","cvss":9.8,"explotado":false,"url":"https://www.cisa.gov/news-events/ics-advisories/icsa-26-281-02"},{"id":"ICSA-26-280-01","titulo":"CISA Malcolm","fecha":"2026-10-07","cvss":8.1,"explotado":false,"url":"https://www.cisa.gov/news-events/ics-advisories/icsa-26-280-01"},{"id":"ICSA-26-274-01","titulo":"Armatura LLC Armatura One","fecha":"2026-10-01","cvss":9.8,"explotado":false,"url":"https://www.cisa.gov/news-events/ics-advisories/icsa-26-274-01"},{"id":"ICSA-26-272-01","titulo":"Lantronix G520 Series Cellular Gateway","fecha":"2026-09-29","cvss":7.5,"explotado":false,"url":"https://www.cisa.gov/news-events/ics-advisories/icsa-26-272-01"},{"id":"ICSA-26-272-02","titulo":"Toptech TMS7 and TopHAT","fecha":"2026-09-29","cvss":10.0,"explotado":false,"url":"https://www.cisa.gov/news-events/ics-advisories/icsa-26-272-02"},{"id":"ICSA-26-272-04","titulo":"Baicells Nova 430H","fecha":"2026-09-29","cvss":7.4,"explotado":false,"url":"https://www.cisa.gov/news-events/ics-advisories/icsa-26-272-04"},{"id":"ICSA-26-265-09","titulo":"OpenPLC Runtime v3","fecha":"2026-09-22","cvss":6.1,"explotado":false,"url":"https://www.cisa.gov/news-events/ics-advisories/icsa-26-265-09"},{"id":"ICSA-26-260-01","titulo":"Bransys ELD","fecha":"2026-09-17","cvss":7.5,"explotado":false,"url":"https://www.cisa.gov/news-events/ics-advisories/icsa-26-260-01"},{"id":"ICSA-26-258-01","titulo":"Digital Watchdog VMAX DVR and NVR Product Lineups","fecha":"2026-09-15","cvss":9.6,"explotado":false,"url":"https://www.cisa.gov/news-events/ics-advisories/icsa-26-258-01"},{"id":"ICSA-26-254-01","titulo":"CISA Malcolm","fecha":"2026-09-11","cvss":8.8,"explotado":false,"url":"https://www.cisa.gov/news-events/ics-advisories/icsa-26-254-01"},{"id":"ICSMA-26-253-01","titulo":"NextGen Healthcare Mirth Connect","fecha":"2026-09-10","cvss":8.3,"explotado":false,"url":"https://www.cisa.gov/news-events/ics-medical-advisories/icsma-26-253-01"},{"id":"ICSA-26-246-01","titulo":"OPCFoundation OPC UA LocalDiscoveryServer (LDS)","fecha":"2026-09-03","cvss":4.6,"explotado":false,"url":"https://www.cisa.gov/news-events/ics-advisories/icsa-26-246-01"},{"id":"ICSA-26-246-03","titulo":"Rockwell Automation ControlFLASH","fecha":"2026-09-03","cvss":7.3,"explotado":false,"url":"https://www.cisa.gov/news-events/ics-advisories/icsa-26-246-03"},{"id":"ICSA-26-246-04","titulo":"Rockwell Automation ArmorStart LT","fecha":"2026-09-03","cvss":7.5,"explotado":false,"url":"https://www.cisa.gov/news-events/ics-advisories/icsa-26-246-04"},{"id":"ICSA-26-246-05","titulo":"Rockwell Automation 1756-ENBT Module","fecha":"2026-09-03","cvss":7.5,"explotado":false,"url":"https://www.cisa.gov/news-events/ics-advisories/icsa-26-246-05"}]}},{"type":"Feature","geometry":{"type":"Point","coordinates":[10.37,51.09]},"properties":{"id":"ics:DEU","pais_iso3":"DEU","pais":"Alemania","n":34,"cvss_max":10.0,"criticos":10,"explotados":0,"medicos":0,"fabricantes":[["Siemens",29],["MZ Automation",4],["o6 Automation",1]],"sectores":[["Critical Manufacturing",27],["Energy",15],["Commercial Facilities",7],["Transportation Systems",7],["Chemical",6],["Information Technology",3]],"fecha_utc":"2026-09-16T00:00:00Z","avisos":[{"id":"ICSA-26-265-08","titulo":"Siemens WTV676 and WTV776","fecha":"2026-09-16","cvss":6.5,"explotado":false,"url":"https://www.cisa.gov/news-events/ics-advisories/icsa-26-265-08"},{"id":"ICSA-26-258-05","titulo":"Siemens Reyrolle 7SR5","fecha":"2026-09-08","cvss":9.8,"explotado":false,"url":"https://www.cisa.gov/news-events/ics-advisories/icsa-26-258-05"},{"id":"ICSA-26-258-07","titulo":"Siemens Teamcenter","fecha":"2026-09-08","cvss":6.1,"explotado":false,"url":"https://www.cisa.gov/news-events/ics-advisories/icsa-26-258-07"},{"id":"ICSA-26-265-03","titulo":"Siemens Siveillance Control","fecha":"2026-09-08","cvss":9.0,"explotado":false,"url":"https://www.cisa.gov/news-events/ics-advisories/icsa-26-265-03"},{"id":"ICSA-26-265-04","titulo":"Siemens SIPLUS and SIMATIC Products","fecha":"2026-09-08","cvss":7.8,"explotado":false,"url":"https://www.cisa.gov/news-events/ics-advisories/icsa-26-265-04"},{"id":"ICSA-26-265-05","titulo":"Siemens Desigo CC family","fecha":"2026-09-08","cvss":8.2,"explotado":false,"url":"https://www.cisa.gov/news-events/ics-advisories/icsa-26-265-05"},{"id":"ICSA-26-265-06","titulo":"Siemens Industrial Edge Management","fecha":"2026-09-08","cvss":9.1,"explotado":false,"url":"https://www.cisa.gov/news-events/ics-advisories/icsa-26-265-06"},{"id":"ICSA-26-265-07","titulo":"Siemens SIMOVE Fleetmanager and SIPLANT","fecha":"2026-09-08","cvss":8.6,"explotado":false,"url":"https://www.cisa.gov/news-events/ics-advisories/icsa-26-265-07"},{"id":"ICSA-26-258-06","titulo":"Siemens Mendix SAML","fecha":"2026-09-03","cvss":8.7,"explotado":false,"url":"https://www.cisa.gov/news-events/ics-advisories/icsa-26-258-06"},{"id":"ICSA-26-225-06","titulo":"Siemens RUGGEDCOM APE1808","fecha":"2026-08-11","cvss":6.1,"explotado":false,"url":"https://www.cisa.gov/news-events/ics-advisories/icsa-26-225-06"},{"id":"ICSA-26-225-07","titulo":"Siemens License Server (SLS)","fecha":"2026-08-11","cvss":7.5,"explotado":false,"url":"https://www.cisa.gov/news-events/ics-advisories/icsa-26-225-07"},{"id":"ICSA-26-225-08","titulo":"Siemens Desigo DXR and PXC Controllers","fecha":"2026-08-11","cvss":4.3,"explotado":false,"url":"https://www.cisa.gov/news-events/ics-advisories/ICSA-26-225-08"},{"id":"ICSA-26-225-09","titulo":"Siemens Siveillance Video","fecha":"2026-08-11","cvss":9.1,"explotado":false,"url":"https://www.cisa.gov/news-events/ics-advisories/icsa-26-225-09"},{"id":"ICSA-26-225-10","titulo":"Siemens Parasolid","fecha":"2026-08-11","cvss":7.8,"explotado":false,"url":"https://www.cisa.gov/news-events/ics-advisories/icsa-26-225-10"},{"id":"ICSA-26-225-11","titulo":"Siemens Simcenter Femap","fecha":"2026-08-11","cvss":7.8,"explotado":false,"url":"https://www.cisa.gov/news-events/ics-advisories/icsa-26-225-11"}]}},{"type":"Feature","geometry":{"type":"Point","coordinates":[8.22,46.8]},"properties":{"id":"ics:CHE","pais_iso3":"CHE","pais":"Suiza","n":13,"cvss_max":9.9,"criticos":3,"explotados":0,"medicos":0,"fabricantes":[["ABB",7],["Hitachi Energy",6]],"sectores":[["Energy",9],["Critical Manufacturing",6],["Chemical",2],["Communications",1],["Dams",1],["Healthcare and Public Health",1]],"fecha_utc":"2026-10-01T00:00:00Z","avisos":[{"id":"ICSA-26-274-03","titulo":"ABB Protection and Control IED Manager PCM600","fecha":"2026-10-01","cvss":6.4,"explotado":false,"url":"https://www.cisa.gov/news-events/ics-advisories/icsa-26-274-03"},{"id":"ICSA-26-279-03","titulo":"Hitachi Energy Asset Suite","fecha":"2026-09-29","cvss":8.1,"explotado":false,"url":"https://www.cisa.gov/news-events/ics-advisories/icsa-26-279-03"},{"id":"ICSA-26-279-04","titulo":"Hitachi Energy SOI","fecha":"2026-09-29","cvss":8.8,"explotado":false,"url":"https://www.cisa.gov/news-events/ics-advisories/icsa-26-279-04"},{"id":"ICSA-26-279-05","titulo":"Hitachi Energy REB500","fecha":"2026-09-29","cvss":6.5,"explotado":false,"url":"https://www.cisa.gov/news-events/ics-advisories/icsa-26-279-05"},{"id":"ICSA-26-279-06","titulo":"Hitachi Energy RTU500","fecha":"2026-09-29","cvss":9.8,"explotado":false,"url":"https://www.cisa.gov/news-events/ics-advisories/icsa-26-279-06"},{"id":"ICSA-26-218-01","titulo":"ABB Ability Zenon","fecha":"2026-07-30","cvss":7.8,"explotado":false,"url":"https://www.cisa.gov/news-events/ics-advisories/icsa-26-218-01"},{"id":"ICSA-26-225-04","titulo":"Hitachi Energy APM Edge Product","fecha":"2026-07-28","cvss":8.8,"explotado":false,"url":"https://www.cisa.gov/news-events/ics-advisories/icsa-26-225-04"},{"id":"ICSA-26-260-03","titulo":"Hitachi Energy FACTS Control Platform (FCP)","fecha":"2026-07-28","cvss":9.9,"explotado":false,"url":"https://www.cisa.gov/news-events/ics-advisories/icsa-26-260-03"},{"id":"ICSA-26-209-07","titulo":"ABB KNX Update Tool","fecha":"2026-07-17","cvss":6.4,"explotado":false,"url":"https://www.cisa.gov/news-events/ics-advisories/icsa-26-209-07"},{"id":"ICSA-26-195-02","titulo":"ABB Ability Edgenius","fecha":"2026-06-25","cvss":7.8,"explotado":false,"url":"https://www.cisa.gov/news-events/ics-advisories/icsa-26-195-02"},{"id":"ICSA-26-260-06","titulo":"ABB Ability Edgenius","fecha":"2026-06-25","cvss":7.8,"explotado":false,"url":"https://www.cisa.gov/news-events/ics-advisories/icsa-26-260-06"},{"id":"ICSA-26-195-01","titulo":"ABB Advant Master Online Builder","fecha":"2026-06-23","cvss":4.4,"explotado":false,"url":"https://www.cisa.gov/news-events/ics-advisories/icsa-26-195-01"},{"id":"ICSA-26-195-03","titulo":"ABB T-MAC Plus","fecha":"2026-06-03","cvss":9.9,"explotado":false,"url":"https://www.cisa.gov/news-events/ics-advisories/icsa-26-195-03"}]}},{"type":"Feature","geometry":{"type":"Point","coordinates":[103.81,36.62]},"properties":{"id":"ics:CHN","pais_iso3":"CHN","pais":"China","n":11,"cvss_max":10.0,"criticos":7,"explotados":0,"medicos":0,"fabricantes":[["CareCam",2],["Ebyte",2],["Meari",1],["Anjvision",1],["Viidure",1],["Botslab",1],["Eufy",1],["Xiiaozet",1]],"sectores":[["Commercial Facilities",4],["Information Technology",4],["Transportation Systems",2],["Critical Manufacturing",2],["Energy",2],["Water and Wastewater",1]],"fecha_utc":"2026-10-01T00:00:00Z","avisos":[{"id":"ICSA-26-274-06","titulo":"Meari IoT Cloud Platform OpenAPI Service","fecha":"2026-10-01","cvss":7.7,"explotado":false,"url":"https://www.cisa.gov/news-events/ics-advisories/icsa-26-274-06"},{"id":"ICSA-26-272-05","titulo":"Anjvision YSSD-RTMP-H5","fecha":"2026-09-29","cvss":9.8,"explotado":false,"url":"https://www.cisa.gov/news-events/ics-advisories/icsa-26-272-05"},{"id":"ICSA-26-272-07","titulo":"Viidure Dashcam Android Application","fecha":"2026-09-29","cvss":10.0,"explotado":false,"url":"https://www.cisa.gov/news-events/ics-advisories/icsa-26-272-07"},{"id":"ICSA-26-267-01","titulo":"Botslab G980H Dashcams","fecha":"2026-09-24","cvss":8.8,"explotado":false,"url":"https://www.cisa.gov/news-events/ics-advisories/icsa-26-267-01"},{"id":"ICSA-26-267-02","titulo":"Eufy Omni C20, Omni X10 Pro","fecha":"2026-09-24","cvss":9.4,"explotado":false,"url":"https://www.cisa.gov/news-events/ics-advisories/icsa-26-267-02"},{"id":"ICSA-26-258-08","titulo":"CareCam CM2507","fecha":"2026-09-15","cvss":7.5,"explotado":false,"url":"https://www.cisa.gov/news-events/ics-advisories/icsa-26-258-08"},{"id":"ICSA-26-251-01","titulo":"CareCam Pro IP Cameras","fecha":"2026-09-08","cvss":6.8,"explotado":false,"url":"https://www.cisa.gov/news-events/ics-advisories/icsa-26-251-01"},{"id":"ICSA-26-239-01","titulo":"Xiiaozet LK100W","fecha":"2026-08-27","cvss":9.8,"explotado":false,"url":"https://www.cisa.gov/news-events/ics-advisories/icsa-26-239-01"},{"id":"ICSA-26-239-05","titulo":"Ebyte NA111-M","fecha":"2026-08-27","cvss":9.8,"explotado":false,"url":"https://www.cisa.gov/news-events/ics-advisories/icsa-26-239-05"},{"id":"ICSA-26-237-06","titulo":"Ebyte NE2-D11","fecha":"2026-08-25","cvss":9.8,"explotado":false,"url":"https://www.cisa.gov/news-events/ics-advisories/icsa-26-237-06"},{"id":"ICSA-26-225-02","titulo":"Haiwell IoT Cloud HMI Gateway","fecha":"2026-08-13","cvss":10.0,"explotado":false,"url":"https://www.cisa.gov/news-events/ics-advisories/icsa-26-225-02"}]}},{"type":"Feature","geometry":{"type":"Point","coordinates":[-8.13,53.17]},"properties":{"id":"ics:IRL","pais_iso3":"IRL","pais":"Irlanda","n":10,"cvss_max":9.6,"criticos":1,"explotados":0,"medicos":0,"fabricantes":[["Johnson Controls",10]],"sectores":[["Critical Manufacturing",10],["Commercial Facilities",8],["Government Services and Facilities",8],["Transportation Systems",8],["Energy",8]],"fecha_utc":"2026-10-06T00:00:00Z","avisos":[{"id":"ICSA-26-279-01","titulo":"Johnson Controls EasyIO FG","fecha":"2026-10-06","cvss":7.7,"explotado":false,"url":"https://www.cisa.gov/news-events/ics-advisories/icsa-26-279-01"},{"id":"ICSA-26-274-04","titulo":"Johnson Controls EasyIO Neo Series EC and CW Controllers","fecha":"2026-10-01","cvss":3.5,"explotado":false,"url":"https://www.cisa.gov/news-events/ics-advisories/icsa-26-274-04"},{"id":"ICSA-26-274-05","titulo":"Johnson Controls EasyIO Neo Series EC and CW Controllers","fecha":"2026-10-01","cvss":5.4,"explotado":false,"url":"https://www.cisa.gov/news-events/ics-advisories/icsa-26-274-05"},{"id":"ICSA-26-232-01","titulo":"Johnson Controls Simplex Incident Manager","fecha":"2026-08-20","cvss":5.8,"explotado":false,"url":"https://www.cisa.gov/news-events/ics-advisories/icsa-26-232-01"},{"id":"ICSA-26-225-03","titulo":"Johnson Controls Inc. Airwall","fecha":"2026-08-13","cvss":6.8,"explotado":false,"url":"https://www.cisa.gov/news-events/ics-advisories/icsa-26-225-03"},{"id":"ICSA-26-225-14","titulo":"Johnson Controls Metasys","fecha":"2026-08-13","cvss":8.0,"explotado":false,"url":"https://www.cisa.gov/news-events/ics-advisories/icsa-26-225-14"},{"id":"ICSA-26-218-02","titulo":"Johnson Controls Inc. TL280","fecha":"2026-08-06","cvss":4.1,"explotado":false,"url":"https://www.cisa.gov/news-events/ics-advisories/icsa-26-218-02"},{"id":"ICSA-26-211-02","titulo":"Johnson Controls OpenBlue Employee","fecha":"2026-07-30","cvss":2.4,"explotado":false,"url":"https://www.cisa.gov/news-events/ics-advisories/icsa-26-211-02"},{"id":"ICSA-26-204-01","titulo":"Johnson Controls C-CURE 9000 and Victor application server (Update A)","fecha":"2026-07-23","cvss":9.6,"explotado":false,"url":"https://www.cisa.gov/news-events/ics-advisories/icsa-26-204-01"},{"id":"ICSA-26-204-02","titulo":"Johnson Controls XAAP Android","fecha":"2026-07-23","cvss":3.3,"explotado":false,"url":"https://www.cisa.gov/news-events/ics-advisories/icsa-26-204-02"}]}},{"type":"Feature","geometry":{"type":"Point","coordinates":[2.46,46.61]},"properties":{"id":"ics:FRA","pais_iso3":"FRA","pais":"Francia","n":5,"cvss_max":7.8,"criticos":0,"explotados":0,"medicos":0,"fabricantes":[["Schneider Electric",5]],"sectores":[["Critical Manufacturing",5],["Energy",4],["Commercial Facilities",4],["Information Technology",2],["Chemical",1],["Water and Wastewater Systems",1]],"fecha_utc":"2026-09-08T00:00:00Z","avisos":[{"id":"ICSA-26-258-04","titulo":"Schneider Electric SCADAPack x70 Products","fecha":"2026-09-08","cvss":6.5,"explotado":false,"url":"https://www.cisa.gov/news-events/ics-advisories/icsa-26-258-04"},{"id":"ICSA-26-260-05","titulo":"Schneider Electric NetBotz 5 750/755","fecha":"2026-08-11","cvss":6.4,"explotado":false,"url":"https://www.cisa.gov/news-events/ics-advisories/icsa-26-260-05"},{"id":"ICSA-26-260-07","titulo":"Schneider Electric PowerChute Serial Shutdown","fecha":"2026-08-11","cvss":5.3,"explotado":false,"url":"https://www.cisa.gov/news-events/ics-advisories/icsa-26-260-07"},{"id":"ICSA-26-211-04","titulo":"Schneider Electric IGSS","fecha":"2026-07-14","cvss":7.8,"explotado":false,"url":"https://www.cisa.gov/news-events/ics-advisories/icsa-26-211-04"},{"id":"ICSA-26-260-04","titulo":"Schneider Electric Modicon M340 Controller and Communication Modules","fecha":"2025-08-12","cvss":7.5,"explotado":false,"url":"https://www.cisa.gov/news-events/ics-advisories/icsa-26-260-04"}]}},{"type":"Feature","geometry":{"type":"Point","coordinates":[16.73,62.82]},"properties":{"id":"ics:SWE","pais_iso3":"SWE","pais":"Suecia","n":5,"cvss_max":9.8,"criticos":2,"explotados":0,"medicos":1,"fabricantes":[["lwIP",2],["Red Lion Controls",1],["Savannah",1],["Flow Neuroscience",1]],"sectores":[["Communications",3],["Critical Manufacturing",3],["Energy",3],["Water and Wastewater Systems",3],["Healthcare and Public Health",3],["Chemical",2]],"fecha_utc":"2026-10-08T00:00:00Z","avisos":[{"id":"ICSA-26-281-01","titulo":"Red Lion Controls N-Tron 700 Series","fecha":"2026-10-08","cvss":8.3,"explotado":false,"url":"https://www.cisa.gov/news-events/ics-advisories/icsa-26-281-01"},{"id":"ICSA-26-279-02","titulo":"Savannah lwIP SMTP client","fecha":"2026-10-06","cvss":9.8,"explotado":false,"url":"https://www.cisa.gov/news-events/ics-advisories/icsa-26-279-02"},{"id":"ICSA-26-265-01","titulo":"lwIP TCP/IP Stack MQTT Client Application","fecha":"2026-09-22","cvss":9.8,"explotado":false,"url":"https://www.cisa.gov/news-events/ics-advisories/icsa-26-265-01"},{"id":"ICSA-26-265-02","titulo":"lwIP (Lightweight IP)","fecha":"2026-09-22","cvss":8.8,"explotado":false,"url":"https://www.cisa.gov/news-events/ics-advisories/icsa-26-265-02"},{"id":"ICSMA-26-225-01","titulo":"Flow Neuroscience FL-100","fecha":"2026-08-13","cvss":8.1,"explotado":false,"url":"https://www.cisa.gov/news-events/ics-medical-advisories/icsma-26-225-01"}]}},{"type":"Feature","geometry":{"type":"Point","coordinates":[5.64,52.29]},"properties":{"id":"ics:NLD","pais_iso3":"NLD","pais":"Países Bajos","n":3,"cvss_max":10.0,"criticos":3,"explotados":0,"medicos":0,"fabricantes":[["Monta",1],["IXON",1],["Pronetiqs",1]],"sectores":[["Energy",3],["Critical Manufacturing",2],["Information Technology",2],["Water and Wastewater",2],["Transportation Systems",1],["Commercial Facilities",1]],"fecha_utc":"2026-10-01T00:00:00Z","avisos":[{"id":"ICSA-26-274-02","titulo":"Monta monta.app","fecha":"2026-10-01","cvss":9.4,"explotado":false,"url":"https://www.cisa.gov/news-events/ics-advisories/icsa-26-274-02"},{"id":"ICSA-26-246-02","titulo":"IXON VPN Client","fecha":"2026-08-05","cvss":9.6,"explotado":false,"url":"https://www.cisa.gov/news-events/ics-advisories/icsa-26-246-02"},{"id":"ICSA-26-204-04","titulo":"Panduit IntraVUE","fecha":"2026-07-23","cvss":10.0,"explotado":false,"url":"https://www.cisa.gov/news-events/ics-advisories/icsa-26-204-04"}]}},{"type":"Feature","geometry":{"type":"Point","coordinates":[24.91,56.85]},"properties":{"id":"ics:LVA","pais_iso3":"LVA","pais":"Letonia","n":3,"cvss_max":9.8,"criticos":1,"explotados":0,"medicos":0,"fabricantes":[["MikroTik",3]],"sectores":[["Information Technology",3],["Communications",1],["Commercial Facilities",1]],"fecha_utc":"2026-09-29T00:00:00Z","avisos":[{"id":"ICSA-26-272-06","titulo":"MikroTik RouterOS","fecha":"2026-09-29","cvss":9.8,"explotado":false,"url":"https://www.cisa.gov/news-events/ics-advisories/icsa-26-272-06"},{"id":"ICSA-26-211-01","titulo":"MikroTik RouterOS","fecha":"2026-07-30","cvss":4.9,"explotado":false,"url":"https://www.cisa.gov/news-events/ics-advisories/icsa-26-211-01"},{"id":"ICSA-26-209-05","titulo":"MikroTik RouterOS and Cloud Hosted Router","fecha":"2026-07-28","cvss":8.8,"explotado":false,"url":"https://www.cisa.gov/news-events/ics-advisories/icsa-26-209-05"}]}},{"type":"Feature","geometry":{"type":"Point","coordinates":[138.01,36.65]},"properties":{"id":"ics:JPN","pais_iso3":"JPN","pais":"Japón","n":3,"cvss_max":9.1,"criticos":1,"explotados":0,"medicos":0,"fabricantes":[["Mitsubishi Electric",2],["FURUNO ELECTRIC CO.,LTD.",1]],"sectores":[["Critical Manufacturing",2],["Transportation Systems",1]],"fecha_utc":"2026-09-17T00:00:00Z","avisos":[{"id":"ICSA-26-260-02","titulo":"Mitsubishi Electric GX Works3 and Motion Control Settings","fecha":"2026-09-17","cvss":8.8,"explotado":false,"url":"https://www.cisa.gov/news-events/ics-advisories/icsa-26-260-02"},{"id":"ICSA-26-237-07","titulo":"FURUNO FA-50 Class B AIS Transponder","fecha":"2026-08-25","cvss":9.1,"explotado":false,"url":"https://www.cisa.gov/news-events/ics-advisories/icsa-26-237-07"},{"id":"ICSA-26-211-07","titulo":"Mitsubishi Electric CC-Link IE TSN Communication Protocol (Update A)","fecha":"2026-07-30","cvss":7.1,"explotado":false,"url":"https://www.cisa.gov/news-events/ics-advisories/icsa-26-211-07"}]}},{"type":"Feature","geometry":{"type":"Point","coordinates":[120.96,23.75]},"properties":{"id":"ics:TWN","pais_iso3":"TWN","pais":"Taiwán","n":2,"cvss_max":10.0,"criticos":1,"explotados":0,"medicos":0,"fabricantes":[["VIVOTEK",1],["Weintek",1]],"sectores":[["Critical Manufacturing",2],["Government Services and Facilities",1],["Transportation Systems",1],["Commercial Facilities",1],["Energy",1],["Financial Services",1]],"fecha_utc":"2026-09-29T00:00:00Z","avisos":[{"id":"ICSA-26-272-03","titulo":"VIVOTEK Camera Firmware","fecha":"2026-09-29","cvss":10.0,"explotado":false,"url":"https://www.cisa.gov/news-events/ics-advisories/icsa-26-272-03"},{"id":"ICSA-26-204-03","titulo":"Weintek cMT3092X","fecha":"2026-07-23","cvss":8.8,"explotado":false,"url":"https://www.cisa.gov/news-events/ics-advisories/icsa-26-204-03"}]}},{"type":"Feature","geometry":{"type":"Point","coordinates":[-2.52,53.95]},"properties":{"id":"ics:GBR","pais_iso3":"GBR","pais":"Reino Unido","n":2,"cvss_max":8.4,"criticos":0,"explotados":0,"medicos":0,"fabricantes":[["AVEVA",2]],"sectores":[["Critical Manufacturing",2]],"fecha_utc":"2026-09-10T00:00:00Z","avisos":[{"id":"ICSA-26-253-01","titulo":"AVEVA Pipeline Integrity Monitor","fecha":"2026-09-10","cvss":8.4,"explotado":false,"url":"https://www.cisa.gov/news-events/ics-advisories/icsa-26-253-01"},{"id":"ICSA-26-225-01","titulo":"AVEVA Enterprise SCADA","fecha":"2026-08-13","cvss":7.1,"explotado":false,"url":"https://www.cisa.gov/news-events/ics-advisories/icsa-26-225-01"}]}},{"type":"Feature","geometry":{"type":"Point","coordinates":[26.29,64.51]},"properties":{"id":"ics:FIN","pais_iso3":"FIN","pais":"Finlandia","n":2,"cvss_max":8.8,"criticos":0,"explotados":0,"medicos":0,"fabricantes":[["Satel",1],["Wärtsilä",1]],"sectores":[["Communications",1],["Transportation Systems",1]],"fecha_utc":"2026-10-08T00:00:00Z","avisos":[{"id":"ICSA-26-281-03","titulo":"Satel Netco Design","fecha":"2026-10-08","cvss":8.8,"explotado":false,"url":"https://www.cisa.gov/news-events/ics-advisories/icsa-26-281-03"},{"id":"ICSA-26-258-02","titulo":"Wärtsilä FOS-Onboard (Update A)","fecha":"2026-09-15","cvss":8.3,"explotado":false,"url":"https://www.cisa.gov/news-events/ics-advisories/icsa-26-258-02"}]}},{"type":"Feature","geometry":{"type":"Point","coordinates":[-3.57,40.4]},"properties":{"id":"ics:ESP","pais_iso3":"ESP","pais":"España","n":1,"cvss_max":6.5,"criticos":0,"explotados":0,"medicos":0,"fabricantes":[["SALTO",1]],"sectores":[["Commercial Facilities",1],["Critical Manufacturing",1]],"fecha_utc":"2026-07-16T00:00:00Z","avisos":[{"id":"ICSA-26-197-07","titulo":"SALTO ProAccess Space","fecha":"2026-07-16","cvss":6.5,"explotado":false,"url":"https://www.cisa.gov/news-events/ics-advisories/icsa-26-197-07"}]}},{"type":"Feature","geometry":{"type":"Point","coordinates":[103.97,1.33]},"properties":{"id":"ics:SGP","pais_iso3":"SGP","pais":"Singapur","n":1,"cvss_max":5.3,"criticos":0,"explotados":0,"medicos":0,"fabricantes":[["igloohome",1]],"sectores":[["Commercial Facilities",1]],"fecha_utc":"2026-07-28T00:00:00Z","avisos":[{"id":"ICSA-26-209-06","titulo":"igloohome Smart Lock Mobile Application","fecha":"2026-07-28","cvss":5.3,"explotado":false,"url":"https://www.cisa.gov/news-events/ics-advisories/icsa-26-209-06"}]}},{"type":"Feature","geometry":{"type":"Point","coordinates":[14.12,47.59]},"properties":{"id":"ics:AUT","pais_iso3":"AUT","pais":"Austria","n":1,"cvss_max":8.1,"criticos":0,"explotados":0,"medicos":0,"fabricantes":[["ANDRITZ",1]],"sectores":[["Energy",1]],"fecha_utc":"2026-08-13T00:00:00Z","avisos":[{"id":"ICSA-26-225-05","titulo":"ANDRITZ HIPASE-250 and 250 SCALA","fecha":"2026-08-13","cvss":8.1,"explotado":false,"url":"https://www.cisa.gov/news-events/ics-advisories/icsa-26-225-05"}]}},{"type":"Feature","geometry":{"type":"Point","coordinates":[15.3,49.73]},"properties":{"id":"ics:CZE","pais_iso3":"CZE","pais":"República Checa","n":1,"cvss_max":9.8,"criticos":1,"explotados":0,"medicos":0,"fabricantes":[["mySCADA Technologies",1]],"sectores":[["Critical Manufacturing",1],["Energy",1],["Food and Agriculture",1],["Transportation Systems",1],["Water and Wastewater",1]],"fecha_utc":"2026-09-15T00:00:00Z","avisos":[{"id":"ICSA-26-258-03","titulo":"mySCADA myPRO Manager","fecha":"2026-09-15","cvss":9.8,"explotado":false,"url":"https://www.cisa.gov/news-events/ics-advisories/icsa-26-258-03"}]}},{"type":"Feature","geometry":{"type":"Point","coordinates":[19.38,52.12]},"properties":{"id":"ics:POL","pais_iso3":"POL","pais":"Polonia","n":1,"cvss_max":4.3,"criticos":0,"explotados":0,"medicos":1,"fabricantes":[["Medixant",1]],"sectores":[["Healthcare and Public Health",1]],"fecha_utc":"2026-08-06T00:00:00Z","avisos":[{"id":"ICSMA-26-218-01","titulo":"Medixant RadiAnt DICOM","fecha":"2026-08-06","cvss":4.3,"explotado":false,"url":"https://www.cisa.gov/news-events/ics-medical-advisories/icsma-26-218-01"}]}},{"type":"Feature","geometry":{"type":"Point","coordinates":[23.88,55.33]},"properties":{"id":"ics:LTU","pais_iso3":"LTU","pais":"Lituania","n":1,"cvss_max":8.1,"criticos":0,"explotados":0,"medicos":1,"fabricantes":[["Pulsetto",1]],"sectores":[["Healthcare and Public Health",1]],"fecha_utc":"2026-08-11T00:00:00Z","avisos":[{"id":"ICSMA-26-223-02","titulo":"Pulsetto Vagus Nerve Stimulator (Update A)","fecha":"2026-08-11","cvss":8.1,"explotado":false,"url":"https://www.cisa.gov/news-events/ics-medical-advisories/icsma-26-223-02"}]}},{"type":"Feature","geometry":{"type":"Point","coordinates":[4.64,50.64]},"properties":{"id":"ics:BEL","pais_iso3":"BEL","pais":"Bélgica","n":1,"cvss_max":8.1,"criticos":0,"explotados":0,"medicos":1,"fabricantes":[["Orthanc",1]],"sectores":[["Healthcare and Public Health",1]],"fecha_utc":"2026-09-10T00:00:00Z","avisos":[{"id":"ICSMA-26-253-02","titulo":"Orthanc DICOM Server","fecha":"2026-09-10","cvss":8.1,"explotado":false,"url":"https://www.cisa.gov/news-events/ics-medical-advisories/icsma-26-253-02"}]}}]}