{"type":"FeatureCollection","generado_utc":"2026-10-11T00:29:58Z","fuente":"NOAA tsunami.gov (PTWC y NTWC), dominio público","errores":[],"features":[{"type":"Feature","geometry":{"type":"Point","coordinates":[-80.75,7.54]},"properties":{"evento":"7.5_-81.0","region":"Panama","magnitud":7.6,"nivel":1,"categoria":"Información","k":"epicentro","titulo":"Información · M7.6 Panama","actualizado":"2026-10-09T18:51:40Z","profundidad_km":33,"radio_km":null,"primer_impacto":"1032 PM CHST ON SATURDAY OCTOBER 10 2026","nota":"There is no tsunami danger for the U.S. West Coast, British Columbia, or Alaska. · Some of the areas listed above may experience non-damaging sea level changes.","alturas":[{"altura":"1 to 3 meters","costas":"Panama"}],"mapa_tiempos":"https://www.tsunami.gov/events/PAAQ/2026/10/09/tmnj5l/2/WEAK53/ttvutmnj5l-02.jpg","boletines":[{"centro":"PTWC","titulo":"TSUNAMI MESSAGE NUMBER 3","categoria":"Información","actualizado":"2026-10-09T18:51:40Z","boletin":"https://www.tsunami.gov/events/PHEB/2026/10/09/26282000/3/WEPA40/WEPA40.txt"},{"centro":"PTWC","titulo":"TSUNAMI INFORMATION STATEMENT NUMBER 2","categoria":"Información","actualizado":"2026-10-09T18:41:20Z","boletin":"https://www.tsunami.gov/events/PHEB/2026/10/09/26282000/2/WEGM42/WEGM42.txt"},{"centro":"NTWC","titulo":"Tsunami Information Statement Number 2","categoria":"Información","actualizado":"2026-10-09T18:19:32Z","boletin":"https://www.tsunami.gov/events/PAAQ/2026/10/09/tmnj5l/2/WEAK53/WEAK53.txt"},{"centro":"PTWC","titulo":"TSUNAMI INFORMATION STATEMENT NUMBER 1","categoria":"Información","actualizado":"2026-10-09T18:06:03Z","boletin":"https://www.tsunami.gov/events/PHEB/2026/10/09/26282000/1/WEGM42/WEGM42.txt"}],"origen_utc":"2026-10-09T17:56:00Z","horas_desde":30.6,"alcance_km":1000,"alcance_fuente":"magnitud"}},{"type":"Feature","geometry":{"type":"Polygon","coordinates":[[[-79.73708695652174,8.653804347826087],[-79.49,8.371],[-79.351,8.111],[-79.266,7.83],[-79.238,7.537],[-79.268,7.245],[-79.355,6.964],[-79.495,6.706],[-79.683,6.479],[-79.912,6.293],[-80.173,6.155],[-80.456,6.07],[-80.75,6.041],[-81.044,6.07],[-81.327,6.155],[-81.588,6.293],[-81.817,6.479],[-82.104,6.875],[-82.232,7.245],[-82.25,7.733],[-82.11537496932516,8.184811042944785],[-81.73,8.14],[-81.5,7.72],[-81.22,7.62],[-81.16,7.85],[-80.84,7.22],[-80.44,7.27],[-80.01,7.5],[-80.46,8.08],[-80.37,8.29],[-79.75,8.6],[-79.73708695652174,8.653804347826087]],[[-81.85,7.45],[-81.6,7.33],[-81.73,7.62],[-81.85,7.45]]]},"properties":{"evento":"7.5_-81.0","region":"Panama","magnitud":7.6,"nivel":1,"categoria":"Información","k":"zona","banda":1,"opacidad":0.5,"titulo":"Alcance probable: 0 a 167 km del epicentro"}},{"type":"Feature","geometry":{"type":"Polygon","coordinates":[[[-77.76952409778812,7.053615909972828],[-77.963,6.384],[-78.245,5.868],[-78.621,5.416],[-79.079,5.045],[-79.599,4.769],[-80.164,4.6],[-80.75,4.542],[-81.336,4.6],[-81.901,4.769],[-82.421,5.045],[-82.879,5.416],[-83.255,5.868],[-83.537,6.384],[-83.712,6.945],[-83.774,7.53],[-83.72,8.115],[-83.59985714285715,8.547714285714287],[-83.29,8.41],[-83.47,8.71],[-83.16,8.59],[-83.12,8.35],[-82.88,8.07],[-82.68,8.32],[-82.23,8.31],[-82.16,8.19],[-82.11537496932516,8.184811042944785],[-82.25,7.733],[-82.232,7.245],[-82.145,6.964],[-81.947,6.626],[-81.588,6.293],[-81.235,6.12],[-80.849,6.044],[-80.456,6.07],[-80.083,6.195],[-79.832,6.35],[-79.616,6.55],[-79.396,6.875],[-79.252,7.342],[-79.266,7.83],[-79.438,8.287],[-79.73708695652174,8.653804347826087],[-79.69,8.85],[-79.44,9.01],[-79.09,9.0],[-78.12,8.38],[-78.42,8.06],[-78.17,7.54],[-77.76952409778812,7.053615909972828]]]},"properties":{"evento":"7.5_-81.0","region":"Panama","magnitud":7.6,"nivel":1,"categoria":"Información","k":"zona","banda":2,"opacidad":0.42,"titulo":"Alcance probable: 167 a 333 km del epicentro"}},{"type":"Feature","geometry":{"type":"Polygon","coordinates":[[[-77.36,4.564],[-78.008,3.965],[-78.759,3.503],[-79.585,3.195],[-80.456,3.053],[-81.044,3.053],[-81.915,3.195],[-82.741,3.503],[-83.492,3.965],[-84.14,4.564],[-84.66,5.276],[-85.032,6.075],[-85.19,6.641],[-85.286,7.517],[-85.208,8.394],[-85.144,8.681],[-84.958,9.239],[-84.68800779727096,9.790038986354775],[-84.66,9.65],[-83.9,9.28],[-83.64,9.03],[-83.74,8.61],[-83.59985714285715,8.547714285714287],[-83.72,8.115],[-83.774,7.53],[-83.745,7.139],[-83.666,6.755],[-83.537,6.384],[-83.255,5.868],[-83.014,5.558],[-82.582,5.158],[-82.254,4.942],[-81.901,4.769],[-81.528,4.644],[-81.142,4.568],[-80.75,4.542],[-80.358,4.568],[-79.972,4.644],[-79.599,4.769],[-79.246,4.942],[-78.918,5.158],[-78.621,5.416],[-78.36,5.709],[-78.14,6.034],[-77.963,6.384],[-77.834,6.755],[-77.76952409778812,7.053615909972828],[-77.36,6.5],[-77.47,6.18],[-77.25,5.78],[-77.54,5.54],[-77.4,5.42],[-77.29,4.72],[-77.36,4.564]]]},"properties":{"evento":"7.5_-81.0","region":"Panama","magnitud":7.6,"nivel":1,"categoria":"Información","k":"zona","banda":3,"opacidad":0.33,"titulo":"Alcance probable: 333 a 500 km del epicentro"}},{"type":"Feature","geometry":{"type":"Polygon","coordinates":[[[-78.59303408309596,1.9459601217955014],[-79.582,1.659],[-80.358,1.557],[-81.142,1.557],[-81.531,1.595],[-82.3,1.747],[-83.042,1.996],[-83.4,2.157],[-84.08,2.545],[-84.705,3.018],[-84.993,3.284],[-85.514,3.868],[-85.746,4.185],[-86.145,4.859],[-86.453,5.579],[-86.572,5.952],[-86.735,6.718],[-86.797,7.499],[-86.757,8.28],[-86.614,9.05],[-86.504,9.427],[-86.211,10.154],[-85.82107188160676,10.84071458773784],[-85.67,10.74],[-85.83,10.4],[-85.63,9.9],[-85.32,9.81],[-85.11,9.58],[-84.89,9.82],[-85.16,10.02],[-85.26,10.26],[-84.71,9.9],[-84.68800779727096,9.790038986354775],[-84.838,9.508],[-85.06,8.963],[-85.144,8.681],[-85.253,8.103],[-85.273,7.223],[-85.19,6.641],[-85.032,6.075],[-84.66,5.276],[-84.329,4.79],[-83.937,4.35],[-83.492,3.965],[-82.741,3.503],[-81.915,3.195],[-81.044,3.053],[-80.163,3.082],[-79.304,3.28],[-78.499,3.641],[-77.779,4.151],[-77.31657073407877,4.615931291524869],[-77.41,4.25],[-77.36,3.94],[-77.08,3.91],[-77.36,3.35],[-77.67,2.88],[-78.12,2.49],[-78.62,2.31],[-78.59303408309596,1.9459601217955014]]]},"properties":{"evento":"7.5_-81.0","region":"Panama","magnitud":7.6,"nivel":1,"categoria":"Información","k":"zona","banda":4,"opacidad":0.25,"titulo":"Alcance probable: 500 a 667 km del epicentro"}},{"type":"Feature","geometry":{"type":"Polygon","coordinates":[[[-80.11540568319226,0.07608010882708575],[-80.75,0.046],[-81.725,0.109],[-82.685,0.298],[-83.611,0.61],[-84.49,1.038],[-85.306,1.577],[-86.046,2.216],[-86.697,2.945],[-87.25,3.753],[-87.486,4.181],[-87.873,5.079],[-88.141,6.02],[-88.228,6.501],[-88.309,7.475],[-88.262,8.452],[-88.087,9.414],[-87.786,10.345],[-87.363,11.23],[-87.107,11.65],[-86.749483015433,12.144768505109848],[-86.47,11.74],[-85.96,11.33],[-85.74,11.06],[-85.91,10.9],[-85.82107188160676,10.84071458773784],[-86.211,10.154],[-86.504,9.427],[-86.698,8.668],[-86.79,7.89],[-86.779,7.107],[-86.666,6.333],[-86.453,5.579],[-86.145,4.859],[-85.746,4.185],[-85.514,3.868],[-84.993,3.284],[-84.705,3.018],[-84.08,2.545],[-83.4,2.157],[-83.042,1.996],[-82.3,1.747],[-81.918,1.659],[-81.142,1.557],[-80.75,1.545],[-80.358,1.557],[-79.582,1.659],[-79.2,1.747],[-78.59303408309596,1.9459601217955014],[-78.58,1.77],[-78.79,1.85],[-79.03,1.62],[-78.86,1.46],[-78.9,1.21],[-79.74,0.98],[-80.09,0.79],[-80.02,0.41],[-80.11540568319226,0.07608010882708575]]]},"properties":{"evento":"7.5_-81.0","region":"Panama","magnitud":7.6,"nivel":1,"categoria":"Información","k":"zona","banda":5,"opacidad":0.16,"titulo":"Alcance probable: 667 a 833 km del epicentro"}},{"type":"Feature","geometry":{"type":"Polygon","coordinates":[[[-81.919,-1.377],[-83.069,-1.151],[-84.18,-0.777],[-85.233,-0.264],[-86.211,0.382],[-87.097,1.148],[-87.878,2.021],[-88.541,2.988],[-89.074,4.031],[-89.29,4.577],[-89.613,5.703],[-89.789,6.862],[-89.813,8.033],[-89.685,9.197],[-89.404,10.336],[-88.973,11.428],[-88.704,11.952],[-88.399,12.457],[-88.061,12.941],[-87.70398121839634,13.383434565374428],[-87.49,13.35],[-87.34,12.98],[-87.67,12.9],[-86.749483015433,12.144768505109848],[-87.107,11.65],[-87.589,10.794],[-87.952,9.884],[-88.19,8.936],[-88.301,7.964],[-88.284,6.987],[-88.141,6.02],[-87.873,5.079],[-87.486,4.181],[-87.25,3.753],[-86.697,2.945],[-86.046,2.216],[-85.686,1.884],[-84.906,1.294],[-84.057,0.81],[-83.153,0.439],[-82.685,0.298],[-81.725,0.109],[-81.239,0.062],[-80.75,0.046],[-80.11540568319226,0.07608010882708575],[-80.14,-0.01],[-80.48,-0.37],[-80.55,-0.85],[-80.9,-1.08],[-80.79693665014769,-1.4514781632204674],[-81.919,-1.377]]]},"properties":{"evento":"7.5_-81.0","region":"Panama","magnitud":7.6,"nivel":1,"categoria":"Información","k":"zona","banda":6,"opacidad":0.08,"titulo":"Alcance probable: 833 a 1,000 km del epicentro"}},{"type":"Feature","geometry":{"type":"LineString","coordinates":[[-78.92106907340553,1.5174767749699163],[-79.524,1.364],[-79.93,1.298],[-80.75,1.245],[-81.161,1.258],[-81.976,1.364],[-82.771,1.575],[-83.531,1.887],[-84.245,2.295],[-84.581,2.533],[-84.901,2.791],[-85.487,3.368],[-85.994,4.016],[-86.413,4.724],[-86.737,5.479],[-86.862,5.871],[-87.034,6.675],[-87.1,7.494],[-87.058,8.315],[-86.908,9.123],[-86.793,9.519],[-86.486,10.283],[-86.295,10.648],[-85.89887531549722,11.254983341746597]]},"properties":{"evento":"7.5_-81.0","region":"Panama","magnitud":7.6,"nivel":1,"categoria":"Información","k":"frente","horas":1,"pasado":true,"titulo":"Frente estimado a 1 h (700 km)"}},{"type":"Feature","geometry":{"type":"Point","coordinates":[-80.0,7.5]},"properties":{"evento":"7.5_-81.0","region":"Panama","magnitud":7.6,"nivel":1,"categoria":"Información","k":"llegada","titulo":"Llegada estimada: Punta Mala (Panama)","hora_utc":"10/09 18:20"}},{"type":"Feature","geometry":{"type":"Point","coordinates":[-78.0,7.4]},"properties":{"evento":"7.5_-81.0","region":"Panama","magnitud":7.6,"nivel":1,"categoria":"Información","k":"llegada","titulo":"Llegada estimada: Puerto Pina (Panama)","hora_utc":"10/09 18:31"}},{"type":"Feature","geometry":{"type":"Point","coordinates":[-82.9,8.0]},"properties":{"evento":"7.5_-81.0","region":"Panama","magnitud":7.6,"nivel":1,"categoria":"Información","k":"llegada","titulo":"Llegada estimada: Punta Burica (Panama)","hora_utc":"10/09 18:40"}},{"type":"Feature","geometry":{"type":"Point","coordinates":[-79.6,9.0]},"properties":{"evento":"7.5_-81.0","region":"Panama","magnitud":7.6,"nivel":1,"categoria":"Información","k":"llegada","titulo":"Llegada estimada: Balboa Heights (Panama)","hora_utc":"10/09 20:41"}},{"type":"Feature","geometry":{"type":"Point","coordinates":[-81.4,7.8]},"properties":{"evento":"8.0_-81.5","region":"In Panama","magnitud":6.9,"nivel":1,"categoria":"Información","k":"epicentro","titulo":"Información · M6.9 In Panama","actualizado":"2026-10-09T20:37:44Z","profundidad_km":10,"radio_km":null,"primer_impacto":"","nota":"There is no tsunami danger for the U.S. West Coast, British Columbia, or Alaska. · Based on earthquake information and historic tsunami records, the earthquake is not expected to generate a tsunami.","alturas":[],"mapa_tiempos":"https://www.tsunami.gov/events/PAAQ/2026/10/09/tmnq2s/1/WEAK53/ttvutmnq2s-01.jpg","boletines":[{"centro":"NTWC","titulo":"Tsunami Information Statement Number 1","categoria":"Información","actualizado":"2026-10-09T20:37:44Z","boletin":"https://www.tsunami.gov/events/PAAQ/2026/10/09/tmnq2s/1/WEAK53/WEAK53.txt"},{"centro":"PTWC","titulo":"TSUNAMI INFORMATION STATEMENT NUMBER 1","categoria":"Información","actualizado":"2026-10-09T20:34:14Z","boletin":"https://www.tsunami.gov/events/PHEB/2026/10/09/26282001/1/WEGM42/WEGM42.txt"}],"origen_utc":"2026-10-09T20:26:00Z","horas_desde":28.1,"alcance_km":100,"alcance_fuente":"magnitud"}},{"type":"Feature","geometry":{"type":"Polygon","coordinates":[[[-81.342,7.662],[-81.484,7.675],[-81.536,7.734],[-81.55073529411764,7.812647058823529],[-81.5,7.72],[-81.342,7.662]]]},"properties":{"evento":"8.0_-81.5","region":"In Panama","magnitud":6.9,"nivel":1,"categoria":"Información","k":"zona","banda":1,"opacidad":0.5,"titulo":"Alcance probable: 0 a 17 km del epicentro"}},{"type":"Feature","geometry":{"type":"Polygon","coordinates":[[[-81.108,7.722],[-81.16,7.617],[-81.249,7.54],[-81.361,7.503],[-81.478,7.51],[-81.584,7.562],[-81.662,7.65],[-81.702,7.78],[-81.687,7.896],[-81.64200917431192,7.97932110091743],[-81.531,7.725],[-81.449,7.658],[-81.34003960396039,7.662871287128713],[-81.22,7.62],[-81.16,7.85],[-81.108,7.722]]]},"properties":{"evento":"8.0_-81.5","region":"In Panama","magnitud":6.9,"nivel":1,"categoria":"Información","k":"zona","banda":2,"opacidad":0.42,"titulo":"Alcance probable: 17 a 33 km del epicentro"}},{"type":"Feature","geometry":{"type":"Polygon","coordinates":[[[-81.023,7.55],[-81.148,7.426],[-81.312,7.359],[-81.488,7.359],[-81.6397358490566,7.418641509433961],[-81.73,7.62],[-81.77814685314685,7.5517919580419575],[-81.845,7.712],[-81.845,7.887],[-81.778,8.05],[-81.71896531791909,8.11984971098266],[-81.64200917431192,7.97932110091743],[-81.697,7.858],[-81.697,7.741],[-81.651,7.633],[-81.568,7.551],[-81.42,7.501],[-81.284,7.523],[-81.16,7.617],[-81.1035579631636,7.738879739978328],[-81.023,7.55]]]},"properties":{"evento":"8.0_-81.5","region":"In Panama","magnitud":6.9,"nivel":1,"categoria":"Información","k":"zona","banda":3,"opacidad":0.33,"titulo":"Alcance probable: 33 a 50 km del epicentro"}},{"type":"Feature","geometry":{"type":"Polygon","coordinates":[[[-80.945,7.404],[-81.133,7.262],[-81.36,7.202],[-81.594,7.232],[-81.768,7.324],[-81.924,7.5],[-82.0,7.721],[-81.985,7.955],[-81.8859362843729,8.158132126089873],[-81.71896531791909,8.11984971098266],[-81.845,7.887],[-81.845,7.712],[-81.77814685314685,7.5517919580419575],[-81.85,7.45],[-81.6,7.33],[-81.6397358490566,7.418641509433961],[-81.488,7.359],[-81.341,7.354],[-81.148,7.426],[-81.01442477876107,7.563398783185842],[-80.945,7.404]]]},"properties":{"evento":"8.0_-81.5","region":"In Panama","magnitud":6.9,"nivel":1,"categoria":"Información","k":"zona","banda":4,"opacidad":0.25,"titulo":"Alcance probable: 50 a 67 km del epicentro"}},{"type":"Feature","geometry":{"type":"Polygon","coordinates":[[[-80.866,7.27],[-81.066,7.128],[-81.351,7.052],[-81.643,7.09],[-81.86,7.205],[-82.055,7.425],[-82.142,7.653],[-82.142,7.946],[-82.05374380165289,8.177644628099173],[-81.8859362843729,8.158132126089873],[-81.985,7.955],[-82.0,7.721],[-81.924,7.5],[-81.768,7.324],[-81.556,7.221],[-81.321,7.206],[-81.133,7.262],[-80.93791975068173,7.4127795091546504],[-80.866,7.27]]]},"properties":{"evento":"8.0_-81.5","region":"In Panama","magnitud":6.9,"nivel":1,"categoria":"Información","k":"zona","banda":5,"opacidad":0.16,"titulo":"Alcance probable: 67 a 83 km del epicentro"}},{"type":"Feature","geometry":{"type":"Polygon","coordinates":[[[-80.69211145510836,7.238486068111455],[-80.999,6.993],[-81.341,6.903],[-81.691,6.948],[-81.952,7.086],[-82.154,7.3],[-82.29,7.624],[-82.291,7.975],[-82.19056,8.242388571428565],[-82.16,8.19],[-82.05374380165289,8.177644628099173],[-82.117,8.04],[-82.155,7.848],[-82.116,7.559],[-82.028,7.383],[-81.86,7.205],[-81.643,7.09],[-81.449,7.052],[-81.157,7.09],[-80.86560392397303,7.270407725321886],[-80.84,7.22],[-80.69211145510836,7.238486068111455]]]},"properties":{"evento":"8.0_-81.5","region":"In Panama","magnitud":6.9,"nivel":1,"categoria":"Información","k":"zona","banda":6,"opacidad":0.08,"titulo":"Alcance probable: 83 a 100 km del epicentro"}}]}