{"type":"FeatureCollection","features":[{"type":"Feature","properties":{"n":"Zimbabue","iso3":"ZWE"},"geometry":{"type":"Point","coordinates":[29.85,-19]}},{"type":"Feature","properties":{"n":"Zambia","iso3":"ZMB"},"geometry":{"type":"Point","coordinates":[27.77,-13.46]}},{"type":"Feature","properties":{"n":"Yemen","iso3":"YEM"},"geometry":{"type":"Point","coordinates":[47.54,15.94]}},{"type":"Feature","properties":{"n":"Vietnam","iso3":"VNM"},"geometry":{"type":"Point","coordinates":[106.31,16.65]}},{"type":"Feature","properties":{"n":"Venezuela","iso3":"VEN"},"geometry":{"type":"Point","coordinates":[-66.19,7.12]}},{"type":"Feature","properties":{"n":"Santa Sede","iso3":"VAT"},"geometry":{"type":"Point","coordinates":[12.44,41.9]}},{"type":"Feature","properties":{"n":"Vanuatu","iso3":"VUT"},"geometry":{"type":"Point","coordinates":[166.86,-15.25]}},{"type":"Feature","properties":{"n":"Uzbekistán","iso3":"UZB"},"geometry":{"type":"Point","coordinates":[63.14,41.75]}},{"type":"Feature","properties":{"n":"Uruguay","iso3":"URY"},"geometry":{"type":"Point","coordinates":[-56.02,-32.8]}},{"type":"Feature","properties":{"n":"Micronesia","iso3":"FSM"},"geometry":{"type":"Point","coordinates":[162.98,5.32]}},{"type":"Feature","properties":{"n":"Islas Marshall","iso3":"MHL"},"geometry":{"type":"Point","coordinates":[169.64,5.83]}},{"type":"Feature","properties":{"n":"Islas Marianas del Norte","iso3":"MNP"},"geometry":{"type":"Point","coordinates":[145.71,18.76]}},{"type":"Feature","properties":{"n":"Islas Vírgenes de los Estados Unidos","iso3":"VIR"},"geometry":{"type":"Point","coordinates":[-64.85,18.33]}},{"type":"Feature","properties":{"n":"Guam","iso3":"GUM"},"geometry":{"type":"Point","coordinates":[144.78,13.42]}},{"type":"Feature","properties":{"n":"Samoa Americana","iso3":"ASM"},"geometry":{"type":"Point","coordinates":[-170.73,-14.35]}},{"type":"Feature","properties":{"n":"Puerto Rico","iso3":"PRI"},"geometry":{"type":"Point","coordinates":[-66.5,18.23]}},{"type":"Feature","properties":{"n":"Estados Unidos","iso3":"USA"},"geometry":{"type":"Point","coordinates":[-99.14,39.53]}},{"type":"Feature","properties":{"n":"Georgia del Sur y las Islas Sandwich del Sur","iso3":"SGS"},"geometry":{"type":"Point","coordinates":[-36.59,-54.39]}},{"type":"Feature","properties":{"n":"Territorio Británico del Océano Índico","iso3":"IOT"},"geometry":{"type":"Point","coordinates":[72.49,-7.38]}},{"type":"Feature","properties":{"n":"Santa Helena, Ascensión y Tristán de Acuña","iso3":"SHN"},"geometry":{"type":"Point","coordinates":[-5.69,-16]}},{"type":"Feature","properties":{"n":"Pitcairn","iso3":"PCN"},"geometry":{"type":"Point","coordinates":[-128.29,-24.4]}},{"type":"Feature","properties":{"n":"Anguila","iso3":"AIA"},"geometry":{"type":"Point","coordinates":[-63,18.22]}},{"type":"Feature","properties":{"n":"Islas Malvinas","iso3":"FLK"},"geometry":{"type":"Point","coordinates":[-58.78,-51.75]}},{"type":"Feature","properties":{"n":"Islas Caimán","iso3":"CYM"},"geometry":{"type":"Point","coordinates":[-81.37,19.35]}},{"type":"Feature","properties":{"n":"Bermudas","iso3":"BMU"},"geometry":{"type":"Point","coordinates":[-64.73,32.29]}},{"type":"Feature","properties":{"n":"Islas Vírgenes británicas","iso3":"VGB"},"geometry":{"type":"Point","coordinates":[-64.4,18.46]}},{"type":"Feature","properties":{"n":"Islas Turcas y Caicos","iso3":"TCA"},"geometry":{"type":"Point","coordinates":[-71.66,21.76]}},{"type":"Feature","properties":{"n":"Montserrat","iso3":"MSR"},"geometry":{"type":"Point","coordinates":[-62.15,16.74]}},{"type":"Feature","properties":{"n":"Jersey","iso3":"JEY"},"geometry":{"type":"Point","coordinates":[-2.02,49.23]}},{"type":"Feature","properties":{"n":"Guernsey","iso3":"GGY"},"geometry":{"type":"Point","coordinates":[-2.51,49.49]}},{"type":"Feature","properties":{"n":"Isla de Man","iso3":"IMN"},"geometry":{"type":"Point","coordinates":[-4.57,54.21]}},{"type":"Feature","properties":{"n":"Reino Unido","iso3":"GBR"},"geometry":{"type":"Point","coordinates":[-2.52,53.95]}},{"type":"Feature","properties":{"n":"Emiratos Árabes Unidos","iso3":"ARE"},"geometry":{"type":"Point","coordinates":[54.3,23.9]}},{"type":"Feature","properties":{"n":"Ucrania","iso3":"UKR"},"geometry":{"type":"Point","coordinates":[31.25,49.16]}},{"type":"Feature","properties":{"n":"Uganda","iso3":"UGA"},"geometry":{"type":"Point","coordinates":[32.37,1.28]}},{"type":"Feature","properties":{"n":"Turkmenistán","iso3":"TKM"},"geometry":{"type":"Point","coordinates":[59.36,39.12]}},{"type":"Feature","properties":{"n":"Turquía","iso3":"TUR"},"geometry":{"type":"Point","coordinates":[35.43,38.99]}},{"type":"Feature","properties":{"n":"Túnez","iso3":"TUN"},"geometry":{"type":"Point","coordinates":[9.55,34.13]}},{"type":"Feature","properties":{"n":"Trinidad y Tobago","iso3":"TTO"},"geometry":{"type":"Point","coordinates":[-61.29,10.43]}},{"type":"Feature","properties":{"n":"Tonga","iso3":"TON"},"geometry":{"type":"Point","coordinates":[-175.16,-21.17]}},{"type":"Feature","properties":{"n":"Togo","iso3":"TGO"},"geometry":{"type":"Point","coordinates":[0.96,8.54]}},{"type":"Feature","properties":{"n":"Timor-Leste","iso3":"TLS"},"geometry":{"type":"Point","coordinates":[125.93,-8.81]}},{"type":"Feature","properties":{"n":"Tailandia","iso3":"THA"},"geometry":{"type":"Point","coordinates":[101.01,15.14]}},{"type":"Feature","properties":{"n":"Tanzania","iso3":"TZA"},"geometry":{"type":"Point","coordinates":[34.8,-6.28]}},{"type":"Feature","properties":{"n":"Tayikistán","iso3":"TJK"},"geometry":{"type":"Point","coordinates":[71.03,38.53]}},{"type":"Feature","properties":{"n":"Taiwán","iso3":"TWN"},"geometry":{"type":"Point","coordinates":[120.96,23.75]}},{"type":"Feature","properties":{"n":"República Árabe Siria","iso3":"SYR"},"geometry":{"type":"Point","coordinates":[38.51,35.02]}},{"type":"Feature","properties":{"n":"Suiza","iso3":"CHE"},"geometry":{"type":"Point","coordinates":[8.22,46.8]}},{"type":"Feature","properties":{"n":"Suecia","iso3":"SWE"},"geometry":{"type":"Point","coordinates":[16.73,62.82]}},{"type":"Feature","properties":{"n":"Esuatini","iso3":"SWZ"},"geometry":{"type":"Point","coordinates":[31.49,-26.55]}},{"type":"Feature","properties":{"n":"Suriname","iso3":"SUR"},"geometry":{"type":"Point","coordinates":[-55.91,4.12]}},{"type":"Feature","properties":{"n":"Sudán del Sur","iso3":"SSD"},"geometry":{"type":"Point","coordinates":[30.25,7.31]}},{"type":"Feature","properties":{"n":"Sudán","iso3":"SDN"},"geometry":{"type":"Point","coordinates":[29.94,15.99]}},{"type":"Feature","properties":{"n":"Sri Lanka","iso3":"LKA"},"geometry":{"type":"Point","coordinates":[80.7,7.62]}},{"type":"Feature","properties":{"n":"España","iso3":"ESP"},"geometry":{"type":"Point","coordinates":[-3.57,40.4]}},{"type":"Feature","properties":{"n":"República de Corea","iso3":"KOR"},"geometry":{"type":"Point","coordinates":[127.86,36.45]}},{"type":"Feature","properties":{"n":"Sudáfrica","iso3":"ZAF"},"geometry":{"type":"Point","coordinates":[25.16,-29.01]}},{"type":"Feature","properties":{"n":"Somalia","iso3":"SOM"},"geometry":{"type":"Point","coordinates":[45.71,4.76]}},{"type":"Feature","properties":{"n":"Islas Salomón","iso3":"SLB"},"geometry":{"type":"Point","coordinates":[160.14,-9.62]}},{"type":"Feature","properties":{"n":"Eslovaquia","iso3":"SVK"},"geometry":{"type":"Point","coordinates":[19.48,48.71]}},{"type":"Feature","properties":{"n":"Eslovenia","iso3":"SVN"},"geometry":{"type":"Point","coordinates":[14.8,46.11]}},{"type":"Feature","properties":{"n":"Singapur","iso3":"SGP"},"geometry":{"type":"Point","coordinates":[103.97,1.33]}},{"type":"Feature","properties":{"n":"Sierra Leona","iso3":"SLE"},"geometry":{"type":"Point","coordinates":[-11.79,8.57]}},{"type":"Feature","properties":{"n":"Seychelles","iso3":"SYC"},"geometry":{"type":"Point","coordinates":[55.54,-4.69]}},{"type":"Feature","properties":{"n":"Serbia","iso3":"SRB"},"geometry":{"type":"Point","coordinates":[20.78,44.22]}},{"type":"Feature","properties":{"n":"Senegal","iso3":"SEN"},"geometry":{"type":"Point","coordinates":[-14.47,14.35]}},{"type":"Feature","properties":{"n":"Arabia Saudita","iso3":"SAU"},"geometry":{"type":"Point","coordinates":[44.54,24.12]}},{"type":"Feature","properties":{"n":"Santo Tomé y Príncipe","iso3":"STP"},"geometry":{"type":"Point","coordinates":[6.6,0.25]}},{"type":"Feature","properties":{"n":"San Marino","iso3":"SMR"},"geometry":{"type":"Point","coordinates":[12.49,43.9]}},{"type":"Feature","properties":{"n":"Samoa","iso3":"WSM"},"geometry":{"type":"Point","coordinates":[-172.47,-13.63]}},{"type":"Feature","properties":{"n":"San Vicente y las Granadinas","iso3":"VCT"},"geometry":{"type":"Point","coordinates":[-61.17,13.16]}},{"type":"Feature","properties":{"n":"Santa Lucía","iso3":"LCA"},"geometry":{"type":"Point","coordinates":[-60.9,13.82]}},{"type":"Feature","properties":{"n":"Saint Kitts y Nevis","iso3":"KNA"},"geometry":{"type":"Point","coordinates":[-62.53,17.12]}},{"type":"Feature","properties":{"n":"Ruanda","iso3":"RWA"},"geometry":{"type":"Point","coordinates":[29.92,-1.98]}},{"type":"Feature","properties":{"n":"Rusia","iso3":"RUS"},"geometry":{"type":"Point","coordinates":[193.25,56.38]}},{"type":"Feature","properties":{"n":"Rumanía","iso3":"ROU"},"geometry":{"type":"Point","coordinates":[24.97,45.86]}},{"type":"Feature","properties":{"n":"Catar","iso3":"QAT"},"geometry":{"type":"Point","coordinates":[51.18,25.31]}},{"type":"Feature","properties":{"n":"Portugal","iso3":"PRT"},"geometry":{"type":"Point","coordinates":[-7.99,39.66]}},{"type":"Feature","properties":{"n":"Polonia","iso3":"POL"},"geometry":{"type":"Point","coordinates":[19.38,52.12]}},{"type":"Feature","properties":{"n":"Filipinas","iso3":"PHL"},"geometry":{"type":"Point","coordinates":[121.42,15.97]}},{"type":"Feature","properties":{"n":"Perú","iso3":"PER"},"geometry":{"type":"Point","coordinates":[-74.38,-9.15]}},{"type":"Feature","properties":{"n":"Paraguay","iso3":"PRY"},"geometry":{"type":"Point","coordinates":[-58.4,-23.23]}},{"type":"Feature","properties":{"n":"Papua Nueva Guinea","iso3":"PNG"},"geometry":{"type":"Point","coordinates":[144.24,-6.61]}},{"type":"Feature","properties":{"n":"Panamá","iso3":"PAN"},"geometry":{"type":"Point","coordinates":[-80.13,8.52]}},{"type":"Feature","properties":{"n":"Palau","iso3":"PLW"},"geometry":{"type":"Point","coordinates":[131.17,3.03]}},{"type":"Feature","properties":{"n":"Pakistán","iso3":"PAK"},"geometry":{"type":"Point","coordinates":[69.33,29.95]}},{"type":"Feature","properties":{"n":"Omán","iso3":"OMN"},"geometry":{"type":"Point","coordinates":[56.08,20.58]}},{"type":"Feature","properties":{"n":"Noruega","iso3":"NOR"},"geometry":{"type":"Point","coordinates":[13.87,64.22]}},{"type":"Feature","properties":{"n":"República Popular Democrática de Corea","iso3":"PRK"},"geometry":{"type":"Point","coordinates":[127.2,40.15]}},{"type":"Feature","properties":{"n":"Nigeria","iso3":"NGA"},"geometry":{"type":"Point","coordinates":[8.08,9.59]}},{"type":"Feature","properties":{"n":"Níger","iso3":"NER"},"geometry":{"type":"Point","coordinates":[9.39,17.42]}},{"type":"Feature","properties":{"n":"Nicaragua","iso3":"NIC"},"geometry":{"type":"Point","coordinates":[-85.03,12.84]}},{"type":"Feature","properties":{"n":"Nueva Zelanda","iso3":"NZL"},"geometry":{"type":"Point","coordinates":[170.52,-43.98]}},{"type":"Feature","properties":{"n":"Niue","iso3":"NIU"},"geometry":{"type":"Point","coordinates":[-169.8,-19.08]}},{"type":"Feature","properties":{"n":"Islas Cook","iso3":"COK"},"geometry":{"type":"Point","coordinates":[-159.74,-21.25]}},{"type":"Feature","properties":{"n":"Países Bajos","iso3":"NLD"},"geometry":{"type":"Point","coordinates":[5.64,52.29]}},{"type":"Feature","properties":{"n":"Aruba","iso3":"ABW"},"geometry":{"type":"Point","coordinates":[-69.9,12.45]}},{"type":"Feature","properties":{"n":"Curaçao","iso3":"CUW"},"geometry":{"type":"Point","coordinates":[-68.75,12.06]}},{"type":"Feature","properties":{"n":"Nepal","iso3":"NPL"},"geometry":{"type":"Point","coordinates":[83.93,28.24]}},{"type":"Feature","properties":{"n":"Nauru","iso3":"NRU"},"geometry":{"type":"Point","coordinates":[166.96,-0.52]}},{"type":"Feature","properties":{"n":"Namibia","iso3":"NAM"},"geometry":{"type":"Point","coordinates":[17.21,-22.13]}},{"type":"Feature","properties":{"n":"Mozambique","iso3":"MOZ"},"geometry":{"type":"Point","coordinates":[35.53,-17.28]}},{"type":"Feature","properties":{"n":"Marruecos","iso3":"MAR"},"geometry":{"type":"Point","coordinates":[-8.46,29.84]}},{"type":"Feature","properties":{"n":"Sahara Occidental","iso3":"ESH"},"geometry":{"type":"Point","coordinates":[-12.21,24.22]}},{"type":"Feature","properties":{"n":"Montenegro","iso3":"MNE"},"geometry":{"type":"Point","coordinates":[19.23,42.8]}},{"type":"Feature","properties":{"n":"Mongolia","iso3":"MNG"},"geometry":{"type":"Point","coordinates":[103.05,46.83]}},{"type":"Feature","properties":{"n":"Moldavia","iso3":"MDA"},"geometry":{"type":"Point","coordinates":[28.46,47.21]}},{"type":"Feature","properties":{"n":"Mónaco","iso3":"MCO"},"geometry":{"type":"Point","coordinates":[7.44,43.75]}},{"type":"Feature","properties":{"n":"México","iso3":"MEX"},"geometry":{"type":"Point","coordinates":[-102.5,23.94]}},{"type":"Feature","properties":{"n":"Mauricio","iso3":"MUS"},"geometry":{"type":"Point","coordinates":[57.59,-20.28]}},{"type":"Feature","properties":{"n":"Mauritania","iso3":"MRT"},"geometry":{"type":"Point","coordinates":[-10.35,20.25]}},{"type":"Feature","properties":{"n":"Malta","iso3":"MLT"},"geometry":{"type":"Point","coordinates":[14.57,35.85]}},{"type":"Feature","properties":{"n":"Malí","iso3":"MLI"},"geometry":{"type":"Point","coordinates":[-3.54,17.34]}},{"type":"Feature","properties":{"n":"Maldivas","iso3":"MDV"},"geometry":{"type":"Point","coordinates":[73.42,3.23]}},{"type":"Feature","properties":{"n":"Malasia","iso3":"MYS"},"geometry":{"type":"Point","coordinates":[114.74,3.62]}},{"type":"Feature","properties":{"n":"Malaui","iso3":"MWI"},"geometry":{"type":"Point","coordinates":[34.28,-13.22]}},{"type":"Feature","properties":{"n":"Madagascar","iso3":"MDG"},"geometry":{"type":"Point","coordinates":[46.7,-19.37]}},{"type":"Feature","properties":{"n":"Macedonia del Norte","iso3":"MKD"},"geometry":{"type":"Point","coordinates":[21.7,41.59]}},{"type":"Feature","properties":{"n":"Luxemburgo","iso3":"LUX"},"geometry":{"type":"Point","coordinates":[6.08,49.77]}},{"type":"Feature","properties":{"n":"Lituania","iso3":"LTU"},"geometry":{"type":"Point","coordinates":[23.88,55.33]}},{"type":"Feature","properties":{"n":"Liechtenstein","iso3":"LIE"},"geometry":{"type":"Point","coordinates":[9.58,47.06]}},{"type":"Feature","properties":{"n":"Libia","iso3":"LBY"},"geometry":{"type":"Point","coordinates":[18.01,27.03]}},{"type":"Feature","properties":{"n":"Liberia","iso3":"LBR"},"geometry":{"type":"Point","coordinates":[-9.32,6.46]}},{"type":"Feature","properties":{"n":"Lesoto","iso3":"LSO"},"geometry":{"type":"Point","coordinates":[28.23,-29.58]}},{"type":"Feature","properties":{"n":"Líbano","iso3":"LBN"},"geometry":{"type":"Point","coordinates":[35.86,33.92]}},{"type":"Feature","properties":{"n":"Letonia","iso3":"LVA"},"geometry":{"type":"Point","coordinates":[24.91,56.85]}},{"type":"Feature","properties":{"n":"República Democrática Popular de Lao","iso3":"LAO"},"geometry":{"type":"Point","coordinates":[103.72,18.51]}},{"type":"Feature","properties":{"n":"Kirguistán","iso3":"KGZ"},"geometry":{"type":"Point","coordinates":[74.54,41.46]}},{"type":"Feature","properties":{"n":"Kuwait","iso3":"KWT"},"geometry":{"type":"Point","coordinates":[47.57,29.31]}},{"type":"Feature","properties":{"n":"Kosovo","iso3":"XKX"},"geometry":{"type":"Point","coordinates":[20.88,42.57]}},{"type":"Feature","properties":{"n":"Kiribati","iso3":"KIR"},"geometry":{"type":"Point","coordinates":[172.97,3.13]}},{"type":"Feature","properties":{"n":"Kenia","iso3":"KEN"},"geometry":{"type":"Point","coordinates":[37.79,0.6]}},{"type":"Feature","properties":{"n":"Kazajistán","iso3":"KAZ"},"geometry":{"type":"Point","coordinates":[67.29,48.16]}},{"type":"Feature","properties":{"n":"Jordania","iso3":"JOR"},"geometry":{"type":"Point","coordinates":[36.78,31.25]}},{"type":"Feature","properties":{"n":"Japón","iso3":"JPN"},"geometry":{"type":"Point","coordinates":[138.01,36.65]}},{"type":"Feature","properties":{"n":"Jamaica","iso3":"JAM"},"geometry":{"type":"Point","coordinates":[-77.31,18.15]}},{"type":"Feature","properties":{"n":"Italia","iso3":"ITA"},"geometry":{"type":"Point","coordinates":[12.17,43.53]}},{"type":"Feature","properties":{"n":"Israel","iso3":"ISR"},"geometry":{"type":"Point","coordinates":[35.01,31.47]}},{"type":"Feature","properties":{"n":"Palestina","iso3":"PSE"},"geometry":{"type":"Point","coordinates":[35.28,31.97]}},{"type":"Feature","properties":{"n":"Irlanda","iso3":"IRL"},"geometry":{"type":"Point","coordinates":[-8.13,53.17]}},{"type":"Feature","properties":{"n":"Iraq","iso3":"IRQ"},"geometry":{"type":"Point","coordinates":[43.75,33.03]}},{"type":"Feature","properties":{"n":"Irán","iso3":"IRN"},"geometry":{"type":"Point","coordinates":[54.27,32.57]}},{"type":"Feature","properties":{"n":"Indonesia","iso3":"IDN"},"geometry":{"type":"Point","coordinates":[114.01,-0.19]}},{"type":"Feature","properties":{"n":"India","iso3":"IND"},"geometry":{"type":"Point","coordinates":[79.6,22.91]}},{"type":"Feature","properties":{"n":"Islandia","iso3":"ISL"},"geometry":{"type":"Point","coordinates":[-18.57,64.99]}},{"type":"Feature","properties":{"n":"Hungría","iso3":"HUN"},"geometry":{"type":"Point","coordinates":[19.4,47.16]}},{"type":"Feature","properties":{"n":"Honduras","iso3":"HND"},"geometry":{"type":"Point","coordinates":[-86.62,14.82]}},{"type":"Feature","properties":{"n":"Haití","iso3":"HTI"},"geometry":{"type":"Point","coordinates":[-72.66,18.92]}},{"type":"Feature","properties":{"n":"Guyana","iso3":"GUY"},"geometry":{"type":"Point","coordinates":[-58.98,4.79]}},{"type":"Feature","properties":{"n":"Guinea Bissau","iso3":"GNB"},"geometry":{"type":"Point","coordinates":[-14.94,12.07]}},{"type":"Feature","properties":{"n":"Guinea","iso3":"GIN"},"geometry":{"type":"Point","coordinates":[-10.93,10.43]}},{"type":"Feature","properties":{"n":"Guatemala","iso3":"GTM"},"geometry":{"type":"Point","coordinates":[-90.36,15.69]}},{"type":"Feature","properties":{"n":"Granada","iso3":"GRD"},"geometry":{"type":"Point","coordinates":[-61.72,12.01]}},{"type":"Feature","properties":{"n":"Grecia","iso3":"GRC"},"geometry":{"type":"Point","coordinates":[22.56,39.49]}},{"type":"Feature","properties":{"n":"Ghana","iso3":"GHA"},"geometry":{"type":"Point","coordinates":[-1.22,7.95]}},{"type":"Feature","properties":{"n":"Alemania","iso3":"DEU"},"geometry":{"type":"Point","coordinates":[10.37,51.09]}},{"type":"Feature","properties":{"n":"Georgia","iso3":"GEO"},"geometry":{"type":"Point","coordinates":[43.5,42.17]}},{"type":"Feature","properties":{"n":"Gambia","iso3":"GMB"},"geometry":{"type":"Point","coordinates":[-15.4,13.44]}},{"type":"Feature","properties":{"n":"Gabón","iso3":"GAB"},"geometry":{"type":"Point","coordinates":[11.79,-0.59]}},{"type":"Feature","properties":{"n":"Francia","iso3":"FRA"},"geometry":{"type":"Point","coordinates":[2.46,46.61]}},{"type":"Feature","properties":{"n":"San Pedro y Miquelón","iso3":"SPM"},"geometry":{"type":"Point","coordinates":[-56.15,46.76]}},{"type":"Feature","properties":{"n":"Wallis y Futuna","iso3":"WLF"},"geometry":{"type":"Point","coordinates":[-176.16,-13.33]}},{"type":"Feature","properties":{"n":"Saint Martin (francesa)","iso3":"MAF"},"geometry":{"type":"Point","coordinates":[-63.01,18.07]}},{"type":"Feature","properties":{"n":"Saint Barthélemy","iso3":"BLM"},"geometry":{"type":"Point","coordinates":[-62.83,17.88]}},{"type":"Feature","properties":{"n":"Polinesia Francesa","iso3":"PYF"},"geometry":{"type":"Point","coordinates":[-149.5,-17.65]}},{"type":"Feature","properties":{"n":"Nueva Caledonia","iso3":"NCL"},"geometry":{"type":"Point","coordinates":[165.5,-21.33]}},{"type":"Feature","properties":{"n":"Tierras Australes Francesas","iso3":"ATF"},"geometry":{"type":"Point","coordinates":[69.49,-49.3]}},{"type":"Feature","properties":{"n":"Islas Åland","iso3":"ALA"},"geometry":{"type":"Point","coordinates":[19.98,60.23]}},{"type":"Feature","properties":{"n":"Finlandia","iso3":"FIN"},"geometry":{"type":"Point","coordinates":[26.29,64.51]}},{"type":"Feature","properties":{"n":"Fiji","iso3":"FJI"},"geometry":{"type":"Point","coordinates":[-29.23,-16.52]}},{"type":"Feature","properties":{"n":"Etiopía","iso3":"ETH"},"geometry":{"type":"Point","coordinates":[39.61,8.62]}},{"type":"Feature","properties":{"n":"Estonia","iso3":"EST"},"geometry":{"type":"Point","coordinates":[25.81,58.68]}},{"type":"Feature","properties":{"n":"Eritrea","iso3":"ERI"},"geometry":{"type":"Point","coordinates":[38.82,15.37]}},{"type":"Feature","properties":{"n":"Guinea Ecuatorial","iso3":"GNQ"},"geometry":{"type":"Point","coordinates":[10.48,1.57]}},{"type":"Feature","properties":{"n":"El Salvador","iso3":"SLV"},"geometry":{"type":"Point","coordinates":[-88.88,13.74]}},{"type":"Feature","properties":{"n":"Egipto","iso3":"EGY"},"geometry":{"type":"Point","coordinates":[29.86,26.49]}},{"type":"Feature","properties":{"n":"Ecuador","iso3":"ECU"},"geometry":{"type":"Point","coordinates":[-78.39,-1.44]}},{"type":"Feature","properties":{"n":"República Dominicana","iso3":"DOM"},"geometry":{"type":"Point","coordinates":[-70.53,18.9]}},{"type":"Feature","properties":{"n":"Dominica","iso3":"DMA"},"geometry":{"type":"Point","coordinates":[-61.36,15.45]}},{"type":"Feature","properties":{"n":"Yibuti","iso3":"DJI"},"geometry":{"type":"Point","coordinates":[42.55,11.75]}},{"type":"Feature","properties":{"n":"Groenlandia","iso3":"GRL"},"geometry":{"type":"Point","coordinates":[-41.36,74.71]}},{"type":"Feature","properties":{"n":"Islas Feroe","iso3":"FRO"},"geometry":{"type":"Point","coordinates":[-6.84,62.17]}},{"type":"Feature","properties":{"n":"Dinamarca","iso3":"DNK"},"geometry":{"type":"Point","coordinates":[9.37,56.24]}},{"type":"Feature","properties":{"n":"República Checa","iso3":"CZE"},"geometry":{"type":"Point","coordinates":[15.3,49.73]}},{"type":"Feature","properties":{"n":"Chipre","iso3":"CYP"},"geometry":{"type":"Point","coordinates":[33.54,35.27]}},{"type":"Feature","properties":{"n":"Cuba","iso3":"CUB"},"geometry":{"type":"Point","coordinates":[-78.95,21.62]}},{"type":"Feature","properties":{"n":"Croacia","iso3":"HRV"},"geometry":{"type":"Point","coordinates":[16.43,45.16]}},{"type":"Feature","properties":{"n":"Costa de Marfil","iso3":"CIV"},"geometry":{"type":"Point","coordinates":[-5.57,7.62]}},{"type":"Feature","properties":{"n":"Costa Rica","iso3":"CRI"},"geometry":{"type":"Point","coordinates":[-84.19,9.98]}},{"type":"Feature","properties":{"n":"Congo (República Democrática del)","iso3":"COD"},"geometry":{"type":"Point","coordinates":[23.64,-2.88]}},{"type":"Feature","properties":{"n":"Congo","iso3":"COG"},"geometry":{"type":"Point","coordinates":[15.23,-0.84]}},{"type":"Feature","properties":{"n":"Comoras","iso3":"COM"},"geometry":{"type":"Point","coordinates":[43.36,-11.69]}},{"type":"Feature","properties":{"n":"Colombia","iso3":"COL"},"geometry":{"type":"Point","coordinates":[-73.09,3.92]}},{"type":"Feature","properties":{"n":"China","iso3":"CHN"},"geometry":{"type":"Point","coordinates":[103.81,36.62]}},{"type":"Feature","properties":{"n":"Macao","iso3":"MAC"},"geometry":{"type":"Point","coordinates":[113.48,22.2]}},{"type":"Feature","properties":{"n":"Hong Kong","iso3":"HKG"},"geometry":{"type":"Point","coordinates":[114.13,22.43]}},{"type":"Feature","properties":{"n":"Chile","iso3":"CHL"},"geometry":{"type":"Point","coordinates":[-71.31,-35.77]}},{"type":"Feature","properties":{"n":"Chad","iso3":"TCD"},"geometry":{"type":"Point","coordinates":[18.64,15.33]}},{"type":"Feature","properties":{"n":"República Centroafricana","iso3":"CAF"},"geometry":{"type":"Point","coordinates":[20.47,6.57]}},{"type":"Feature","properties":{"n":"Cabo Verde","iso3":"CPV"},"geometry":{"type":"Point","coordinates":[-23.66,15.14]}},{"type":"Feature","properties":{"n":"Canadá","iso3":"CAN"},"geometry":{"type":"Point","coordinates":[-102.36,57.93]}},{"type":"Feature","properties":{"n":"Camerún","iso3":"CMR"},"geometry":{"type":"Point","coordinates":[12.74,5.7]}},{"type":"Feature","properties":{"n":"Camboya","iso3":"KHM"},"geometry":{"type":"Point","coordinates":[104.91,12.73]}},{"type":"Feature","properties":{"n":"Myanmar","iso3":"MMR"},"geometry":{"type":"Point","coordinates":[96.49,21.22]}},{"type":"Feature","properties":{"n":"Burundi","iso3":"BDI"},"geometry":{"type":"Point","coordinates":[29.88,-3.36]}},{"type":"Feature","properties":{"n":"Burkina Faso","iso3":"BFA"},"geometry":{"type":"Point","coordinates":[-1.77,12.26]}},{"type":"Feature","properties":{"n":"Bulgaria","iso3":"BGR"},"geometry":{"type":"Point","coordinates":[25.22,42.78]}},{"type":"Feature","properties":{"n":"Brunei Darussalam","iso3":"BRN"},"geometry":{"type":"Point","coordinates":[114.57,4.5]}},{"type":"Feature","properties":{"n":"Brasil","iso3":"BRA"},"geometry":{"type":"Point","coordinates":[-53.12,-10.84]}},{"type":"Feature","properties":{"n":"Botswana","iso3":"BWA"},"geometry":{"type":"Point","coordinates":[23.79,-22.19]}},{"type":"Feature","properties":{"n":"Bosnia y Herzegovina","iso3":"BIH"},"geometry":{"type":"Point","coordinates":[17.76,44.18]}},{"type":"Feature","properties":{"n":"Bolivia","iso3":"BOL"},"geometry":{"type":"Point","coordinates":[-64.68,-16.71]}},{"type":"Feature","properties":{"n":"Bután","iso3":"BTN"},"geometry":{"type":"Point","coordinates":[90.41,27.41]}},{"type":"Feature","properties":{"n":"Benin","iso3":"BEN"},"geometry":{"type":"Point","coordinates":[2.33,9.64]}},{"type":"Feature","properties":{"n":"Belice","iso3":"BLZ"},"geometry":{"type":"Point","coordinates":[-88.73,17.19]}},{"type":"Feature","properties":{"n":"Bélgica","iso3":"BEL"},"geometry":{"type":"Point","coordinates":[4.64,50.64]}},{"type":"Feature","properties":{"n":"Bielorrusia","iso3":"BLR"},"geometry":{"type":"Point","coordinates":[28.03,53.53]}},{"type":"Feature","properties":{"n":"Barbados","iso3":"BRB"},"geometry":{"type":"Point","coordinates":[-59.49,13.08]}},{"type":"Feature","properties":{"n":"Bangladesh","iso3":"BGD"},"geometry":{"type":"Point","coordinates":[90.22,23.89]}},{"type":"Feature","properties":{"n":"Bahrein","iso3":"BHR"},"geometry":{"type":"Point","coordinates":[50.55,26.03]}},{"type":"Feature","properties":{"n":"Bahamas","iso3":"BHS"},"geometry":{"type":"Point","coordinates":[-78.05,24.68]}},{"type":"Feature","properties":{"n":"Azerbaiyán","iso3":"AZE"},"geometry":{"type":"Point","coordinates":[47.67,40.34]}},{"type":"Feature","properties":{"n":"Austria","iso3":"AUT"},"geometry":{"type":"Point","coordinates":[14.12,47.59]}},{"type":"Feature","properties":{"n":"Australia","iso3":"AUS"},"geometry":{"type":"Point","coordinates":[134.35,-25.57]}},{"type":"Feature","properties":{"n":"Isla de Navidad","iso3":"CXR"},"geometry":{"type":"Point","coordinates":[105.72,-10.49]}},{"type":"Feature","properties":{"n":"Heard e Islas McDonald","iso3":"HMD"},"geometry":{"type":"Point","coordinates":[73.47,-53.1]}},{"type":"Feature","properties":{"n":"Isla Norfolk","iso3":"NFK"},"geometry":{"type":"Point","coordinates":[167.94,-29.02]}},{"type":"Feature","properties":{"n":"Armenia","iso3":"ARM"},"geometry":{"type":"Point","coordinates":[44.92,40.3]}},{"type":"Feature","properties":{"n":"Argentina","iso3":"ARG"},"geometry":{"type":"Point","coordinates":[-65.16,-35.19]}},{"type":"Feature","properties":{"n":"Antigua y Barbuda","iso3":"ATG"},"geometry":{"type":"Point","coordinates":[-61.72,17.04]}},{"type":"Feature","properties":{"n":"Angola","iso3":"AGO"},"geometry":{"type":"Point","coordinates":[17.56,-12.33]}},{"type":"Feature","properties":{"n":"Andorra","iso3":"AND"},"geometry":{"type":"Point","coordinates":[1.7,42.5]}},{"type":"Feature","properties":{"n":"Argelia","iso3":"DZA"},"geometry":{"type":"Point","coordinates":[2.62,28.16]}},{"type":"Feature","properties":{"n":"Albania","iso3":"ALB"},"geometry":{"type":"Point","coordinates":[20.05,41.15]}},{"type":"Feature","properties":{"n":"Afganistán","iso3":"AFG"},"geometry":{"type":"Point","coordinates":[66,33.84]}},{"type":"Feature","properties":{"n":"Sint Maarten (neerlandesa)","iso3":"SXM"},"geometry":{"type":"Point","coordinates":[-63.12,18.07]}}]}