{"type":"FeatureCollection","features":[{"type":"Feature","geometry":{"type":"MultiPolygon","coordinates":[[[[104.06,10.39],[104.02,10.03],[103.85,10.37],[104.06,10.39]]],[[[107.97,21.51],[107.41,21.28],[107.16,20.95],[106.68,21],[106.75,20.74],[106.52,20.29],[105.98,19.94],[105.79,19.29],[105.62,18.97],[105.89,18.5],[106.5,17.95],[106.48,17.72],[107.18,16.9],[108.03,16.33],[108.67,15.48],[108.82,15.38],[109.09,14.72],[109.3,13.86],[109.27,13.28],[109.42,12.96],[109.45,12.6],[109.22,12.65],[109.2,11.73],[108.99,11.34],[108.82,11.32],[108.27,10.93],[107.26,10.4],[107.01,10.66],[106.9,10.38],[106.47,10.3],[106.79,10.12],[106.6,9.86],[106.14,10.22],[106.51,9.82],[106.38,9.56],[105.83,10],[106.11,9.67],[106.17,9.4],[105.5,9.09],[105.12,8.63],[104.77,8.6],[104.85,9.61],[105.09,9.9],[105.03,10.07],[104.66,10.17],[104.43,10.41],[104.85,10.53],[105.02,10.89],[105.76,10.99],[106.16,10.8],[106.17,11.01],[105.86,11.3],[105.85,11.64],[106,11.76],[106.41,11.7],[106.42,11.95],[106.93,12.08],[107.16,12.28],[107.39,12.26],[107.56,12.54],[107.47,13.03],[107.61,13.44],[107.33,14.13],[107.52,14.7],[107.48,14.98],[107.65,15.25],[107.19,15.84],[107.4,16.04],[106.74,16.45],[106.54,16.65],[106.5,16.95],[105.69,17.74],[105.46,18.15],[105.09,18.45],[105.15,18.65],[104.72,18.8],[103.9,19.34],[104.03,19.67],[104.55,19.61],[104.93,20.02],[104.62,20.37],[104.37,20.44],[104.58,20.65],[104.05,20.94],[103.64,20.7],[103.1,20.89],[102.85,21.27],[102.95,21.68],[102.7,21.66],[102.58,21.9],[102.13,22.38],[102.43,22.73],[103.01,22.45],[103.3,22.76],[103.47,22.6],[103.62,22.78],[103.91,22.54],[104.05,22.75],[104.37,22.7],[104.8,22.91],[104.86,23.14],[105.27,23.34],[105.84,22.92],[106.54,22.91],[106.78,22.78],[106.54,22.4],[106.66,21.98],[107.01,21.89],[107.35,21.61],[107.8,21.65],[107.97,21.51]]],[[[106.62,8.68],[106.62,8.68],[106.62,8.68],[106.62,8.68]]],[[[107.17,10.4],[107.17,10.4],[107.17,10.4],[107.17,10.4]]],[[[106.87,20.82],[106.87,20.82],[106.87,20.82],[106.87,20.82]]],[[[107.6,21.22],[107.6,21.22],[107.6,21.22],[107.6,21.22]]],[[[107.52,20.93],[107.52,20.93],[107.52,20.93],[107.52,20.93]]],[[[107.03,20.75],[107.03,20.75],[107.03,20.75],[107.03,20.75]]]]},"properties":{"id":"ue_fiscal:VNM","n":"Vietnam","st":"ue_compromisos","p":"VNM","x":"Anexo II: compromisos pendientes (lista del 2026-10-09)","z":0}},{"type":"Feature","geometry":{"type":"Point","coordinates":[106.07,16.282]},"properties":{"id":"ue_fiscal:VNM:p","n":"Vietnam","st":"ue_compromisos","p":"VNM","x":"Anexo II: compromisos pendientes (lista del 2026-10-09)","z":0}},{"type":"Feature","geometry":{"type":"MultiPolygon","coordinates":[[[[166.74,-14.83],[166.81,-15.16],[167.08,-14.94],[167.2,-15.49],[166.83,-15.64],[166.63,-15.41],[166.53,-14.85],[166.74,-14.83]]],[[[167.41,-16.1],[167.84,-16.45],[167.45,-16.56],[167.2,-15.89],[167.41,-16.1]]],[[[168.45,-16.78],[168.18,-16.8],[168.2,-16.59],[168.45,-16.78]]],[[[168.3,-16.34],[167.93,-16.23],[168.16,-16.08],[168.3,-16.34]]],[[[168.45,-17.54],[168.52,-17.8],[168.16,-17.71],[168.45,-17.54]]],[[[167.91,-15.44],[167.91,-15.44],[167.91,-15.44],[167.91,-15.44]]],[[[168.21,-15.97],[168.21,-15.97],[168.21,-15.97],[168.21,-15.97]]],[[[168.19,-15.33],[168.19,-15.33],[168.19,-15.33],[168.19,-15.33]]],[[[167.22,-15.72],[167.22,-15.72],[167.22,-15.72],[167.22,-15.72]]],[[[167.58,-14.26],[167.58,-14.26],[167.58,-14.26],[167.58,-14.26]]],[[[167.49,-13.91],[167.49,-13.91],[167.49,-13.91],[167.49,-13.91]]],[[[169.89,-20.19],[169.89,-20.19],[169.89,-20.19],[169.89,-20.19]]],[[[169.49,-19.54],[169.22,-19.48],[169.34,-19.33],[169.49,-19.54]]],[[[169.33,-18.94],[168.99,-18.87],[169.14,-18.63],[169.33,-18.94]]]]},"properties":{"id":"ue_fiscal:VUT","n":"Vanuatu","st":"ue_no_cooperativa","p":"VUT","x":"Anexo I: no cooperativa (lista del 2026-10-09)","z":0}},{"type":"Feature","geometry":{"type":"Point","coordinates":[166.82,-15.144]},"properties":{"id":"ue_fiscal:VUT:p","n":"Vanuatu","st":"ue_no_cooperativa","p":"VUT","x":"Anexo I: no cooperativa (lista del 2026-10-09)","z":0}},{"type":"Feature","geometry":{"type":"MultiPolygon","coordinates":[[[[-64.85,18.33],[-64.85,18.33],[-64.85,18.33],[-64.85,18.33]]],[[[-64.66,18.35],[-64.66,18.35],[-64.66,18.35],[-64.66,18.35]]],[[[-64.77,17.79],[-64.77,17.79],[-64.77,17.79],[-64.77,17.79]]]]},"properties":{"id":"ue_fiscal:VIR","n":"Islas Vírgenes de los Estados Unidos","st":"ue_no_cooperativa","p":"VIR","x":"Anexo I: no cooperativa (lista del 2026-10-09)","z":0}},{"type":"Feature","geometry":{"type":"Point","coordinates":[-64.85,18.33]},"properties":{"id":"ue_fiscal:VIR:p","n":"Islas Vírgenes de los Estados Unidos","st":"ue_no_cooperativa","p":"VIR","x":"Anexo I: no cooperativa (lista del 2026-10-09)","z":0}},{"type":"Feature","geometry":{"type":"Polygon","coordinates":[[[144.74,13.26],[144.65,13.43],[144.94,13.57],[144.74,13.26]]]},"properties":{"id":"ue_fiscal:GUM","n":"Guam","st":"ue_no_cooperativa","p":"GUM","x":"Anexo I: no cooperativa (lista del 2026-10-09)","z":0}},{"type":"Feature","geometry":{"type":"Point","coordinates":[144.768,13.38]},"properties":{"id":"ue_fiscal:GUM:p","n":"Guam","st":"ue_no_cooperativa","p":"GUM","x":"Anexo I: no cooperativa (lista del 2026-10-09)","z":0}},{"type":"Feature","geometry":{"type":"Polygon","coordinates":[[[-170.73,-14.35],[-170.73,-14.35],[-170.73,-14.35],[-170.73,-14.35]]]},"properties":{"id":"ue_fiscal:ASM","n":"Samoa Americana","st":"ue_no_cooperativa","p":"ASM","x":"Anexo I: no cooperativa (lista del 2026-10-09)","z":0}},{"type":"Feature","geometry":{"type":"Point","coordinates":[-170.73,-14.35]},"properties":{"id":"ue_fiscal:ASM:p","n":"Samoa Americana","st":"ue_no_cooperativa","p":"ASM","x":"Anexo I: no cooperativa (lista del 2026-10-09)","z":0}},{"type":"Feature","geometry":{"type":"Polygon","coordinates":[[[-63,18.22],[-63,18.22],[-63,18.22],[-63,18.22]]]},"properties":{"id":"ue_fiscal:AIA","n":"Anguila","st":"ue_no_cooperativa","p":"AIA","x":"Anexo I: no cooperativa (lista del 2026-10-09)","z":0}},{"type":"Feature","geometry":{"type":"Point","coordinates":[-63.0,18.22]},"properties":{"id":"ue_fiscal:AIA:p","n":"Anguila","st":"ue_no_cooperativa","p":"AIA","x":"Anexo I: no cooperativa (lista del 2026-10-09)","z":0}},{"type":"Feature","geometry":{"type":"MultiPolygon","coordinates":[[[[-64.4,18.46],[-64.4,18.46],[-64.4,18.46],[-64.4,18.46]]],[[[-64.59,18.4],[-64.59,18.4],[-64.59,18.4],[-64.59,18.4]]],[[[-64.29,18.74],[-64.29,18.74],[-64.29,18.74],[-64.29,18.74]]]]},"properties":{"id":"ue_fiscal:VGB","n":"Islas Vírgenes británicas","st":"ue_compromisos","p":"VGB","x":"Anexo II: compromisos pendientes (lista del 2026-10-09)","z":0}},{"type":"Feature","geometry":{"type":"Point","coordinates":[-64.4,18.46]},"properties":{"id":"ue_fiscal:VGB:p","n":"Islas Vírgenes británicas","st":"ue_compromisos","p":"VGB","x":"Anexo II: compromisos pendientes (lista del 2026-10-09)","z":0}},{"type":"Feature","geometry":{"type":"MultiPolygon","coordinates":[[[[-71.66,21.76],[-71.66,21.76],[-71.66,21.76],[-71.66,21.76]]],[[[-71.88,21.84],[-71.88,21.84],[-71.88,21.84],[-71.88,21.84]]],[[[-72.33,21.85],[-72.33,21.85],[-72.33,21.85],[-72.33,21.85]]]]},"properties":{"id":"ue_fiscal:TCA","n":"Islas Turcas y Caicos","st":"ue_no_cooperativa","p":"TCA","x":"Anexo I: no cooperativa (lista del 2026-10-09)","z":0}},{"type":"Feature","geometry":{"type":"Point","coordinates":[-71.66,21.76]},"properties":{"id":"ue_fiscal:TCA:p","n":"Islas Turcas y Caicos","st":"ue_no_cooperativa","p":"TCA","x":"Anexo I: no cooperativa (lista del 2026-10-09)","z":0}},{"type":"Feature","geometry":{"type":"MultiPolygon","coordinates":[[[[25.97,40.14],[25.97,40.14],[25.97,40.14],[25.97,40.14]]],[[[41.51,41.52],[42.47,41.44],[42.79,41.56],[43.44,41.11],[43.72,40.72],[43.57,40.48],[43.71,40.17],[44.01,40.01],[44.29,40.04],[44.77,39.7],[44.82,39.65],[44.59,39.77],[44.39,39.42],[44.02,39.38],[44.27,38.84],[44.32,38.37],[44.43,38.36],[44.21,37.91],[44.56,37.74],[44.57,37.44],[44.76,37.14],[44.28,36.98],[44.16,37.28],[43.52,37.24],[42.77,37.37],[42.36,37.11],[42.27,37.28],[41.51,37.09],[40.71,37.1],[40.02,36.83],[39.36,36.68],[38.77,36.69],[38.19,36.9],[37.43,36.64],[37.07,36.65],[36.66,36.8],[36.54,36.46],[36.64,36.23],[36.38,36.17],[36.15,35.83],[35.89,35.92],[35.81,36.31],[36.19,36.66],[36.05,36.91],[35.39,36.57],[34.81,36.8],[34.6,36.78],[34.02,36.34],[33.69,36.18],[32.79,36.04],[32.38,36.18],[32.02,36.53],[31.35,36.8],[30.65,36.87],[30.39,36.24],[30.23,36.31],[29.69,36.16],[29.14,36.4],[29.04,36.69],[28.31,36.81],[27.66,36.68],[28.24,37.03],[27.35,37.02],[27.53,37.16],[27.22,37.39],[27.08,37.69],[27.23,37.98],[26.29,38.28],[26.51,38.63],[26.6,38.42],[27.1,38.41],[26.76,38.71],[27.01,38.89],[26.68,39.29],[26.83,39.56],[26.11,39.47],[26.18,39.99],[26.74,40.4],[27.28,40.46],[27.48,40.32],[27.85,40.38],[29.05,40.42],[28.96,40.63],[29.85,40.74],[29.36,40.81],[29.05,41.01],[29.32,41.23],[29.92,41.15],[30.35,41.2],[30.81,41.08],[31.25,41.11],[31.46,41.32],[32.3,41.73],[33.38,42.02],[34.75,41.96],[35,42.06],[35.3,41.73],[35.56,41.63],[36.05,41.68],[36.18,41.43],[36.51,41.26],[36.78,41.36],[37.07,41.18],[38.38,40.93],[39.43,41.11],[39.81,40.98],[40.26,40.96],[40.96,41.21],[41.51,41.52]]],[[[28.01,41.97],[27.99,41.86],[28.34,41.47],[29.06,41.23],[28.78,40.97],[28.17,41.08],[27.5,40.97],[27.26,40.69],[26.77,40.5],[26.2,40.07],[26.25,40.31],[26.79,40.63],[26.11,40.61],[26.04,40.73],[26.33,40.95],[26.33,41.24],[26.62,41.4],[26.58,41.6],[26.32,41.72],[26.58,41.95],[27.29,42.08],[27.53,41.92],[28.01,41.97]]]]},"properties":{"id":"ue_fiscal:TUR","n":"Turquía","st":"ue_compromisos","p":"TUR","x":"Anexo II: compromisos pendientes (lista del 2026-10-09)","z":0}},{"type":"Feature","geometry":{"type":"Point","coordinates":[35.383,38.782]},"properties":{"id":"ue_fiscal:TUR:p","n":"Turquía","st":"ue_compromisos","p":"TUR","x":"Anexo II: compromisos pendientes (lista del 2026-10-09)","z":0}},{"type":"Feature","geometry":{"type":"Polygon","coordinates":[[[31.95,-25.96],[32.06,-26.02],[32.11,-26.84],[32,-26.82],[31.96,-27.31],[31.47,-27.3],[31.06,-27.11],[30.79,-26.77],[30.8,-26.41],[31.21,-25.84],[31.42,-25.75],[31.95,-25.96]]]},"properties":{"id":"ue_fiscal:SWZ","n":"Esuatini","st":"ue_compromisos","p":"SWZ","x":"Anexo II: compromisos pendientes (lista del 2026-10-09)","z":0}},{"type":"Feature","geometry":{"type":"Point","coordinates":[31.565,-26.507]},"properties":{"id":"ue_fiscal:SWZ:p","n":"Esuatini","st":"ue_compromisos","p":"SWZ","x":"Anexo II: compromisos pendientes (lista del 2026-10-09)","z":0}},{"type":"Feature","geometry":{"type":"MultiPolygon","coordinates":[[[[145.88,43.46],[145.88,43.46],[145.88,43.46],[145.88,43.46]]],[[[146.36,43.62],[146.36,43.62],[146.36,43.62],[146.36,43.62]]],[[[146.04,43.41],[146.04,43.41],[146.04,43.41],[146.04,43.41]]],[[[137.18,55.1],[137.06,54.93],[136.71,54.96],[137.18,55.1]]],[[[150.59,59.02],[150.59,59.02],[150.59,59.02],[150.59,59.02]]],[[[120.26,73.09],[120.26,73.09],[120.26,73.09],[120.26,73.09]]],[[[124.54,73.85],[124.54,73.85],[124.54,73.85],[124.54,73.85]]],[[[106.27,78.21],[106.46,78.34],[106.72,78.26],[106.27,78.21]]],[[[107.42,77.24],[107.42,77.24],[107.42,77.24],[107.42,77.24]]],[[[97.59,76.6],[97.59,76.6],[97.59,76.6],[97.59,76.6]]],[[[96.85,76.2],[96.85,76.2],[96.85,76.2],[96.85,76.2]]],[[[100.14,79.61],[100.14,79.61],[100.14,79.61],[100.14,79.61]]],[[[76.75,73.45],[76.75,73.45],[76.75,73.45],[76.75,73.45]]],[[[82.71,74.09],[82.71,74.09],[82.71,74.09],[82.71,74.09]]],[[[84.76,74.46],[84.76,74.46],[84.76,74.46],[84.76,74.46]]],[[[86.65,74.98],[87.12,74.94],[86.93,74.83],[86.39,74.85],[86.65,74.98]]],[[[59.31,81.3],[58.72,81.31],[59.07,81.4],[59.31,81.3]]],[[[130.69,42.3],[130.53,42.54],[130.42,42.73],[131.07,42.9],[131.26,43.38],[131.17,43.7],[131.26,44.07],[131.06,44.66],[131.08,44.91],[131.45,44.98],[131.85,45.33],[131.98,45.24],[132.94,45.03],[133.11,45.13],[133.19,45.49],[133.44,45.61],[133.51,45.88],[133.86,46.25],[133.87,46.5],[134.2,47.13],[134.17,47.3],[134.48,47.45],[134.75,47.71],[134.57,48.02],[134.56,48.32],[134.29,48.37],[133.47,48.1],[133.15,48.11],[132.71,47.95],[132.56,47.77],[131.78,47.68],[131,47.69],[130.73,48.02],[130.81,48.34],[130.55,48.6],[130.55,48.86],[130.2,48.89],[129.5,49.39],[129.12,49.36],[128.77,49.58],[128,49.57],[127.5,49.87],[127.59,50.21],[127.4,50.3],[127.35,50.62],[126.92,51.1],[126.81,51.51],[126.51,51.93],[126.31,52.4],[126.02,52.61],[126.05,52.74],[125.65,53.04],[125.07,53.2],[124.81,53.13],[123.61,53.55],[122.09,53.45],[120.98,53.28],[120.1,52.79],[120.07,52.63],[120.66,52.57],[120.68,51.97],[120.07,51.6],[119.16,50.41],[119.35,50.28],[119.26,50.07],[118.45,49.84],[117.87,49.51],[117.24,49.62],[116.68,49.82],[116.14,50.01],[115.72,49.88],[115.27,49.95],[114.74,50.23],[114.3,50.27],[113.17,49.8],[113.06,49.62],[112.08,49.42],[111.34,49.36],[110.83,49.17],[110.2,49.17],[109.24,49.33],[108.61,49.32],[108.04,49.59],[107.95,49.92],[107.23,49.99],[106.71,50.31],[106.22,50.3],[105.38,50.47],[104.47,50.31],[104.18,50.17],[103.63,50.14],[102.68,50.39],[102.29,50.58],[102.11,51.35],[101.38,51.45],[100.47,51.73],[99.92,51.76],[98.89,52.12],[98.64,51.8],[98.35,51.72],[97.95,51.35],[97.83,50.99],[98.03,50.65],[98.28,50.53],[98.1,50.08],[97.21,49.73],[96.99,49.88],[96.31,49.9],[95.85,50.01],[95.11,49.94],[94.61,50.02],[94.36,50.22],[94.25,50.56],[93.1,50.6],[92.94,50.78],[92.63,50.69],[92.35,50.86],[92.19,50.7],[91.8,50.69],[90.65,50.22],[90.01,50.07],[89.64,49.9],[89.65,49.72],[89.01,49.47],[88.19,49.45],[88.12,49.26],[87.81,49.16],[87.32,49.09],[86.62,49.61],[86.61,49.77],[86.18,49.5],[85.21,49.66],[84.99,50.06],[84.32,50.24],[83.94,50.78],[83.36,50.99],[82.76,50.89],[82.49,50.73],[81.47,50.74],[81.39,50.96],[81.07,50.97],[81.13,51.19],[80.88,51.28],[80.45,51.18],[80.42,50.95],[79.99,50.78],[79.47,51.49],[78.48,52.64],[77.7,53.38],[76.57,53.94],[76.42,54.15],[76.65,54.14],[76.84,54.44],[75.66,54.11],[75.05,53.83],[74.45,53.65],[74.35,53.49],[73.86,53.62],[73.37,53.45],[73.4,53.81],[73.68,53.93],[72.62,54.13],[72.41,53.96],[72.27,54.27],[71.34,54.16],[71.09,54.21],[71.19,54.6],[70.74,55.3],[70.18,55.16],[69.49,55.36],[68.98,55.39],[68.24,55.05],[67.69,54.87],[66.22,54.67],[65.48,54.62],[65.16,54.36],[64.46,54.38],[63.07,54.1],[61.93,53.95],[61.33,54.05],[61.14,53.96],[60.98,53.62],[61.53,53.52],[61.23,53.45],[61.2,53.29],[62.02,53.11],[61.97,52.94],[61.05,52.97],[60.8,52.74],[60.98,52.39],[60.67,52.15],[60.06,51.98],[60.46,51.65],[61.36,51.44],[61.58,51.23],[61.39,50.86],[60.94,50.7],[60.29,50.7],[60,50.84],[59.81,50.58],[58.88,50.69],[58.36,51.06],[57.84,51.09],[57.44,50.89],[57.01,51.07],[56.49,51.02],[55.8,50.6],[55.54,50.6],[54.64,51.01],[54.65,50.66],[54.04,51.12],[53.34,51.48],[52.57,51.48],[52.33,51.68],[52.01,51.67],[51.61,51.48],[51.35,51.47],[51.16,51.65],[50.79,51.73],[50.25,51.29],[49.5,51.08],[49.32,50.85],[48.81,50.6],[48.62,50.61],[48.84,50.01],[48.43,49.83],[47.71,50.38],[47.33,50.27],[47.3,50.06],[46.99,49.85],[46.8,49.37],[47.01,49.1],[46.7,48.8],[46.66,48.41],[47,48.28],[47.09,47.95],[47.29,47.74],[47.48,47.8],[48.11,47.75],[48.55,47.32],[48.96,46.77],[48.56,46.76],[48.61,46.57],[49.23,46.34],[48.69,46.09],[48.26,45.78],[47.53,45.6],[47.08,44.82],[46.76,44.66],[46.75,44.42],[47.02,44.34],[47.36,43.99],[47.51,43.51],[47.46,43.03],[48.57,41.85],[48.39,41.6],[48.06,41.46],[47.86,41.21],[47.26,41.32],[47.21,41.46],[46.75,41.81],[46.43,41.89],[45.64,42.2],[45.73,42.48],[45.34,42.53],[44.87,42.76],[44.77,42.62],[44.51,42.75],[43.96,42.57],[43.78,42.75],[43.09,42.99],[42.99,43.09],[42.42,43.22],[41.58,43.22],[40.65,43.53],[40.15,43.57],[39.98,43.42],[38.72,44.29],[38.18,44.42],[37.85,44.7],[37.41,44.74],[37.2,44.97],[36.65,45.13],[36.94,45.29],[37.65,45.38],[37.67,45.65],[37.93,46],[38.49,46.09],[37.77,46.64],[38.5,46.66],[38.44,46.81],[39.29,47.11],[39.2,47.27],[38.21,47.09],[38.29,47.56],[38.9,47.86],[39.74,47.84],[39.96,48.27],[39.84,48.54],[39.65,48.59],[39.99,48.85],[39.68,49.01],[40.11,49.25],[40.03,49.6],[39.78,49.57],[39.17,49.86],[38.92,49.82],[38.26,50.05],[38.05,49.92],[37.7,50.11],[37.42,50.41],[36.62,50.21],[35.89,50.44],[35.67,50.35],[35.41,50.54],[35.31,51.04],[35.06,51.2],[34.23,51.24],[34.12,51.68],[34.4,51.78],[33.73,52.34],[33.15,52.34],[32.9,52.26],[32.51,52.31],[32.28,52.11],[31.76,52.1],[31.58,52.31],[31.53,52.8],[31.26,53.02],[31.42,53.2],[32.14,53.09],[32.7,53.34],[32.45,53.69],[31.75,53.81],[31.79,54.06],[31.4,54.2],[31.16,54.61],[30.8,54.78],[30.98,55.05],[30.81,55.28],[30.91,55.57],[30.45,55.79],[29.94,55.85],[29.48,55.68],[29.37,55.94],[29.09,56.02],[28.74,55.96],[28.56,56.09],[28.15,56.14],[28.1,56.55],[27.8,56.87],[27.64,56.85],[27.84,57.25],[27.35,57.53],[27.54,57.8],[27.75,57.84],[27.49,58.27],[27.46,58.84],[28.01,59.48],[28.01,59.72],[28.33,59.69],[28.52,59.85],[28.95,59.83],[29.15,60],[30.12,59.87],[30.17,59.96],[29.72,60.19],[29.07,60.19],[28.64,60.38],[28.51,60.68],[27.8,60.54],[28.41,60.9],[29.25,61.29],[31.29,62.57],[31.53,62.89],[31.18,63.21],[30.42,63.5],[30,63.75],[30.5,64.02],[30.51,64.2],[30.11,64.37],[30.07,64.77],[29.6,64.97],[29.81,65.11],[29.63,65.22],[29.82,65.57],[30.09,65.68],[29.9,66.09],[29.09,66.85],[29.09,66.97],[29.94,67.55],[29.98,67.69],[29.34,68.06],[28.69,68.19],[28.47,68.49],[28.75,68.77],[28.41,68.9],[28.96,69.02],[29.39,69.3],[29.99,69.39],[30.23,69.63],[30.86,69.54],[30.87,69.78],[31.45,69.69],[32.03,69.83],[31.98,69.95],[32.94,69.75],[33,69.63],[32.18,69.67],[32.38,69.48],[33.38,69.44],[33.33,69.15],[33.68,69.31],[34.23,69.31],[34.86,69.23],[35.29,69.28],[35.86,69.19],[37.73,68.69],[38.43,68.36],[38.83,68.32],[39.57,68.07],[39.75,68.16],[40.38,67.83],[40.97,67.71],[41.13,67.27],[41.36,67.21],[41.19,66.83],[40.52,66.45],[40.1,66.3],[39.29,66.13],[38.4,66.06],[37.63,66.13],[37.29,66.23],[35.51,66.4],[34.82,66.61],[33.48,66.76],[32.85,67.02],[32.93,67.09],[31.89,67.16],[32.5,67],[32.46,66.92],[33.22,66.53],[33.65,66.44],[33.36,66.33],[34.11,66.23],[34.79,65.86],[34.62,65.51],[34.41,65.4],[34.8,64.99],[34.87,64.56],[35.43,64.35],[35.65,64.38],[36.15,64.19],[36.37,64],[37.44,63.81],[38.07,64.03],[37.95,64.32],[37.18,64.41],[36.53,64.85],[36.88,65.17],[37.53,65.11],[38.01,64.88],[39.76,64.58],[40.06,64.77],[40.44,64.78],[40.28,65],[39.8,65.35],[39.82,65.6],[40.33,65.75],[40.69,65.96],[41.47,66.12],[42.21,66.52],[42.6,66.42],[43.23,66.41],[44.11,66.01],[44.1,66.23],[44.49,66.67],[44.29,67.1],[43.85,67.19],[43.86,67.44],[44.22,68],[44.17,68.33],[43.4,68.61],[43.47,68.68],[44.05,68.55],[45.08,68.58],[45.89,68.48],[46.68,67.97],[46.69,67.85],[45.53,67.76],[44.94,67.48],[44.94,67.35],[45.56,67.19],[45.99,66.85],[46.49,66.8],[47.66,66.98],[47.91,67.45],[47.88,67.58],[48.88,67.73],[48.7,67.87],[49.16,67.87],[50.84,68.35],[51.99,68.54],[52.32,68.34],[52.72,68.48],[52.34,68.61],[52.68,68.73],[53.8,69],[54.49,68.99],[53.87,68.93],[53.76,68.63],[53.93,68.44],[53.26,68.27],[53.97,68.23],[54.56,68.27],[54.86,68.2],[54.92,68.37],[55.42,68.57],[56.04,68.65],[57.13,68.55],[58.17,68.89],[59.06,69.01],[59.37,68.74],[59.1,68.44],[59.6,68.35],[59.9,68.42],[59.9,68.71],[60.49,68.73],[60.93,68.99],[60.67,69.11],[60.17,69.59],[61.02,69.85],[61.77,69.76],[63.36,69.68],[64.19,69.53],[65.03,69.27],[66.42,68.95],[67,68.87],[67.73,68.51],[68.37,68.31],[68.83,68.57],[69.14,68.95],[68.54,68.97],[68.12,69.24],[68.01,69.48],[67.06,69.69],[66.8,69.66],[66.93,70.01],[67.15,70.22],[67.29,70.74],[66.82,70.8],[66.64,71.08],[66.92,71.28],[67.54,71.41],[68.27,71.68],[68.61,72.01],[69.04,72.67],[69.39,72.96],[69.64,72.9],[71.5,72.91],[72.45,72.79],[72.81,72.69],[72.63,72.08],[72.28,71.7],[71.87,71.46],[72.58,71.15],[72.73,70.82],[72.7,70.46],[72.47,70.28],[72.6,69.79],[72.53,69.08],[72.68,68.87],[73.55,68.57],[73.14,68.18],[73.15,67.86],[72.59,67.59],[71.85,67.01],[71.37,66.96],[71.55,66.76],[70.72,66.52],[69.88,66.85],[69.01,66.79],[69.19,66.58],[70.34,66.34],[71.15,66.37],[71.92,66.25],[72.32,66.33],[72.42,66.56],[73.51,66.86],[73.79,66.99],[74.08,67.41],[74.77,67.77],[74.74,68.07],[74.39,68.42],[74.58,68.75],[75.12,68.86],[76.46,68.98],[77.24,68.47],[77.18,67.78],[77.68,67.59],[78.92,67.59],[77.59,67.75],[77.67,68.19],[78,68.26],[77.65,68.9],[76,69.24],[75.42,69.24],[74.81,69.09],[73.98,69.11],[73.78,69.2],[73.89,69.42],[73.56,69.71],[73.83,70.18],[74.34,70.58],[73.51,71.26],[73.09,71.44],[73.67,71.85],[74.99,72.15],[75.1,72.42],[74.79,72.81],[75.37,72.8],[75.74,72.3],[75.25,71.81],[75.5,71.65],[75.33,71.34],[76.11,71.22],[77.59,71.17],[78.07,70.99],[78.59,70.99],[78.21,71.27],[77.48,71.31],[76.31,71.6],[76.03,71.91],[76.42,72.01],[77.06,72],[77.55,71.84],[78.23,71.95],[78.02,72.09],[77.49,72.07],[77.47,72.19],[78.48,72.4],[79.42,72.38],[79.95,72.22],[80.76,72.09],[80.86,71.97],[81.51,71.75],[82.08,71.71],[82.99,71.75],[83.23,71.67],[82.92,71.42],[82.32,71.26],[82.24,71],[82.26,70.54],[82.59,70.89],[83.01,70.9],[82.92,70.41],[82.68,70.22],[83.08,70.09],[83.07,70.28],[83.5,70.35],[83.74,70.55],[83.15,71.1],[83.57,71.6],[83.2,71.87],[82.64,71.92],[82.18,72.24],[81.28,72.36],[80.83,72.49],[80.66,72.71],[80.84,72.95],[80.51,73.09],[80.4,73.36],[80.58,73.57],[81.82,73.66],[83.54,73.67],[84.74,73.76],[85.45,73.73],[85.61,73.82],[86.59,73.89],[87.03,73.82],[85.83,73.49],[85.82,73.33],[86.68,73.11],[85.97,73.35],[85.94,73.46],[86.38,73.57],[87.12,73.62],[87.57,73.81],[87.21,73.88],[86.57,74.24],[86,74.32],[86.18,74.42],[87.23,74.36],[86.42,74.59],[85.79,74.65],[86.2,74.82],[86.65,74.68],[87.42,74.94],[86.94,75.07],[87.17,75.19],[87.67,75.13],[89.31,75.47],[89.6,75.46],[90.19,75.59],[91.48,75.65],[91.85,75.72],[93.55,75.85],[94.16,75.96],[92.89,75.91],[92.97,76.08],[93.65,76.05],[94.57,76.15],[96.08,76.08],[95.65,75.89],[96.51,76.01],[96.5,75.89],[98.66,76.24],[99.56,76.11],[99.85,75.93],[99.82,76.14],[98.8,76.48],[100.32,76.48],[100.84,76.53],[101.1,76.7],[100.99,76.99],[101.52,77.2],[103.13,77.63],[104.01,77.73],[105.71,77.53],[106.06,77.39],[105.39,77.24],[104.2,77.1],[105.64,77.1],[105.71,77],[106.94,77.03],[107.43,76.93],[106.42,76.51],[107.62,76.51],[108.03,76.72],[109.37,76.75],[109.98,76.71],[110.47,76.76],[111.11,76.72],[111.79,76.6],[112.62,76.38],[112.8,76.13],[113.27,76.25],[113.56,75.89],[113.87,75.86],[113.62,75.59],[112.63,75.84],[112.96,75.57],[113.16,75.62],[113.73,75.45],[113.62,75.29],[112.92,75.02],[111.87,74.74],[111.3,74.66],[109.84,74.32],[109.81,74.17],[109.08,74.03],[108.2,73.69],[107.27,73.62],[106.68,73.33],[106.19,73.31],[105.68,72.96],[105.14,72.78],[105.71,72.84],[106.48,73.14],[107.75,73.17],[108.35,73.31],[109.09,73.38],[109.33,73.49],[109.86,73.47],[110.87,73.73],[109.75,73.72],[109.87,73.93],[110.26,74.02],[111.06,73.94],[111.13,74.05],[111.4,73.83],[112.15,73.71],[112.79,73.75],[112.84,73.96],[113.42,73.65],[113.16,73.46],[113.49,73.35],[113.47,73.05],[113.13,72.83],[113.31,72.66],[113.71,72.65],[113.22,72.81],[113.54,73.06],[113.56,73.23],[113.89,73.35],[113.51,73.5],[114.06,73.58],[114.82,73.61],[115.34,73.7],[116.5,73.68],[117.31,73.6],[118.45,73.59],[118.94,73.48],[118.46,73.46],[118.43,73.25],[119.75,72.98],[121,72.94],[121.88,72.96],[122.03,72.9],[122.75,72.91],[122.62,73.03],[123.16,72.95],[123.62,73.19],[123.31,73.53],[123.49,73.67],[123.8,73.63],[124.39,73.75],[125.62,73.52],[125.6,73.45],[126.26,73.55],[126.55,73.33],[127.03,73.55],[127.74,73.48],[128.89,73.19],[129.05,73.04],[128.6,72.9],[129.02,72.87],[129.25,72.7],[128.42,72.53],[129.12,72.49],[129.41,72.32],[129.28,72.09],[128.93,72.08],[127.8,72.43],[127.84,72.31],[128.36,72.09],[128.91,71.75],[129.21,71.92],[129.46,71.74],[128.84,71.66],[129.14,71.59],[129.76,71.12],[130.28,70.95],[131.16,70.74],[131.56,70.9],[131.91,71.2],[132.23,71.64],[132.65,71.93],[132.77,71.8],[133.43,71.49],[134.1,71.38],[134.7,71.39],[135.02,71.52],[135.89,71.63],[136.41,71.57],[137.84,71.23],[138.32,71.33],[137.92,71.38],[138.12,71.57],[138.67,71.64],[139.21,71.44],[139.99,71.49],[139.69,71.7],[139.64,72],[140.13,72.21],[139.18,72.16],[139.14,72.33],[139.6,72.5],[140.45,72.49],[141.08,72.59],[140.71,72.89],[141.31,72.86],[142.06,72.72],[143.52,72.7],[145.2,72.57],[146.25,72.44],[146.24,72.35],[144.78,72.38],[144.17,72.26],[144.47,72.17],[145.04,72.26],[146.6,72.3],[146.81,72.24],[146,71.95],[146.23,72.14],[145.71,72.21],[145.76,71.94],[145.13,71.93],[145.19,71.7],[145.8,71.75],[146.37,71.92],[146.89,72.2],[147.43,72.34],[148.4,72.31],[149.5,72.16],[149.96,71.99],[149.88,71.84],[149.05,71.8],[148.97,71.69],[149.5,71.66],[150.06,71.51],[150.67,71.45],[150.24,71.27],[150.97,71.38],[151.58,71.29],[152.09,71.02],[151.76,70.98],[152.51,70.83],[153.8,70.88],[155.03,71.03],[155.89,71.1],[158.04,71.04],[159.35,70.79],[159.73,70.65],[160.01,70.31],[159.73,69.87],[159.83,69.78],[160.91,69.61],[161.04,69.1],[161.56,68.9],[161.54,69.38],[162.37,69.65],[163.2,69.72],[164.16,69.72],[164.51,69.61],[165.76,69.58],[166.89,69.5],[167.63,69.74],[168.15,69.58],[168.3,69.27],[169.31,69.08],[169.61,68.79],[170.54,68.83],[171,69.04],[170.58,69.58],[170.16,69.63],[170.5,69.86],[170.49,70.11],[172.56,69.97],[173.28,69.82],[173.44,69.95],[173.73,69.89],[174.79,69.86],[175.75,69.9],[176.93,69.65],[178.85,69.39],[179.87,69.01],[180,68.98],[181.13,68.75],[181.31,68.55],[181.9,68.43],[181.94,68.27],[182.2,68.34],[184.65,67.68],[184.77,67.45],[185.15,67.35],[185.06,67.09],[185.23,66.78],[185.08,66.62],[185.5,66.54],[185.63,66.35],[185.91,66.47],[185.98,66.23],[186.22,66.43],[185.77,66.63],[185.99,66.78],[185.91,66.94],[185.55,67.1],[186.32,67.14],[186.84,67.07],[186.77,66.97],[188.2,66.93],[188.64,66.68],[189.07,66.53],[189.76,66.17],[190.22,66.14],[189.6,65.93],[189.33,65.62],[188.55,65.79],[188.95,65.55],[188.09,65.5],[187.56,65.67],[187.22,65.68],[187.77,65.45],[187.79,65.05],[187.41,64.91],[187,64.88],[187.1,64.63],[187.51,64.54],[187.6,64.41],[187.05,64.51],[186.99,64.3],[186,64.45],[185.68,64.64],[184.96,64.81],[184.6,64.8],[184.15,65.01],[184.14,65.23],[183.91,65.47],[182.94,65.61],[182.51,65.5],[181.69,65.48],[181.5,65.74],[181.06,66.03],[181.25,66.01],[181.47,66.4],[181.08,66.18],[180.89,66.35],[180.67,66.16],[180.22,66.02],[180.27,65.8],[180.65,65.52],[180.3,65.19],[180,65.07],[179.83,65.03],[179.45,64.82],[178.52,64.6],[177.75,64.72],[177.18,65.01],[177.07,64.79],[176.06,64.96],[176.35,64.7],[176.73,64.63],[177.39,64.77],[177.43,64.44],[177.95,64.22],[178.23,64.36],[178.65,63.97],[178.79,63.54],[179.03,63.28],[179.33,63.19],[179.26,63.01],[179.57,62.69],[179.18,62.47],[179.12,62.32],[178.02,62.55],[177.29,62.6],[177.34,62.78],[177.02,62.78],[177.16,62.56],[176.7,62.51],[176.33,62.35],[174.72,61.95],[174.51,61.82],[173.62,61.72],[173.13,61.41],[172.4,61.17],[172.39,61.06],[170.95,60.52],[170.61,60.43],[170.35,59.97],[169.98,60.07],[169.62,60.44],[169.23,60.6],[168.14,60.57],[167.23,60.41],[166.96,60.31],[166.33,59.87],[166.14,59.98],[166.35,60.48],[165.09,60.1],[165.02,59.86],[164.38,60.06],[163.78,60.04],[163.41,59.84],[163.27,59.3],[163,59.02],[162.45,58.71],[162.14,58.45],[161.96,58.08],[162.04,57.92],[162.47,57.77],[162.72,57.95],[163.23,57.79],[163.19,57.64],[162.78,57.36],[162.8,56.81],[163.26,56.69],[163.34,56.23],[163.05,56.04],[162.63,56.23],[162.98,56.45],[162.67,56.49],[162.53,56.26],[162.09,56.09],[161.78,55.66],[161.73,55.36],[162.1,54.75],[161.73,54.53],[161.13,54.6],[160.77,54.54],[160.07,54.19],[159.84,53.78],[160.02,53.13],[159.58,53.24],[158.95,53.05],[158.61,52.87],[158.46,52.3],[158.1,51.81],[156.75,50.97],[156.54,51.31],[156.37,52.51],[156.1,53.01],[155.9,53.93],[155.62,54.87],[155.56,55.35],[155.72,56.07],[155.98,56.7],[156.73,57.15],[156.98,57.47],[156.79,57.75],[157.45,57.8],[157.67,58.02],[158.21,58.02],[159.04,58.42],[159.59,58.8],[159.85,59.13],[160.55,59.55],[160.86,59.63],[161.45,60.03],[161.76,60.15],[162,60.42],[162.97,60.78],[163.71,60.92],[163.56,61.03],[164.01,61.34],[163.8,61.46],[164.02,61.71],[164.21,62.29],[164.6,62.47],[165.12,62.41],[165.4,62.49],[164.26,62.7],[163.33,62.55],[163.01,61.79],[163.26,61.7],[162.99,61.54],[162.86,61.71],[162.39,61.66],[161.04,60.96],[160.77,60.75],[160.17,60.64],[160.38,61.02],[159.79,60.96],[159.88,61.29],[160.32,61.79],[160.18,61.9],[159.55,61.72],[159.08,61.92],[158.07,61.75],[157.47,61.8],[156.68,61.48],[156.63,61.27],[156.06,61],[155.72,60.68],[154.97,60.38],[154.29,59.83],[154.15,59.53],[154.58,59.54],[155.17,59.36],[155.16,59.19],[154.7,59.14],[154.46,59.22],[154.01,59.08],[153.69,59.22],[153.36,59.21],[152.88,58.94],[152.4,59.03],[152.09,58.91],[151.33,58.88],[151.12,59.08],[152.26,59.22],[151.8,59.32],[151.48,59.52],[150.67,59.56],[149.64,59.77],[149.06,59.63],[149.21,59.49],[148.8,59.53],[148.91,59.28],[148.49,59.26],[148.26,59.41],[147.51,59.27],[146.44,59.43],[146.27,59.22],[145.93,59.2],[145.55,59.41],[144.48,59.38],[143.87,59.41],[143.19,59.37],[142.58,59.24],[142.03,59],[141.75,58.75],[140.99,58.42],[140.68,58.21],[140.45,57.81],[140,57.69],[139.45,57.33],[138.66,56.97],[137.69,56.14],[136.18,55.35],[135.26,54.94],[135.26,54.73],[135.85,54.58],[136.8,54.62],[136.72,53.8],[137.16,53.82],[137.09,54.13],[137.67,54.28],[137.34,54.1],[137.84,53.95],[137.22,53.58],[137.74,53.56],[138.25,53.73],[138.38,53.91],[138.57,53.82],[138.25,53.52],[138.66,53.75],[138.7,54.32],[139.32,54.19],[139.71,54.28],[140.18,54.05],[140.35,53.81],[141,53.49],[141.4,53.18],[141.18,53.01],[140.87,53.04],[141.26,52.84],[141.17,52.37],[141.49,52.18],[141.37,51.92],[140.93,51.62],[140.69,51.23],[140.48,50.55],[140.52,49.6],[140.17,48.52],[140,48.32],[139.37,47.89],[139,47.38],[138.59,47.06],[138.34,46.54],[137.69,45.82],[136.8,45.17],[135.87,44.37],[135.48,43.83],[135.13,43.53],[133.71,42.83],[133.16,42.7],[132.71,42.88],[132.3,42.88],[132.31,43.31],[131.87,43.1],[131.8,43.25],[131.16,42.63],[130.71,42.66],[130.83,42.52],[130.69,42.3]]],[[[47.44,80.85],[48.45,80.81],[48.69,80.63],[47.6,80.74],[47.3,80.61],[46.68,80.56],[46.14,80.45],[45.97,80.57],[45.64,80.54],[44.91,80.61],[46.8,80.76],[47.44,80.85]]],[[[50.28,80.93],[50.8,80.91],[51.7,80.69],[50.96,80.54],[49.84,80.5],[49.59,80.38],[48.9,80.37],[48.98,80.16],[48.58,80.2],[48.39,80.1],[47.63,80.11],[47.98,80.21],[46.99,80.18],[46.64,80.3],[47.66,80.5],[48.4,80.57],[49.09,80.52],[49.24,80.82],[50.28,80.93]]],[[[67.77,76.24],[66.28,75.98],[64.26,75.72],[63.66,75.67],[61.36,75.32],[60.66,75.06],[60.24,74.97],[60.5,74.9],[59.6,74.61],[59.24,74.69],[59.1,74.51],[58.53,74.5],[58.66,74.29],[58.44,74.13],[57.77,74.01],[57.84,73.81],[57.29,73.81],[57.54,73.66],[56.97,73.37],[56.43,73.3],[55.55,73.36],[55.01,73.45],[54.3,73.35],[54.2,73.54],[53.76,73.77],[54.64,73.96],[55.34,74.42],[56.08,74.48],[55.58,74.63],[55.91,74.8],[56.5,74.96],[56,75],[56.04,75.19],[56.57,75.1],[56.84,75.35],[57.61,75.34],[58.06,75.66],[58.88,75.86],[60.04,75.98],[60.28,76.1],[60.94,76.07],[61.2,76.28],[62.97,76.24],[64.46,76.38],[65.86,76.61],[66.06,76.75],[66.83,76.92],[67.53,77.01],[68.49,76.93],[68.87,76.79],[68.9,76.57],[68.16,76.28],[67.77,76.24]]],[[[55.32,73.31],[56.43,73.2],[56.08,72.79],[55.72,72.77],[55.36,72.46],[55.52,72.22],[55.3,71.94],[56.04,71.35],[56.89,70.93],[57.62,70.73],[57.15,70.59],[56.26,70.71],[56.56,70.59],[55.69,70.69],[54.6,70.68],[53.38,70.87],[53.59,71.05],[54.16,71.12],[53.32,71.4],[53.37,71.54],[51.81,71.49],[51.44,71.78],[51.58,72.07],[52.25,72.13],[52.66,72.34],[52.92,72.67],[52.53,72.74],[52.81,72.87],[53.37,72.92],[53.19,73.1],[53.36,73.23],[54.09,73.28],[54.81,73.39],[55.32,73.31]]],[[[96.53,81.08],[96.76,80.96],[97.83,80.8],[97.86,80.7],[97.22,80.65],[97.03,80.54],[97.29,80.34],[97.17,80.24],[94.56,80.13],[93.87,80.01],[92.2,80.18],[91.53,80.36],[91.9,80.48],[92.58,80.53],[93.26,80.79],[92.59,80.78],[93.07,80.99],[94.84,81.14],[95.16,81.27],[95.8,81.28],[96.53,81.08]]],[[[97.67,80.16],[98.02,80.02],[97.65,79.76],[98.27,79.87],[98.6,80.05],[99.29,80.02],[100.06,79.78],[99.78,79.63],[99.68,79.32],[99.04,79.29],[99.82,79.1],[99.93,78.96],[99.44,78.83],[98.41,78.79],[97.56,78.83],[96.81,78.99],[95.8,79],[95.53,79.1],[94.79,79.09],[94.22,79.4],[93.07,79.5],[93.4,79.63],[94.26,79.83],[94.35,79.94],[94.99,80.1],[96.42,80.11],[97.67,80.16]]],[[[102.88,79.25],[102.41,78.84],[102.95,79.06],[103.67,79.15],[104.4,78.98],[104.63,78.84],[105.14,78.82],[105.31,78.5],[104.83,78.35],[103.72,78.26],[101.2,78.19],[100.08,77.97],[99.29,78.04],[100.02,78.34],[100.28,78.68],[100.87,78.78],[100.9,78.98],[101.2,79.2],[101.83,79.37],[102.25,79.26],[102.28,79.43],[102.79,79.39],[102.88,79.25]]],[[[140.05,75.83],[140.39,75.8],[140.6,75.64],[140.94,75.7],[141.03,75.99],[141.49,76.14],[142.46,75.9],[143.19,75.81],[143.69,75.86],[145.26,75.59],[144.73,75.37],[144.89,75.27],[144.02,75.04],[143.17,75.12],[142.73,75.34],[142.74,75.54],[143,75.66],[142.55,75.72],[142.09,75.66],[142.15,75.46],[142.62,75.13],[143.13,74.97],[142.47,74.82],[141.99,74.99],[140.27,74.85],[139.61,74.95],[139.33,74.69],[139.1,74.66],[138.09,74.8],[137.68,75.01],[137.22,75.12],[136.98,75.37],[137.29,75.35],[137.27,75.75],[137.71,75.76],[137.5,75.91],[138.21,76.12],[138.92,76.2],[140.05,75.83]]],[[[146.8,75.37],[147.44,75.44],[148.43,75.41],[148.47,75.27],[150.11,75.22],[150.53,75.1],[150.82,75.16],[150.65,74.94],[149.6,74.77],[148.09,74.83],[147.63,74.96],[147.14,75],[146.15,75.2],[146.44,75.56],[146.8,75.37]]],[[[142.76,54.39],[142.98,54.14],[142.92,53.79],[143.26,53.22],[143.32,52.61],[143.16,52.08],[143.32,51.58],[143.46,51.47],[143.82,50.28],[144.05,49.9],[144.27,49.31],[144.62,48.82],[144.13,49.21],[143.73,49.31],[143.1,49.2],[142.57,48.07],[142.56,47.74],[143.01,47.22],[143.22,46.79],[143.48,46.75],[143.58,46.36],[143.43,46.03],[143.28,46.56],[142.58,46.7],[142.4,46.56],[142.08,45.92],[141.83,46.45],[142.04,47.14],[141.97,47.59],[142.18,48.01],[142.13,48.29],[141.86,48.75],[142.14,49.57],[142.15,50.22],[142.07,50.51],[142.21,51],[142.09,51.43],[141.72,51.74],[141.66,52.27],[141.8,52.56],[141.83,53.34],[142.14,53.5],[142.53,53.45],[142.71,53.89],[142.34,54.28],[142.76,54.39]]],[[[180,71.54],[180.89,71.6],[181.65,71.53],[182.47,71.26],[182.18,71.07],[180.49,70.92],[180,70.99],[179.88,70.98],[179.65,70.9],[178.79,70.82],[178.63,71.05],[178.89,71.23],[179.88,71.52],[180,71.54]]],[[[35.81,65.18],[35.78,64.98],[35.53,65.15],[35.81,65.18]]],[[[42.71,66.7],[42.71,66.7],[42.71,66.7],[42.71,66.7]]],[[[52.9,71.36],[53.21,71.16],[53.05,71.03],[52.55,71.25],[52.51,71.39],[52.9,71.36]]],[[[168.04,54.56],[168.04,54.56],[168.04,54.56],[168.04,54.56]]],[[[160.72,70.82],[160.72,70.82],[160.72,70.82],[160.72,70.82]]],[[[161.47,68.9],[161.14,69.11],[161.11,69.47],[161.51,69.64],[161.35,69.37],[161.47,68.9]]],[[[152.88,76.12],[152.88,76.12],[152.88,76.12],[152.88,76.12]]],[[[149.15,76.66],[148.4,76.65],[148.72,76.75],[149.41,76.78],[149.15,76.66]]],[[[137.96,71.51],[137.71,71.42],[137.08,71.5],[137.82,71.59],[137.96,71.51]]],[[[107.7,78.13],[107.48,78.06],[106.42,78.14],[107.51,78.19],[107.7,78.13]]],[[[112.48,76.62],[112.53,76.45],[112.01,76.63],[112.48,76.62]]],[[[96.53,76.28],[96.3,76.12],[95.31,76.21],[95.38,76.29],[96.53,76.28]]],[[[96.28,77.03],[95.86,76.98],[95.27,77.02],[96.53,77.21],[96.28,77.03]]],[[[89.51,77.19],[89.14,77.23],[89.62,77.31],[89.51,77.19]]],[[[74.66,72.87],[74.18,72.98],[74.2,73.11],[74.96,73.06],[74.66,72.87]]],[[[75.51,73.46],[75.51,73.46],[75.51,73.46],[75.51,73.46]]],[[[83.55,74.07],[82.82,74.09],[83.15,74.15],[83.55,74.07]]],[[[67.34,69.53],[67.34,69.53],[67.34,69.53],[67.34,69.53]]],[[[66.56,70.54],[66.56,70.54],[66.56,70.54],[66.56,70.54]]],[[[70.02,66.5],[69.65,66.57],[69.5,66.75],[70.08,66.7],[70.02,66.5]]],[[[50.05,80.07],[49.56,80.16],[49.88,80.23],[50.32,80.17],[50.05,80.07]]],[[[51.41,79.94],[50.45,79.92],[50.09,79.98],[50.94,80.09],[51.41,79.94]]],[[[50.76,81.05],[50.37,81.12],[50.72,81.17],[50.76,81.05]]],[[[55.48,80.27],[55.48,80.27],[55.48,80.27],[55.48,80.27]]],[[[54.42,80.47],[53.81,80.48],[53.88,80.61],[54.42,80.47]]],[[[59.69,79.96],[59.33,79.92],[58.95,80.04],[59.54,80.12],[59.69,79.96]]],[[[58.62,81.04],[58.86,80.78],[57.94,80.79],[57.21,81.02],[58.05,81.12],[58.62,81.04]]],[[[47.98,45.49],[47.98,45.49],[47.98,45.49],[47.98,45.49]]],[[[50.27,69.19],[49.62,68.86],[48.67,68.73],[48.28,69.04],[48.42,69.35],[48.84,69.49],[49.23,69.51],[50.27,69.19]]],[[[63.37,80.7],[62.52,80.82],[63.11,80.97],[64.1,81],[64.31,81.17],[65.17,81.14],[65.44,80.93],[64.55,80.76],[63.37,80.7]]],[[[57.96,80.12],[57.39,80.14],[57.08,80.49],[58.48,80.46],[59.25,80.34],[58.4,80.32],[57.96,80.12]]],[[[62.17,80.83],[62.08,80.62],[61.77,80.6],[61.05,80.42],[60.28,80.49],[59.65,80.43],[59.34,80.5],[59.59,80.82],[60.28,80.8],[61.6,80.89],[62.17,80.83]]],[[[61.14,80.95],[60.06,80.99],[60.59,81.09],[61.46,81.1],[61.14,80.95]]],[[[53.52,80.18],[52.86,80.17],[52.21,80.26],[52.85,80.4],[53.33,80.4],[53.85,80.27],[53.52,80.18]]],[[[57.08,80.35],[57.08,80.09],[55.72,80.11],[56.03,80.34],[57.08,80.35]]],[[[57.81,81.55],[58.44,81.46],[57.86,81.37],[58.02,81.25],[57.45,81.14],[56.82,81.24],[56.51,81.17],[55.72,81.19],[55.47,81.31],[56.16,81.3],[57.09,81.54],[57.81,81.55]]],[[[54.72,81.12],[55.47,81.02],[56.17,81.03],[57.69,80.79],[56.81,80.66],[55.71,80.64],[55.12,80.75],[54.07,80.81],[54.72,81.12]]],[[[63.65,81.61],[62.88,81.61],[62.11,81.68],[62.79,81.72],[63.71,81.69],[63.65,81.61]]],[[[58.3,81.72],[58.14,81.83],[59.26,81.85],[59.36,81.76],[58.3,81.72]]],[[[92.68,79.68],[92.15,79.68],[91.13,79.91],[91.42,80.05],[92.17,80.05],[93.8,79.91],[93.6,79.82],[92.68,79.68]]],[[[91.57,81.14],[91.22,81.06],[89.98,81.11],[90.07,81.21],[91.48,81.18],[91.57,81.14]]],[[[141.01,74],[140.51,73.92],[140.18,74],[140.1,74.18],[140.85,74.27],[141.1,74.17],[141.01,74]]],[[[142.19,73.9],[143.34,73.57],[143.49,73.25],[143.19,73.22],[141.6,73.31],[140.66,73.45],[140.03,73.36],[139.69,73.42],[140.38,73.48],[141.08,73.87],[142.19,73.9]]],[[[135.95,75.41],[135.45,75.39],[135.7,75.84],[136.17,75.61],[135.95,75.41]]],[[[136.2,73.91],[136.12,73.88],[135.4,74.2],[135.63,74.22],[136.26,73.99],[136.2,73.91]]],[[[137.94,55.09],[138.21,55.03],[137.66,54.65],[137.46,54.87],[137.23,54.79],[137.58,55.2],[137.94,55.09]]],[[[169.2,69.58],[168.35,69.66],[167.79,69.84],[168.36,70.02],[169.38,69.88],[169.2,69.58]]],[[[163.63,58.6],[163.76,59.01],[164.57,59.22],[164.62,58.89],[164.28,58.84],[163.63,58.6]]],[[[166.65,54.84],[166.64,54.69],[166.07,55.14],[165.75,55.29],[166.28,55.31],[166.25,55.17],[166.65,54.84]]],[[[154.81,49.31],[154.61,49.38],[154.82,49.65],[154.81,49.31]]],[[[156.41,50.66],[156.17,50.73],[156.49,50.84],[156.41,50.66]]],[[[155.92,50.3],[155.24,50.09],[155.22,50.3],[155.68,50.4],[156.1,50.77],[155.92,50.3]]],[[[154.08,48.79],[154.08,48.79],[154.08,48.79],[154.08,48.79]]],[[[155.65,50.82],[155.65,50.82],[155.65,50.82],[155.65,50.82]]],[[[153.1,47.76],[153.1,47.76],[153.1,47.76],[153.1,47.76]]],[[[152,46.9],[152,46.9],[152,46.9],[152,46.9]]],[[[149.69,45.64],[149.45,45.59],[149.67,45.84],[150.31,46.2],[150.55,46.21],[149.69,45.64]]],[[[148.6,45.32],[147.91,44.99],[147.66,44.98],[147.21,44.55],[146.9,44.4],[147.15,44.77],[147.88,45.23],[148.32,45.28],[148.61,45.48],[148.6,45.32]]],[[[146.71,43.74],[146.71,43.74],[146.71,43.74],[146.71,43.74]]],[[[146.21,44.5],[146.57,44.44],[146.11,44.25],[145.59,43.85],[146.11,44.5],[146.21,44.5]]],[[[113.39,74.4],[112.78,74.09],[112.2,74.15],[111.5,74.35],[111.88,74.36],[112.09,74.55],[113.39,74.4]]],[[[76.25,79.65],[77.59,79.5],[76.65,79.49],[76.15,79.58],[76.25,79.65]]],[[[80.03,80.85],[79.1,80.81],[79.22,80.96],[80.43,80.93],[80.03,80.85]]],[[[70.67,73.1],[69.92,73.08],[70.15,73.44],[70.94,73.52],[71.59,73.28],[71.62,73.17],[70.67,73.1]]],[[[77.63,72.29],[76.91,72.3],[76.9,72.37],[77.58,72.63],[78.36,72.48],[77.63,72.29]]],[[[79.5,72.72],[78.88,72.75],[78.66,72.89],[79.16,73.1],[79.54,72.92],[79.5,72.72]]],[[[82.17,75.42],[81.98,75.25],[81.5,75.37],[81.91,75.5],[82.17,75.42]]],[[[60.45,69.94],[60.44,69.73],[59.58,69.74],[59.5,69.87],[58.95,69.89],[58.47,70.27],[59.01,70.47],[59.64,70.2],[60.45,69.94]]],[[[20.96,55.28],[20.59,54.98],[21.19,54.93],[21.23,55.26],[22.07,55.06],[22.57,55.06],[22.83,54.84],[22.68,54.49],[22.76,54.36],[20.21,54.42],[19.6,54.46],[19.94,54.75],[19.97,54.92],[20.52,55],[20.9,55.29],[20.96,55.28]]],[[[33.59,46.1],[33.66,46.22],[34.69,45.98],[35,45.73],[35.37,45.35],[35.56,45.31],[36.29,45.46],[36.57,45.39],[36.39,45.07],[35.87,45],[35.57,45.12],[35.09,44.8],[34.72,44.81],[33.91,44.39],[33.45,44.55],[33.61,44.91],[33.55,45.1],[32.92,45.35],[32.51,45.4],[33.14,45.75],[33.67,45.95],[33.59,46.1]]]]},"properties":{"id":"ue_fiscal:RUS","n":"Rusia","st":"ue_no_cooperativa","p":"RUS","x":"Anexo I: no cooperativa (lista del 2026-10-09)","z":0}},{"type":"Feature","geometry":{"type":"Point","coordinates":[102.065,61.865]},"properties":{"id":"ue_fiscal:RUS:p","n":"Rusia","st":"ue_no_cooperativa","p":"RUS","x":"Anexo I: no cooperativa (lista del 2026-10-09)","z":0}},{"type":"Feature","geometry":{"type":"MultiPolygon","coordinates":[[[[-77.37,8.66],[-77.48,8.5],[-77.21,8.03],[-77.54,7.57],[-77.7,7.69],[-77.9,7.23],[-78.17,7.54],[-78.42,8.06],[-78.12,8.38],[-79.09,9],[-79.44,9.01],[-79.69,8.85],[-79.75,8.6],[-80.37,8.29],[-80.46,8.08],[-80.01,7.5],[-80.44,7.27],[-80.84,7.22],[-81.16,7.85],[-81.22,7.62],[-81.5,7.72],[-81.73,8.14],[-82.16,8.19],[-82.23,8.31],[-82.68,8.32],[-82.88,8.07],[-83.02,8.32],[-82.86,8.45],[-82.92,8.74],[-82.73,8.92],[-82.94,9.06],[-82.94,9.45],[-82.57,9.58],[-82.37,9.43],[-82.24,9.03],[-81.78,8.96],[-81.36,8.78],[-80.84,8.89],[-80.13,9.21],[-79.58,9.6],[-78.5,9.41],[-78.08,9.24],[-77.37,8.66]]],[[[-78.9,8.27],[-78.9,8.27],[-78.9,8.27],[-78.9,8.27]]],[[[-81.6,7.33],[-81.85,7.45],[-81.73,7.62],[-81.6,7.33]]],[[[-82.23,9.38],[-82.23,9.38],[-82.23,9.38],[-82.23,9.38]]],[[[-79.07,8.25],[-79.07,8.25],[-79.07,8.25],[-79.07,8.25]]]]},"properties":{"id":"ue_fiscal:PAN","n":"Panamá","st":"ue_compromisos","p":"PAN","x":"Anexo II: compromisos pendientes (lista del 2026-10-09)","z":0}},{"type":"Feature","geometry":{"type":"Point","coordinates":[-80.414,8.452]},"properties":{"id":"ue_fiscal:PAN:p","n":"Panamá","st":"ue_compromisos","p":"PAN","x":"Anexo II: compromisos pendientes (lista del 2026-10-09)","z":0}},{"type":"Feature","geometry":{"type":"MultiPolygon","coordinates":[[[[131.17,3.03],[131.17,3.03],[131.17,3.03],[131.17,3.03]]],[[[134.6,7.38],[134.6,7.38],[134.6,7.38],[134.6,7.38]]]]},"properties":{"id":"ue_fiscal:PLW","n":"Palau","st":"ue_no_cooperativa","p":"PLW","x":"Anexo I: no cooperativa (lista del 2026-10-09)","z":0}},{"type":"Feature","geometry":{"type":"Point","coordinates":[131.17,3.03]},"properties":{"id":"ue_fiscal:PLW:p","n":"Palau","st":"ue_no_cooperativa","p":"PLW","x":"Anexo I: no cooperativa (lista del 2026-10-09)","z":0}},{"type":"Feature","geometry":{"type":"Polygon","coordinates":[[[-2.22,35.1],[-1.79,34.75],[-1.73,34.47],[-1.68,33.32],[-1.51,32.88],[-1.06,32.47],[-1.28,32.09],[-2.45,32.13],[-2.93,32.04],[-3.02,31.83],[-3.83,31.66],[-3.83,31.2],[-3.62,31.07],[-4.32,30.7],[-4.97,30.47],[-5.45,29.96],[-5.78,29.87],[-6.5,29.81],[-6.64,29.57],[-7.09,29.63],[-7.68,29.35],[-8.66,28.72],[-8.69,27.66],[-8.82,27.66],[-8.79,27.12],[-9.41,27.09],[-9.74,26.86],[-10.25,26.86],[-10.92,27.01],[-11.39,26.88],[-11.34,26.63],[-11.72,26.1],[-12.03,26.03],[-12.43,24.83],[-13.06,24.4],[-13.31,23.98],[-13.89,23.69],[-14.04,23.34],[-14.22,22.31],[-14.63,21.86],[-14.84,21.45],[-15.75,21.49],[-17,21.42],[-16.93,21.9],[-16.36,22.59],[-16.21,23.1],[-15.81,23.75],[-15.9,23.84],[-15.04,24.55],[-14.86,24.87],[-14.79,25.4],[-14.41,26.25],[-13.58,26.74],[-13.18,27.65],[-12.95,27.91],[-11.99,28.13],[-11.43,28.38],[-11.08,28.71],[-10.49,29.06],[-9.85,29.81],[-9.67,30.11],[-9.65,30.45],[-9.88,30.72],[-9.81,31.42],[-9.35,32.09],[-9.25,32.57],[-8.6,33.19],[-8.3,33.37],[-7.56,33.64],[-6.9,33.97],[-6.35,34.78],[-5.92,35.79],[-5.28,35.9],[-5.34,35.74],[-4.84,35.28],[-4.33,35.16],[-3.69,35.28],[-3.21,35.24],[-2.97,35.41],[-2.84,35.13],[-2.22,35.1]]]},"properties":{"id":"ue_fiscal:MAR","n":"Marruecos","st":"ue_compromisos","p":"MAR","x":"Anexo II: compromisos pendientes (lista del 2026-10-09)","z":0}},{"type":"Feature","geometry":{"type":"Point","coordinates":[-8.829,29.268]},"properties":{"id":"ue_fiscal:MAR:p","n":"Marruecos","st":"ue_compromisos","p":"MAR","x":"Anexo II: compromisos pendientes (lista del 2026-10-09)","z":0}},{"type":"Feature","geometry":{"type":"Polygon","coordinates":[[[19.19,43.53],[19.55,43.21],[20.34,42.89],[20.35,42.83],[20.03,42.73],[20.06,42.55],[19.79,42.48],[19.65,42.63],[19.28,42.17],[19.34,41.87],[18.89,42.25],[18.52,42.43],[18.44,42.56],[18.44,42.97],[18.62,43.03],[18.94,43.5],[19.19,43.53]]]},"properties":{"id":"ue_fiscal:MNE","n":"Montenegro","st":"ue_compromisos","p":"MNE","x":"Anexo II: compromisos pendientes (lista del 2026-10-09)","z":0}},{"type":"Feature","geometry":{"type":"Point","coordinates":[19.331,42.774]},"properties":{"id":"ue_fiscal:MNE:p","n":"Montenegro","st":"ue_compromisos","p":"MNE","x":"Anexo II: compromisos pendientes (lista del 2026-10-09)","z":0}},{"type":"Feature","geometry":{"type":"Polygon","coordinates":[[[35.79,32.73],[36.37,32.39],[36.82,32.32],[38.77,33.37],[39.06,32.49],[39.25,32.35],[39.14,32.13],[39,32.01],[36.96,31.49],[37.98,30.5],[37.63,30.31],[37.47,30],[36.75,29.87],[36.48,29.5],[36.02,29.19],[34.95,29.35],[34.97,29.55],[35.14,30.14],[35.14,30.42],[35.44,31.13],[35.45,31.48],[35.56,31.77],[35.55,32.4],[35.57,32.64],[35.79,32.73]]]},"properties":{"id":"ue_fiscal:JOR","n":"Jordania","st":"ue_compromisos","p":"JOR","x":"Anexo II: compromisos pendientes (lista del 2026-10-09)","z":0}},{"type":"Feature","geometry":{"type":"Point","coordinates":[36.682,31.29]},"properties":{"id":"ue_fiscal:JOR:p","n":"Jordania","st":"ue_compromisos","p":"JOR","x":"Anexo II: compromisos pendientes (lista del 2026-10-09)","z":0}},{"type":"Feature","geometry":{"type":"MultiPolygon","coordinates":[[[[-29.95,83.56],[-28.49,83.43],[-27.03,83.38],[-25.95,83.29],[-26.18,83.22],[-30.09,83.16],[-31.99,83.09],[-32.03,82.98],[-30.39,83.09],[-29.18,83.1],[-28.15,83.06],[-27,83.07],[-25.12,83.16],[-24.47,82.88],[-23.69,82.82],[-22.52,82.79],[-21.69,82.68],[-21.52,82.6],[-22.47,82.38],[-23.86,82.29],[-29.58,82.16],[-29.81,81.96],[-27.84,82.05],[-25.15,82],[-24.59,81.88],[-24.29,81.7],[-23.64,81.74],[-23.1,82.01],[-21.34,82.07],[-21.13,81.93],[-21.23,81.6],[-21.72,81.35],[-23.07,80.93],[-22.83,80.91],[-21.93,81.05],[-20.76,81.31],[-20.01,81.57],[-19.23,81.64],[-19.15,81.51],[-18.46,81.5],[-17.45,81.4],[-16.36,81.73],[-15.55,81.83],[-13.7,81.79],[-12.43,81.68],[-11.42,81.48],[-13.45,81.04],[-14.49,80.97],[-14.23,80.87],[-14.5,80.76],[-15.54,80.65],[-16.32,80.65],[-16.76,80.57],[-15.94,80.43],[-16.87,80.2],[-18.07,80.17],[-19.43,80.26],[-20.15,80.01],[-20.14,79.8],[-19.39,79.75],[-19.28,79.68],[-19.41,79.35],[-19.07,79.15],[-19.72,79.07],[-20.05,78.84],[-20.62,78.8],[-21.13,78.66],[-20.95,78.55],[-21.75,77.79],[-21.58,77.65],[-20.86,77.91],[-19.49,77.72],[-19.52,77.57],[-20.16,77.69],[-20.68,77.62],[-20.23,77.37],[-19.3,77.22],[-18.59,77.28],[-18.34,77.21],[-18.34,76.92],[-18.51,76.78],[-20.06,76.93],[-20.94,76.89],[-21.62,76.69],[-22.33,76.79],[-22.61,76.68],[-21.88,76.57],[-21.42,76.26],[-20.89,76.3],[-20.1,76.22],[-19.96,76],[-19.51,75.76],[-19.37,75.39],[-19.52,75.18],[-19.8,75.16],[-20.49,75.31],[-20.91,75.16],[-21.79,74.97],[-20.99,75.07],[-20.78,74.89],[-21.04,74.65],[-20.61,74.73],[-20.42,74.98],[-19.99,74.98],[-19.54,74.62],[-19.23,74.48],[-19.37,74.28],[-20.26,74.28],[-20.23,74.2],[-21.13,74.11],[-21.95,74.24],[-21.76,74.48],[-22.33,74.29],[-22.33,74.09],[-21.99,73.97],[-21.3,73.96],[-20.37,73.85],[-20.51,73.49],[-21.55,73.43],[-22.19,73.27],[-22.99,73.35],[-23.76,73.54],[-24.16,73.77],[-24.68,73.6],[-25.43,73.79],[-24.79,73.51],[-26.06,73.25],[-27.27,73.44],[-26.6,73.28],[-26.75,73.12],[-25.4,73.28],[-25.27,73.36],[-24.59,73.42],[-23.9,73.4],[-22.85,73.08],[-22.04,72.92],[-22.07,72.4],[-22.28,72.35],[-22.29,72.12],[-24.07,72.5],[-24.36,72.69],[-24.63,73.04],[-26.66,72.72],[-26.39,72.67],[-24.99,72.89],[-24.77,72.87],[-24.67,72.44],[-22.87,71.97],[-22.5,71.91],[-22.37,71.77],[-21.96,71.74],[-22.5,71.5],[-22.42,71.25],[-22.3,71.43],[-21.75,71.48],[-21.67,70.86],[-21.52,70.53],[-22.38,70.46],[-22.44,70.86],[-22.69,70.44],[-23.33,70.45],[-23.97,70.65],[-24.27,71.05],[-24.56,71.22],[-25.89,71.57],[-27.01,71.63],[-27.11,71.53],[-26.07,71.5],[-25.76,71.44],[-25.74,71.18],[-26.72,70.95],[-28.3,71.01],[-27.99,70.9],[-28.15,70.66],[-29.04,70.46],[-28.54,70.48],[-28.01,70.4],[-26.75,70.48],[-26.51,70.4],[-27.56,70.12],[-27.38,69.99],[-27.03,70.2],[-26.42,70.22],[-25.53,70.35],[-24.75,70.29],[-23.67,70.14],[-22.29,70.13],[-22.43,69.99],[-23.09,69.88],[-23.01,69.81],[-23.81,69.74],[-23.71,69.63],[-24.25,69.59],[-24.22,69.48],[-25.54,69.04],[-25.7,68.89],[-26.48,68.68],[-28.36,68.45],[-29.25,68.3],[-29.87,68.31],[-30.2,68.2],[-30.72,68.25],[-30.61,68.12],[-30.98,68.06],[-31.42,68.13],[-32.33,68.44],[-32.37,68.21],[-32.16,67.99],[-33.16,67.63],[-34.1,66.73],[-34.63,66.43],[-35.19,66.25],[-35.87,66.44],[-35.63,66.14],[-36.38,65.83],[-36.53,66.01],[-36.64,65.81],[-37.06,65.87],[-37.41,65.66],[-37.76,65.59],[-38,65.71],[-37.79,65.98],[-37.29,66.32],[-38.15,66.39],[-37.75,66.26],[-38.22,65.84],[-38.2,65.71],[-38.64,65.63],[-40.19,65.52],[-39.58,65.34],[-40.25,65.05],[-41.09,65.1],[-40.97,64.87],[-40.66,64.92],[-40.18,64.48],[-40.78,64.22],[-41.58,64.3],[-41.03,64.12],[-40.62,64.13],[-40.55,63.73],[-40.78,63.53],[-41.05,63.51],[-41.11,63.27],[-42.06,62.69],[-42.94,62.72],[-42.15,62.57],[-42.32,62.15],[-42.11,61.86],[-42.59,61.72],[-42.32,61.68],[-42.64,61.06],[-42.72,60.77],[-43.04,60.52],[-43.92,60.6],[-43.3,60.44],[-43.12,60.06],[-43.32,59.93],[-43.95,60.02],[-43.66,59.86],[-44.12,59.83],[-44.46,60.01],[-45.38,60.2],[-45.37,60.37],[-44.85,60.53],[-44.76,60.67],[-45.38,60.44],[-46.05,60.61],[-46.14,60.78],[-45.85,61.18],[-46.87,60.82],[-47.8,60.83],[-48.02,60.72],[-48.21,60.86],[-47.77,61],[-48.39,61.01],[-48.49,61.22],[-48.92,61.28],[-49.05,61.52],[-49.29,61.59],[-49.38,61.89],[-48.83,62.08],[-49.2,62.1],[-49.62,62],[-49.55,62.23],[-50.32,62.47],[-50.3,62.72],[-49.79,63.05],[-50.39,62.82],[-51.47,63.64],[-51.55,64.01],[-50.49,64.21],[-50.44,64.31],[-51.58,64.1],[-51.71,64.2],[-51.23,64.56],[-50.36,64.68],[-50.01,64.45],[-50.12,64.7],[-50.52,64.77],[-50.96,65.2],[-50.72,64.8],[-51.4,64.62],[-51.92,64.22],[-52.09,64.42],[-52.09,64.68],[-52.26,65.15],[-52.54,65.33],[-51.62,65.71],[-52.35,65.46],[-52.76,65.59],[-53.2,65.59],[-53.11,65.98],[-53.39,66.05],[-52.05,66.51],[-51.82,66.7],[-52.92,66.24],[-53.61,66.15],[-53.64,66.41],[-53.42,66.65],[-53.04,66.83],[-52.56,66.91],[-53.44,66.93],[-53.88,67.14],[-53.8,67.42],[-52.67,67.75],[-51.18,67.64],[-50.97,67.81],[-51.77,67.74],[-52.35,67.84],[-52.98,67.76],[-53.42,67.57],[-53.74,67.55],[-53.58,67.84],[-53.15,68.21],[-51.6,68.06],[-51.21,68.33],[-52.2,68.22],[-52.78,68.31],[-53.38,68.3],[-53.04,68.61],[-52.3,68.7],[-51.62,68.53],[-51.13,68.6],[-50.81,68.82],[-51.25,68.74],[-51.09,69.13],[-50.39,69.14],[-50.54,69.25],[-51.08,69.21],[-50.72,69.73],[-50.35,69.8],[-50.29,70.01],[-51.1,70.06],[-51.42,69.99],[-52.26,70.06],[-52.76,70.23],[-54.01,70.42],[-54.5,70.66],[-54.16,70.82],[-52.8,70.75],[-51.53,70.44],[-50.68,70.4],[-51.32,70.59],[-51.26,70.85],[-51.75,70.99],[-51.02,71],[-51.38,71.12],[-52.06,71.12],[-52.53,71.2],[-53.01,71.18],[-53.12,71.31],[-52.75,71.5],[-51.97,71.6],[-52.66,71.67],[-53.17,71.54],[-53.44,71.58],[-53.42,72],[-53.9,72.34],[-53.48,71.85],[-54.02,71.66],[-53.96,71.46],[-54.69,71.37],[-55.34,71.43],[-55.59,71.55],[-55.32,72.11],[-54.87,72.33],[-55.58,72.18],[-55.6,72.45],[-55.12,72.5],[-54.79,72.64],[-54.74,72.87],[-55.07,73.02],[-55.29,72.93],[-55.69,73.11],[-55.3,73.26],[-55.45,73.46],[-55.74,73.38],[-56.1,73.56],[-55.93,73.9],[-56.39,74.18],[-57.23,74.12],[-56.71,74.22],[-56.66,74.46],[-56.26,74.53],[-56.87,74.7],[-57.07,74.84],[-57.81,75.04],[-58.6,75.38],[-58.25,75.51],[-58.52,75.69],[-59.08,75.77],[-60.17,75.99],[-61.38,76.18],[-62.82,76.26],[-63.44,76.34],[-63.96,76.21],[-64.31,76.32],[-64.91,76.17],[-65.46,76.13],[-65.88,76.24],[-66.55,76.15],[-67.06,76.15],[-66.67,75.98],[-68.15,76.07],[-69.37,76.33],[-69.4,76.44],[-68.22,76.68],[-69.25,76.69],[-69.89,76.83],[-69.69,76.99],[-70.44,76.81],[-71.14,77.03],[-70.86,77.17],[-69.66,77.23],[-68.98,77.2],[-68.59,77.34],[-68.14,77.38],[-66.94,77.36],[-66.39,77.28],[-66.31,77.57],[-66.69,77.68],[-67.51,77.54],[-67.98,77.52],[-68.62,77.6],[-69.35,77.47],[-69.98,77.55],[-70.56,77.72],[-70.08,77.83],[-70.99,77.79],[-72.06,77.94],[-72.79,78.16],[-72.72,78.36],[-72.39,78.5],[-71.65,78.62],[-70.9,78.64],[-69.97,78.78],[-68.99,78.86],[-69.03,78.94],[-67.35,79.12],[-65.97,79.13],[-65.42,79.34],[-65.12,79.59],[-64.79,80],[-64.18,80.1],[-64.54,80.14],[-65.81,80.02],[-67.06,80.12],[-67.19,80.28],[-66.61,80.53],[-65.64,80.68],[-64.51,81],[-63.89,81.06],[-63.06,80.89],[-63.24,81.08],[-62.99,81.21],[-61.44,81.13],[-61.1,81.4],[-61.23,81.7],[-60.84,81.85],[-59.9,81.93],[-59.28,81.88],[-58.43,81.69],[-57.51,81.54],[-56.86,81.38],[-56.86,81.46],[-57.85,81.66],[-59.26,82.01],[-58.72,82.09],[-56.59,82.23],[-55.55,82.25],[-54.73,82.35],[-53.99,82.28],[-53.58,82.06],[-53.59,81.68],[-53.04,81.87],[-53.02,82.32],[-52.77,82.32],[-50.9,81.89],[-49.54,81.92],[-50.71,82.24],[-50.99,82.46],[-50.04,82.47],[-48.86,82.41],[-47.36,82.17],[-46.62,82.1],[-45.29,81.83],[-44.73,81.78],[-44.53,81.85],[-44.64,82.1],[-44.24,82.37],[-44.58,82.54],[-45.55,82.72],[-45.07,82.79],[-42.65,82.74],[-41.88,82.68],[-41.43,82.78],[-44.76,82.88],[-46.14,82.86],[-46.48,82.95],[-46.17,83.06],[-45.42,83.02],[-44.66,83.13],[-43.2,83.26],[-42.26,83.23],[-41.3,83.1],[-40.36,83.33],[-38.93,83.18],[-38.28,83],[-37.99,83.18],[-38.54,83.26],[-38.75,83.37],[-37.83,83.49],[-36.69,83.48],[-36.61,83.54],[-34.67,83.57],[-33.84,83.53],[-32.99,83.6],[-30.7,83.59],[-29.95,83.56]]],[[[-52.73,69.94],[-52.04,69.81],[-51.9,69.6],[-52.11,69.49],[-53.58,69.26],[-54.16,69.43],[-53.83,69.54],[-54.5,69.58],[-54.92,69.71],[-54.84,69.9],[-54.32,69.94],[-54.77,70.05],[-54.7,70.26],[-54.37,70.32],[-53.38,70.22],[-52.73,69.94]]],[[[-51.01,69.55],[-51.23,69.55],[-51.35,69.85],[-50.68,69.85],[-51.01,69.55]]],[[[-53.53,71.04],[-53.96,71.13],[-53.58,71.3],[-53.53,71.04]]],[[[-55.02,72.79],[-55.53,72.57],[-56.22,72.72],[-55.99,72.78],[-55.02,72.79]]],[[[-71.67,77.33],[-72.5,77.38],[-72.09,77.47],[-71.43,77.4],[-71.67,77.33]]],[[[-44.87,82.08],[-46.75,82.35],[-47.31,82.53],[-47.27,82.66],[-46.4,82.69],[-45.41,82.58],[-44.75,82.4],[-44.87,82.08]]],[[[-25.43,70.92],[-25.4,70.65],[-26.27,70.45],[-26.61,70.55],[-27.9,70.45],[-28.04,70.51],[-27.71,70.71],[-27.71,70.9],[-26.98,70.86],[-26.34,70.92],[-25.82,71.04],[-25.43,70.92]]],[[[-18.66,81.85],[-19.03,81.83],[-19.59,81.99],[-19.32,82.12],[-18.66,81.85]]],[[[-17.61,79.83],[-18.03,79.71],[-19.03,79.77],[-19,79.94],[-17.98,80.05],[-17.47,80.03],[-17.61,79.83]]],[[[-19,77.97],[-19.13,77.94],[-19.32,78.34],[-18.93,78.42],[-19,77.97]]],[[[-18.58,76.04],[-18.7,76.02],[-19.09,76.43],[-19.06,76.7],[-18.73,76.64],[-18.58,76.04]]],[[[-18,75.41],[-17.89,75.2],[-17.5,75.15],[-17.58,74.99],[-18.67,75],[-18.89,75.07],[-18.86,75.32],[-18,75.41]]],[[[-17.96,77.64],[-18.17,77.71],[-17.68,77.86],[-17.96,77.64]]],[[[-37.03,65.53],[-37.03,65.53],[-37.03,65.53],[-37.03,65.53]]],[[[-46.27,60.78],[-46.38,60.66],[-46.79,60.78],[-46.2,60.94],[-46.27,60.78]]],[[[-51.68,70.86],[-52.12,70.87],[-51.97,70.98],[-51.68,70.86]]]]},"properties":{"id":"ue_fiscal:GRL","n":"Groenlandia","st":"ue_compromisos","p":"GRL","x":"Anexo II: compromisos pendientes (lista del 2026-10-09)","z":0}},{"type":"Feature","geometry":{"type":"Point","coordinates":[-40.986,73.437]},"properties":{"id":"ue_fiscal:GRL:p","n":"Groenlandia","st":"ue_compromisos","p":"GRL","x":"Anexo II: compromisos pendientes (lista del 2026-10-09)","z":0}},{"type":"Feature","geometry":{"type":"MultiPolygon","coordinates":[[[[115.14,4.9],[115.33,4.38],[115.11,4.39],[115.03,4.9],[115.14,4.9]]],[[[115.03,4.9],[114.75,4.72],[114.84,4.39],[114.61,4.02],[114.07,4.59],[114.3,4.61],[114.84,4.95],[115.03,4.9]]]]},"properties":{"id":"ue_fiscal:BRN","n":"Brunei Darussalam","st":"ue_compromisos","p":"BRN","x":"Anexo II: compromisos pendientes (lista del 2026-10-09)","z":0}},{"type":"Feature","geometry":{"type":"Point","coordinates":[114.684,4.635]},"properties":{"id":"ue_fiscal:BRN:p","n":"Brunei Darussalam","st":"ue_compromisos","p":"BRN","x":"Anexo II: compromisos pendientes (lista del 2026-10-09)","z":0}}]}